{"type": "FeatureCollection", "features": [{"type": "Feature", "geometry": {"type": "Point", "coordinates": [-77.00178968298981, -12.0767836]}, "properties": {"id": 679624873, "feat_type": "way", "quality_categories": "improper_geometries, missing_tags", "issue_ids": "[0, 1]", "osm_url": "https://www.openstreetmap.org/way/679624873", "josm_url": "http://127.0.0.1:8111/load_object?new_layer=false&objects=w679624873", "id_url": "https://www.openstreetmap.org/edit?editor=id&way=679624873#map=20/-12.0767836/-77.00178968298981"}}, {"type": "Feature", "geometry": {"type": "Point", "coordinates": [-76.99993561066188, -12.0738211]}, "properties": {"id": 832016539, "feat_type": "way", "quality_categories": "improper_geometries, missing_tags", "issue_ids": "[0, 1]", "osm_url": "https://www.openstreetmap.org/way/832016539", "josm_url": "http://127.0.0.1:8111/load_object?new_layer=false&objects=w832016539", "id_url": "https://www.openstreetmap.org/edit?editor=id&way=832016539#map=20/-12.0738211/-76.99993561066188"}}, {"type": "Feature", "geometry": {"type": "Point", "coordinates": [-77.01019225, -12.0991468]}, "properties": {"id": 621847357, "feat_type": "way", "quality_categories": "improper_geometries", "issue_ids": "[1]", "osm_url": "https://www.openstreetmap.org/way/621847357", "josm_url": "http://127.0.0.1:8111/load_object?new_layer=false&objects=w621847357", "id_url": "https://www.openstreetmap.org/edit?editor=id&way=621847357#map=20/-12.0991468/-77.01019225"}}]}