{"type": "FeatureCollection", "features": [{"type": "Feature", "geometry": {"type": "Point", "coordinates": [-77.0561559, -12.0190707]}, "properties": {"id": 395001660, "feat_type": "way", "quality_categories": "improper_keys", "issue_ids": "[0]", "osm_url": "https://www.openstreetmap.org/way/395001660", "josm_url": "http://127.0.0.1:8111/load_object?new_layer=false&objects=w395001660", "id_url": "https://www.openstreetmap.org/edit?editor=id&way=395001660#map=20/-12.0190707/-77.0561559"}}, {"type": "Feature", "geometry": {"type": "Point", "coordinates": [-77.0363462, -12.0595556]}, "properties": {"id": 621621251, "feat_type": "way", "quality_categories": "improper_keys, missing_tags", "issue_ids": "[0, 1]", "osm_url": "https://www.openstreetmap.org/way/621621251", "josm_url": "http://127.0.0.1:8111/load_object?new_layer=false&objects=w621621251", "id_url": "https://www.openstreetmap.org/edit?editor=id&way=621621251#map=20/-12.0595556/-77.0363462"}}, {"type": "Feature", "geometry": {"type": "Point", "coordinates": [-76.9422777, -12.0605048]}, "properties": {"id": 893234657, "feat_type": "way", "quality_categories": "improper_keys", "issue_ids": "[2]", "osm_url": "https://www.openstreetmap.org/way/893234657", "josm_url": "http://127.0.0.1:8111/load_object?new_layer=false&objects=w893234657", "id_url": "https://www.openstreetmap.org/edit?editor=id&way=893234657#map=20/-12.0605048/-76.9422777"}}]}