{"type": "FeatureCollection", "features": [{"type": "Feature", "geometry": {"type": "Point", "coordinates": [-77.0348033, -12.0982175]}, "properties": {"id": 418181052, "feat_type": "way", "quality_categories": "wrong_mispelled_or_unlisted_values", "issue_ids": "[0]", "osm_url": "https://www.openstreetmap.org/way/418181052", "josm_url": "http://127.0.0.1:8111/load_object?new_layer=false&objects=w418181052", "id_url": "https://www.openstreetmap.org/edit?editor=id&way=418181052#map=20/-12.0982175/-77.0348033"}}, {"type": "Feature", "geometry": {"type": "Point", "coordinates": [-77.0420344, -12.0801698]}, "properties": {"id": 445504944, "feat_type": "way", "quality_categories": "wrong_mispelled_or_unlisted_values", "issue_ids": "[1]", "osm_url": "https://www.openstreetmap.org/way/445504944", "josm_url": "http://127.0.0.1:8111/load_object?new_layer=false&objects=w445504944", "id_url": "https://www.openstreetmap.org/edit?editor=id&way=445504944#map=20/-12.0801698/-77.0420344"}}, {"type": "Feature", "geometry": {"type": "Point", "coordinates": [-77.0421036, -12.0798266]}, "properties": {"id": 445504945, "feat_type": "way", "quality_categories": "wrong_mispelled_or_unlisted_values", "issue_ids": "[1]", "osm_url": "https://www.openstreetmap.org/way/445504945", "josm_url": "http://127.0.0.1:8111/load_object?new_layer=false&objects=w445504945", "id_url": "https://www.openstreetmap.org/edit?editor=id&way=445504945#map=20/-12.0798266/-77.0421036"}}, {"type": "Feature", "geometry": {"type": "Point", "coordinates": [-77.041776, -12.0798159]}, "properties": {"id": 445504946, "feat_type": "way", "quality_categories": "wrong_mispelled_or_unlisted_values", "issue_ids": "[1]", "osm_url": "https://www.openstreetmap.org/way/445504946", "josm_url": "http://127.0.0.1:8111/load_object?new_layer=false&objects=w445504946", "id_url": "https://www.openstreetmap.org/edit?editor=id&way=445504946#map=20/-12.0798159/-77.041776"}}, {"type": "Feature", "geometry": {"type": "Point", "coordinates": [-77.0420223, -12.080169]}, "properties": {"id": 445504947, "feat_type": "way", "quality_categories": "wrong_mispelled_or_unlisted_values", "issue_ids": "[1]", "osm_url": "https://www.openstreetmap.org/way/445504947", "josm_url": "http://127.0.0.1:8111/load_object?new_layer=false&objects=w445504947", "id_url": "https://www.openstreetmap.org/edit?editor=id&way=445504947#map=20/-12.080169/-77.0420223"}}, {"type": "Feature", "geometry": {"type": "Point", "coordinates": [-77.0420575, -12.0801631]}, "properties": {"id": 445504948, "feat_type": "way", "quality_categories": "wrong_mispelled_or_unlisted_values", "issue_ids": "[1]", "osm_url": "https://www.openstreetmap.org/way/445504948", "josm_url": "http://127.0.0.1:8111/load_object?new_layer=false&objects=w445504948", "id_url": "https://www.openstreetmap.org/edit?editor=id&way=445504948#map=20/-12.0801631/-77.0420575"}}, {"type": "Feature", "geometry": {"type": "Point", "coordinates": [-77.0420813, -12.0801088]}, "properties": {"id": 451475589, "feat_type": "way", "quality_categories": "wrong_mispelled_or_unlisted_values", "issue_ids": "[1]", "osm_url": "https://www.openstreetmap.org/way/451475589", "josm_url": "http://127.0.0.1:8111/load_object?new_layer=false&objects=w451475589", "id_url": "https://www.openstreetmap.org/edit?editor=id&way=451475589#map=20/-12.0801088/-77.0420813"}}, {"type": "Feature", "geometry": {"type": "Point", "coordinates": [-77.041745, -12.0802119]}, "properties": {"id": 451475590, "feat_type": "way", "quality_categories": "wrong_mispelled_or_unlisted_values", "issue_ids": "[1]", "osm_url": "https://www.openstreetmap.org/way/451475590", "josm_url": "http://127.0.0.1:8111/load_object?new_layer=false&objects=w451475590", "id_url": "https://www.openstreetmap.org/edit?editor=id&way=451475590#map=20/-12.0802119/-77.041745"}}, {"type": "Feature", "geometry": {"type": "Point", "coordinates": [-77.0348692, -12.128941]}, "properties": {"id": 452781646, "feat_type": "way", "quality_categories": "wrong_mispelled_or_unlisted_values", "issue_ids": "[2]", "osm_url": "https://www.openstreetmap.org/way/452781646", "josm_url": "http://127.0.0.1:8111/load_object?new_layer=false&objects=w452781646", "id_url": "https://www.openstreetmap.org/edit?editor=id&way=452781646#map=20/-12.128941/-77.0348692"}}, {"type": "Feature", "geometry": {"type": "Point", "coordinates": [-77.0296013, -12.1323674]}, "properties": {"id": 452786716, "feat_type": "way", "quality_categories": "wrong_mispelled_or_unlisted_values", "issue_ids": "[2]", "osm_url": "https://www.openstreetmap.org/way/452786716", "josm_url": "http://127.0.0.1:8111/load_object?new_layer=false&objects=w452786716", "id_url": "https://www.openstreetmap.org/edit?editor=id&way=452786716#map=20/-12.1323674/-77.0296013"}}, {"type": "Feature", "geometry": {"type": "Point", "coordinates": [-77.0715168, -12.0981247]}, "properties": {"id": 517814260, "feat_type": "way", "quality_categories": "wrong_mispelled_or_unlisted_values", "issue_ids": "[1]", "osm_url": "https://www.openstreetmap.org/way/517814260", "josm_url": "http://127.0.0.1:8111/load_object?new_layer=false&objects=w517814260", "id_url": "https://www.openstreetmap.org/edit?editor=id&way=517814260#map=20/-12.0981247/-77.0715168"}}, {"type": "Feature", "geometry": {"type": "Point", "coordinates": [-76.9975103, -11.9747103]}, "properties": {"id": 548976916, "feat_type": "way", "quality_categories": "wrong_mispelled_or_unlisted_values", "issue_ids": "[3]", "osm_url": "https://www.openstreetmap.org/way/548976916", "josm_url": "http://127.0.0.1:8111/load_object?new_layer=false&objects=w548976916", "id_url": "https://www.openstreetmap.org/edit?editor=id&way=548976916#map=20/-11.9747103/-76.9975103"}}, {"type": "Feature", "geometry": {"type": "Point", "coordinates": [-76.9973099, -11.975139]}, "properties": {"id": 548976918, "feat_type": "way", "quality_categories": "wrong_mispelled_or_unlisted_values", "issue_ids": "[3]", "osm_url": "https://www.openstreetmap.org/way/548976918", "josm_url": "http://127.0.0.1:8111/load_object?new_layer=false&objects=w548976918", "id_url": "https://www.openstreetmap.org/edit?editor=id&way=548976918#map=20/-11.975139/-76.9973099"}}, {"type": "Feature", "geometry": {"type": "Point", "coordinates": [-76.9980809, -11.9742986]}, "properties": {"id": 548976920, "feat_type": "way", "quality_categories": "wrong_mispelled_or_unlisted_values", "issue_ids": "[3]", "osm_url": "https://www.openstreetmap.org/way/548976920", "josm_url": "http://127.0.0.1:8111/load_object?new_layer=false&objects=w548976920", "id_url": "https://www.openstreetmap.org/edit?editor=id&way=548976920#map=20/-11.9742986/-76.9980809"}}, {"type": "Feature", "geometry": {"type": "Point", "coordinates": [-76.9979007, -11.9748272]}, "properties": {"id": 548982354, "feat_type": "way", "quality_categories": "wrong_mispelled_or_unlisted_values", "issue_ids": "[3]", "osm_url": "https://www.openstreetmap.org/way/548982354", "josm_url": "http://127.0.0.1:8111/load_object?new_layer=false&objects=w548982354", "id_url": "https://www.openstreetmap.org/edit?editor=id&way=548982354#map=20/-11.9748272/-76.9979007"}}, {"type": "Feature", "geometry": {"type": "Point", "coordinates": [-76.9977124, -11.9744773]}, "properties": {"id": 548982356, "feat_type": "way", "quality_categories": "wrong_mispelled_or_unlisted_values", "issue_ids": "[3]", "osm_url": "https://www.openstreetmap.org/way/548982356", "josm_url": "http://127.0.0.1:8111/load_object?new_layer=false&objects=w548982356", "id_url": "https://www.openstreetmap.org/edit?editor=id&way=548982356#map=20/-11.9744773/-76.9977124"}}, {"type": "Feature", "geometry": {"type": "Point", "coordinates": [-76.9974264, -11.9754163]}, "properties": {"id": 647541271, "feat_type": "way", "quality_categories": "wrong_mispelled_or_unlisted_values", "issue_ids": "[3]", "osm_url": "https://www.openstreetmap.org/way/647541271", "josm_url": "http://127.0.0.1:8111/load_object?new_layer=false&objects=w647541271", "id_url": "https://www.openstreetmap.org/edit?editor=id&way=647541271#map=20/-11.9754163/-76.9974264"}}, {"type": "Feature", "geometry": {"type": "Point", "coordinates": [-76.9979124, -11.9745375]}, "properties": {"id": 647541273, "feat_type": "way", "quality_categories": "wrong_mispelled_or_unlisted_values", "issue_ids": "[3]", "osm_url": "https://www.openstreetmap.org/way/647541273", "josm_url": "http://127.0.0.1:8111/load_object?new_layer=false&objects=w647541273", "id_url": "https://www.openstreetmap.org/edit?editor=id&way=647541273#map=20/-11.9745375/-76.9979124"}}, {"type": "Feature", "geometry": {"type": "Point", "coordinates": [-76.9979565, -11.9751003]}, "properties": {"id": 647541275, "feat_type": "way", "quality_categories": "wrong_mispelled_or_unlisted_values", "issue_ids": "[3]", "osm_url": "https://www.openstreetmap.org/way/647541275", "josm_url": "http://127.0.0.1:8111/load_object?new_layer=false&objects=w647541275", "id_url": "https://www.openstreetmap.org/edit?editor=id&way=647541275#map=20/-11.9751003/-76.9979565"}}, {"type": "Feature", "geometry": {"type": "Point", "coordinates": [-76.9973426, -11.9748401]}, "properties": {"id": 647541277, "feat_type": "way", "quality_categories": "wrong_mispelled_or_unlisted_values", "issue_ids": "[3]", "osm_url": "https://www.openstreetmap.org/way/647541277", "josm_url": "http://127.0.0.1:8111/load_object?new_layer=false&objects=w647541277", "id_url": "https://www.openstreetmap.org/edit?editor=id&way=647541277#map=20/-11.9748401/-76.9973426"}}, {"type": "Feature", "geometry": {"type": "Point", "coordinates": [-77.0707726, -12.0985722]}, "properties": {"id": 666334559, "feat_type": "way", "quality_categories": "wrong_mispelled_or_unlisted_values", "issue_ids": "[1]", "osm_url": "https://www.openstreetmap.org/way/666334559", "josm_url": "http://127.0.0.1:8111/load_object?new_layer=false&objects=w666334559", "id_url": "https://www.openstreetmap.org/edit?editor=id&way=666334559#map=20/-12.0985722/-77.0707726"}}, {"type": "Feature", "geometry": {"type": "Point", "coordinates": [-77.0707914, -12.0987309]}, "properties": {"id": 666334560, "feat_type": "way", "quality_categories": "wrong_mispelled_or_unlisted_values", "issue_ids": "[1]", "osm_url": "https://www.openstreetmap.org/way/666334560", "josm_url": "http://127.0.0.1:8111/load_object?new_layer=false&objects=w666334560", "id_url": "https://www.openstreetmap.org/edit?editor=id&way=666334560#map=20/-12.0987309/-77.0707914"}}, {"type": "Feature", "geometry": {"type": "Point", "coordinates": [-77.0302301, -12.1315943]}, "properties": {"id": 670924380, "feat_type": "way", "quality_categories": "older_than_five_years, wrong_mispelled_or_unlisted_values", "issue_ids": "[2, 4]", "osm_url": "https://www.openstreetmap.org/way/670924380", "josm_url": "http://127.0.0.1:8111/load_object?new_layer=false&objects=w670924380", "id_url": "https://www.openstreetmap.org/edit?editor=id&way=670924380#map=20/-12.1315943/-77.0302301"}}, {"type": "Feature", "geometry": {"type": "Point", "coordinates": [-76.9979063, -12.0738559]}, "properties": {"id": 835869844, "feat_type": "way", "quality_categories": "wrong_mispelled_or_unlisted_values", "issue_ids": "[1]", "osm_url": "https://www.openstreetmap.org/way/835869844", "josm_url": "http://127.0.0.1:8111/load_object?new_layer=false&objects=w835869844", "id_url": "https://www.openstreetmap.org/edit?editor=id&way=835869844#map=20/-12.0738559/-76.9979063"}}, {"type": "Feature", "geometry": {"type": "Point", "coordinates": [-76.9975701, -12.0736517]}, "properties": {"id": 835869845, "feat_type": "way", "quality_categories": "wrong_mispelled_or_unlisted_values", "issue_ids": "[1]", "osm_url": "https://www.openstreetmap.org/way/835869845", "josm_url": "http://127.0.0.1:8111/load_object?new_layer=false&objects=w835869845", "id_url": "https://www.openstreetmap.org/edit?editor=id&way=835869845#map=20/-12.0736517/-76.9975701"}}, {"type": "Feature", "geometry": {"type": "Point", "coordinates": [-76.9978839, -12.074025]}, "properties": {"id": 835901295, "feat_type": "way", "quality_categories": "wrong_mispelled_or_unlisted_values", "issue_ids": "[1]", "osm_url": "https://www.openstreetmap.org/way/835901295", "josm_url": "http://127.0.0.1:8111/load_object?new_layer=false&objects=w835901295", "id_url": "https://www.openstreetmap.org/edit?editor=id&way=835901295#map=20/-12.074025/-76.9978839"}}, {"type": "Feature", "geometry": {"type": "Point", "coordinates": [-76.9976747, -12.0739556]}, "properties": {"id": 835901296, "feat_type": "way", "quality_categories": "wrong_mispelled_or_unlisted_values", "issue_ids": "[1]", "osm_url": "https://www.openstreetmap.org/way/835901296", "josm_url": "http://127.0.0.1:8111/load_object?new_layer=false&objects=w835901296", "id_url": "https://www.openstreetmap.org/edit?editor=id&way=835901296#map=20/-12.0739556/-76.9976747"}}, {"type": "Feature", "geometry": {"type": "Point", "coordinates": [-76.997639, -12.0739586]}, "properties": {"id": 835901297, "feat_type": "way", "quality_categories": "wrong_mispelled_or_unlisted_values", "issue_ids": "[1]", "osm_url": "https://www.openstreetmap.org/way/835901297", "josm_url": "http://127.0.0.1:8111/load_object?new_layer=false&objects=w835901297", "id_url": "https://www.openstreetmap.org/edit?editor=id&way=835901297#map=20/-12.0739586/-76.997639"}}, {"type": "Feature", "geometry": {"type": "Point", "coordinates": [-76.9976193, -12.0739341]}, "properties": {"id": 835901298, "feat_type": "way", "quality_categories": "wrong_mispelled_or_unlisted_values", "issue_ids": "[1]", "osm_url": "https://www.openstreetmap.org/way/835901298", "josm_url": "http://127.0.0.1:8111/load_object?new_layer=false&objects=w835901298", "id_url": "https://www.openstreetmap.org/edit?editor=id&way=835901298#map=20/-12.0739341/-76.9976193"}}, {"type": "Feature", "geometry": {"type": "Point", "coordinates": [-76.9974669, -12.0738128]}, "properties": {"id": 835901299, "feat_type": "way", "quality_categories": "wrong_mispelled_or_unlisted_values", "issue_ids": "[1]", "osm_url": "https://www.openstreetmap.org/way/835901299", "josm_url": "http://127.0.0.1:8111/load_object?new_layer=false&objects=w835901299", "id_url": "https://www.openstreetmap.org/edit?editor=id&way=835901299#map=20/-12.0738128/-76.9974669"}}, {"type": "Feature", "geometry": {"type": "Point", "coordinates": [-76.9977397, -12.0737547]}, "properties": {"id": 835901300, "feat_type": "way", "quality_categories": "wrong_mispelled_or_unlisted_values", "issue_ids": "[1]", "osm_url": "https://www.openstreetmap.org/way/835901300", "josm_url": "http://127.0.0.1:8111/load_object?new_layer=false&objects=w835901300", "id_url": "https://www.openstreetmap.org/edit?editor=id&way=835901300#map=20/-12.0737547/-76.9977397"}}, {"type": "Feature", "geometry": {"type": "Point", "coordinates": [-77.003981, -12.025159]}, "properties": {"id": 875654268, "feat_type": "way", "quality_categories": "wrong_mispelled_or_unlisted_values", "issue_ids": "[3]", "osm_url": "https://www.openstreetmap.org/way/875654268", "josm_url": "http://127.0.0.1:8111/load_object?new_layer=false&objects=w875654268", "id_url": "https://www.openstreetmap.org/edit?editor=id&way=875654268#map=20/-12.025159/-77.003981"}}, {"type": "Feature", "geometry": {"type": "Point", "coordinates": [-77.003955, -12.0253529]}, "properties": {"id": 875654269, "feat_type": "way", "quality_categories": "wrong_mispelled_or_unlisted_values", "issue_ids": "[3]", "osm_url": "https://www.openstreetmap.org/way/875654269", "josm_url": "http://127.0.0.1:8111/load_object?new_layer=false&objects=w875654269", "id_url": "https://www.openstreetmap.org/edit?editor=id&way=875654269#map=20/-12.0253529/-77.003955"}}, {"type": "Feature", "geometry": {"type": "Point", "coordinates": [-77.0039466, -12.0252725]}, "properties": {"id": 875654272, "feat_type": "way", "quality_categories": "wrong_mispelled_or_unlisted_values", "issue_ids": "[3]", "osm_url": "https://www.openstreetmap.org/way/875654272", "josm_url": "http://127.0.0.1:8111/load_object?new_layer=false&objects=w875654272", "id_url": "https://www.openstreetmap.org/edit?editor=id&way=875654272#map=20/-12.0252725/-77.0039466"}}, {"type": "Feature", "geometry": {"type": "Point", "coordinates": [-76.9974607, -11.9744371]}, "properties": {"id": 896815684, "feat_type": "way", "quality_categories": "wrong_mispelled_or_unlisted_values", "issue_ids": "[3]", "osm_url": "https://www.openstreetmap.org/way/896815684", "josm_url": "http://127.0.0.1:8111/load_object?new_layer=false&objects=w896815684", "id_url": "https://www.openstreetmap.org/edit?editor=id&way=896815684#map=20/-11.9744371/-76.9974607"}}, {"type": "Feature", "geometry": {"type": "Point", "coordinates": [-77.0056549, -12.0255155]}, "properties": {"id": 938316896, "feat_type": "way", "quality_categories": "wrong_mispelled_or_unlisted_values", "issue_ids": "[3]", "osm_url": "https://www.openstreetmap.org/way/938316896", "josm_url": "http://127.0.0.1:8111/load_object?new_layer=false&objects=w938316896", "id_url": "https://www.openstreetmap.org/edit?editor=id&way=938316896#map=20/-12.0255155/-77.0056549"}}, {"type": "Feature", "geometry": {"type": "Point", "coordinates": [-77.0048408, -12.0263799]}, "properties": {"id": 938316900, "feat_type": "way", "quality_categories": "wrong_mispelled_or_unlisted_values", "issue_ids": "[3]", "osm_url": "https://www.openstreetmap.org/way/938316900", "josm_url": "http://127.0.0.1:8111/load_object?new_layer=false&objects=w938316900", "id_url": "https://www.openstreetmap.org/edit?editor=id&way=938316900#map=20/-12.0263799/-77.0048408"}}, {"type": "Feature", "geometry": {"type": "Point", "coordinates": [-77.0709832, -12.0983653]}, "properties": {"id": 1360459884, "feat_type": "way", "quality_categories": "wrong_mispelled_or_unlisted_values", "issue_ids": "[1]", "osm_url": "https://www.openstreetmap.org/way/1360459884", "josm_url": "http://127.0.0.1:8111/load_object?new_layer=false&objects=w1360459884", "id_url": "https://www.openstreetmap.org/edit?editor=id&way=1360459884#map=20/-12.0983653/-77.0709832"}}]}