{"type": "FeatureCollection", "features": [{"type": "Feature", "geometry": {"type": "Point", "coordinates": [-77.0584769, -12.0804414]}, "properties": {"id": 3992453062, "feat_type": "node", "quality_categories": "improper_geometries, missing_tags", "issue_ids": "[0, 1]", "osm_url": "https://www.openstreetmap.org/node/3992453062", "josm_url": "http://127.0.0.1:8111/load_object?new_layer=false&objects=n3992453062", "id_url": "https://www.openstreetmap.org/edit?editor=id&node=3992453062#map=20/-12.0804414/-77.0584769"}}]}