{"type": "FeatureCollection", "features": [{"type": "Feature", "geometry": {"type": "Point", "coordinates": [-77.0208569, -12.0871667]}, "properties": {"id": 35106620, "feat_type": "way", "quality_categories": "disjointed_geometries, improper_keys, missing_tags", "issue_ids": "[0, 1, 2]", "osm_url": "https://www.openstreetmap.org/way/35106620", "josm_url": "http://127.0.0.1:8111/load_object?new_layer=false&objects=w35106620", "id_url": "https://www.openstreetmap.org/edit?editor=id&way=35106620#map=20/-12.0871667/-77.0208569"}}, {"type": "Feature", "geometry": {"type": "Point", "coordinates": [-77.0632547, -11.9586151]}, "properties": {"id": 111821176, "feat_type": "way", "quality_categories": "disjointed_geometries, improper_keys, missing_tags", "issue_ids": "[3, 1, 2]", "osm_url": "https://www.openstreetmap.org/way/111821176", "josm_url": "http://127.0.0.1:8111/load_object?new_layer=false&objects=w111821176", "id_url": "https://www.openstreetmap.org/edit?editor=id&way=111821176#map=20/-11.9586151/-77.0632547"}}, {"type": "Feature", "geometry": {"type": "Point", "coordinates": [-77.0434434, -12.1041757]}, "properties": {"id": 111965219, "feat_type": "way", "quality_categories": "crossings_lacking_kerbs, improper_keys, missing_tags", "issue_ids": "[4, 1, 5]", "osm_url": "https://www.openstreetmap.org/way/111965219", "josm_url": "http://127.0.0.1:8111/load_object?new_layer=false&objects=w111965219", "id_url": "https://www.openstreetmap.org/edit?editor=id&way=111965219#map=20/-12.1041757/-77.0434434"}}, {"type": "Feature", "geometry": {"type": "Point", "coordinates": [-77.0833377, -12.0780624]}, "properties": {"id": 241248513, "feat_type": "way", "quality_categories": "crossings_lacking_kerbs, improper_keys, missing_tags, replaceable_values", "issue_ids": "[6, 7, 1, 5]", "osm_url": "https://www.openstreetmap.org/way/241248513", "josm_url": "http://127.0.0.1:8111/load_object?new_layer=false&objects=w241248513", "id_url": "https://www.openstreetmap.org/edit?editor=id&way=241248513#map=20/-12.0780624/-77.0833377"}}, {"type": "Feature", "geometry": {"type": "Point", "coordinates": [-77.0300525, -12.1313475]}, "properties": {"id": 435369564, "feat_type": "way", "quality_categories": "crossings_lacking_kerbs, improper_keys, replaceable_values", "issue_ids": "[8, 7, 5]", "osm_url": "https://www.openstreetmap.org/way/435369564", "josm_url": "http://127.0.0.1:8111/load_object?new_layer=false&objects=w435369564", "id_url": "https://www.openstreetmap.org/edit?editor=id&way=435369564#map=20/-12.1313475/-77.0300525"}}, {"type": "Feature", "geometry": {"type": "Point", "coordinates": [-76.9369038, -12.0556478]}, "properties": {"id": 467379972, "feat_type": "way", "quality_categories": "disjointed_geometries, improper_keys, missing_tags, replaceable_values, uncanny_keys", "issue_ids": "[9, 10, 7, 1, 2]", "osm_url": "https://www.openstreetmap.org/way/467379972", "josm_url": "http://127.0.0.1:8111/load_object?new_layer=false&objects=w467379972", "id_url": "https://www.openstreetmap.org/edit?editor=id&way=467379972#map=20/-12.0556478/-76.9369038"}}, {"type": "Feature", "geometry": {"type": "Point", "coordinates": [-77.0434142, -12.1040434]}, "properties": {"id": 642642494, "feat_type": "way", "quality_categories": "crossings_lacking_kerbs, improper_keys, missing_tags", "issue_ids": "[4, 1, 5]", "osm_url": "https://www.openstreetmap.org/way/642642494", "josm_url": "http://127.0.0.1:8111/load_object?new_layer=false&objects=w642642494", "id_url": "https://www.openstreetmap.org/edit?editor=id&way=642642494#map=20/-12.1040434/-77.0434142"}}, {"type": "Feature", "geometry": {"type": "Point", "coordinates": [-77.0312031, -12.1222641]}, "properties": {"id": 674284789, "feat_type": "way", "quality_categories": "crossings_lacking_kerbs, improper_keys, replaceable_values", "issue_ids": "[11, 12, 5]", "osm_url": "https://www.openstreetmap.org/way/674284789", "josm_url": "http://127.0.0.1:8111/load_object?new_layer=false&objects=w674284789", "id_url": "https://www.openstreetmap.org/edit?editor=id&way=674284789#map=20/-12.1222641/-77.0312031"}}, {"type": "Feature", "geometry": {"type": "Point", "coordinates": [-77.0286171, -12.08046]}, "properties": {"id": 961143476, "feat_type": "way", "quality_categories": "disjointed_geometries, improper_keys, missing_tags, replaceable_values", "issue_ids": "[13, 12, 1, 2]", "osm_url": "https://www.openstreetmap.org/way/961143476", "josm_url": "http://127.0.0.1:8111/load_object?new_layer=false&objects=w961143476", "id_url": "https://www.openstreetmap.org/edit?editor=id&way=961143476#map=20/-12.08046/-77.0286171"}}, {"type": "Feature", "geometry": {"type": "Point", "coordinates": [-76.9826106, -12.0903064]}, "properties": {"id": 963314070, "feat_type": "way", "quality_categories": "crossings_lacking_kerbs, improper_keys, missing_tags, older_than_five_years, replaceable_values", "issue_ids": "[14, 12, 15, 1, 5]", "osm_url": "https://www.openstreetmap.org/way/963314070", "josm_url": "http://127.0.0.1:8111/load_object?new_layer=false&objects=w963314070", "id_url": "https://www.openstreetmap.org/edit?editor=id&way=963314070#map=20/-12.0903064/-76.9826106"}}, {"type": "Feature", "geometry": {"type": "Point", "coordinates": [-76.9818581, -12.0901889]}, "properties": {"id": 963314075, "feat_type": "way", "quality_categories": "crossings_lacking_kerbs, improper_keys, missing_tags, older_than_five_years, replaceable_values", "issue_ids": "[14, 12, 15, 1, 5]", "osm_url": "https://www.openstreetmap.org/way/963314075", "josm_url": "http://127.0.0.1:8111/load_object?new_layer=false&objects=w963314075", "id_url": "https://www.openstreetmap.org/edit?editor=id&way=963314075#map=20/-12.0901889/-76.9818581"}}, {"type": "Feature", "geometry": {"type": "Point", "coordinates": [-76.9823674, -12.0966151]}, "properties": {"id": 964439517, "feat_type": "way", "quality_categories": "crossings_lacking_kerbs, improper_keys, older_than_five_years, replaceable_values", "issue_ids": "[16, 12, 17, 5]", "osm_url": "https://www.openstreetmap.org/way/964439517", "josm_url": "http://127.0.0.1:8111/load_object?new_layer=false&objects=w964439517", "id_url": "https://www.openstreetmap.org/edit?editor=id&way=964439517#map=20/-12.0966151/-76.9823674"}}, {"type": "Feature", "geometry": {"type": "Point", "coordinates": [-77.0348514, -12.0813119]}, "properties": {"id": 1098964578, "feat_type": "way", "quality_categories": "disjointed_geometries, improper_keys, missing_tags, replaceable_values", "issue_ids": "[13, 12, 1, 2]", "osm_url": "https://www.openstreetmap.org/way/1098964578", "josm_url": "http://127.0.0.1:8111/load_object?new_layer=false&objects=w1098964578", "id_url": "https://www.openstreetmap.org/edit?editor=id&way=1098964578#map=20/-12.0813119/-77.0348514"}}, {"type": "Feature", "geometry": {"type": "Point", "coordinates": [-77.0349559, -12.0813272]}, "properties": {"id": 1098964579, "feat_type": "way", "quality_categories": "disjointed_geometries, improper_keys, missing_tags, replaceable_values", "issue_ids": "[13, 12, 1, 2]", "osm_url": "https://www.openstreetmap.org/way/1098964579", "josm_url": "http://127.0.0.1:8111/load_object?new_layer=false&objects=w1098964579", "id_url": "https://www.openstreetmap.org/edit?editor=id&way=1098964579#map=20/-12.0813272/-77.0349559"}}, {"type": "Feature", "geometry": {"type": "Point", "coordinates": [-77.080941, -12.0780785]}, "properties": {"id": 1118957258, "feat_type": "way", "quality_categories": "crossings_lacking_kerbs, improper_keys, missing_tags", "issue_ids": "[18, 1, 5]", "osm_url": "https://www.openstreetmap.org/way/1118957258", "josm_url": "http://127.0.0.1:8111/load_object?new_layer=false&objects=w1118957258", "id_url": "https://www.openstreetmap.org/edit?editor=id&way=1118957258#map=20/-12.0780785/-77.080941"}}, {"type": "Feature", "geometry": {"type": "Point", "coordinates": [-77.0425403, -12.1042211]}, "properties": {"id": 1139080818, "feat_type": "way", "quality_categories": "crossings_lacking_kerbs, improper_keys, missing_tags", "issue_ids": "[4, 1, 5]", "osm_url": "https://www.openstreetmap.org/way/1139080818", "josm_url": "http://127.0.0.1:8111/load_object?new_layer=false&objects=w1139080818", "id_url": "https://www.openstreetmap.org/edit?editor=id&way=1139080818#map=20/-12.1042211/-77.0425403"}}, {"type": "Feature", "geometry": {"type": "Point", "coordinates": [-77.0425737, -12.104365]}, "properties": {"id": 1139080820, "feat_type": "way", "quality_categories": "crossings_lacking_kerbs, improper_keys, missing_tags", "issue_ids": "[4, 1, 5]", "osm_url": "https://www.openstreetmap.org/way/1139080820", "josm_url": "http://127.0.0.1:8111/load_object?new_layer=false&objects=w1139080820", "id_url": "https://www.openstreetmap.org/edit?editor=id&way=1139080820#map=20/-12.104365/-77.0425737"}}, {"type": "Feature", "geometry": {"type": "Point", "coordinates": [-77.0417241, -12.1045317]}, "properties": {"id": 1139080832, "feat_type": "way", "quality_categories": "crossings_lacking_kerbs, improper_keys, missing_tags", "issue_ids": "[4, 1, 5]", "osm_url": "https://www.openstreetmap.org/way/1139080832", "josm_url": "http://127.0.0.1:8111/load_object?new_layer=false&objects=w1139080832", "id_url": "https://www.openstreetmap.org/edit?editor=id&way=1139080832#map=20/-12.1045317/-77.0417241"}}, {"type": "Feature", "geometry": {"type": "Point", "coordinates": [-77.0416963, -12.1043971]}, "properties": {"id": 1139080834, "feat_type": "way", "quality_categories": "crossings_lacking_kerbs, improper_keys, missing_tags", "issue_ids": "[4, 1, 5]", "osm_url": "https://www.openstreetmap.org/way/1139080834", "josm_url": "http://127.0.0.1:8111/load_object?new_layer=false&objects=w1139080834", "id_url": "https://www.openstreetmap.org/edit?editor=id&way=1139080834#map=20/-12.1043971/-77.0416963"}}, {"type": "Feature", "geometry": {"type": "Point", "coordinates": [-77.0442834, -12.1039653]}, "properties": {"id": 1139084764, "feat_type": "way", "quality_categories": "crossings_lacking_kerbs, improper_keys, missing_tags", "issue_ids": "[4, 1, 5]", "osm_url": "https://www.openstreetmap.org/way/1139084764", "josm_url": "http://127.0.0.1:8111/load_object?new_layer=false&objects=w1139084764", "id_url": "https://www.openstreetmap.org/edit?editor=id&way=1139084764#map=20/-12.1039653/-77.0442834"}}, {"type": "Feature", "geometry": {"type": "Point", "coordinates": [-77.0442562, -12.10385]}, "properties": {"id": 1139084766, "feat_type": "way", "quality_categories": "crossings_lacking_kerbs, improper_keys, missing_tags", "issue_ids": "[4, 1, 5]", "osm_url": "https://www.openstreetmap.org/way/1139084766", "josm_url": "http://127.0.0.1:8111/load_object?new_layer=false&objects=w1139084766", "id_url": "https://www.openstreetmap.org/edit?editor=id&way=1139084766#map=20/-12.10385/-77.0442562"}}, {"type": "Feature", "geometry": {"type": "Point", "coordinates": [-77.044958, -12.1038129]}, "properties": {"id": 1139084773, "feat_type": "way", "quality_categories": "crossings_lacking_kerbs, improper_keys, missing_tags", "issue_ids": "[4, 1, 5]", "osm_url": "https://www.openstreetmap.org/way/1139084773", "josm_url": "http://127.0.0.1:8111/load_object?new_layer=false&objects=w1139084773", "id_url": "https://www.openstreetmap.org/edit?editor=id&way=1139084773#map=20/-12.1038129/-77.044958"}}, {"type": "Feature", "geometry": {"type": "Point", "coordinates": [-77.0449318, -12.1037038]}, "properties": {"id": 1139084775, "feat_type": "way", "quality_categories": "crossings_lacking_kerbs, improper_keys, missing_tags", "issue_ids": "[4, 1, 5]", "osm_url": "https://www.openstreetmap.org/way/1139084775", "josm_url": "http://127.0.0.1:8111/load_object?new_layer=false&objects=w1139084775", "id_url": "https://www.openstreetmap.org/edit?editor=id&way=1139084775#map=20/-12.1037038/-77.0449318"}}, {"type": "Feature", "geometry": {"type": "Point", "coordinates": [-77.045715, -12.1036317]}, "properties": {"id": 1139084776, "feat_type": "way", "quality_categories": "crossings_lacking_kerbs, improper_keys, missing_tags", "issue_ids": "[4, 1, 5]", "osm_url": "https://www.openstreetmap.org/way/1139084776", "josm_url": "http://127.0.0.1:8111/load_object?new_layer=false&objects=w1139084776", "id_url": "https://www.openstreetmap.org/edit?editor=id&way=1139084776#map=20/-12.1036317/-77.045715"}}, {"type": "Feature", "geometry": {"type": "Point", "coordinates": [-77.0457257, -12.1035253]}, "properties": {"id": 1139084777, "feat_type": "way", "quality_categories": "crossings_lacking_kerbs, improper_keys, missing_tags", "issue_ids": "[4, 1, 5]", "osm_url": "https://www.openstreetmap.org/way/1139084777", "josm_url": "http://127.0.0.1:8111/load_object?new_layer=false&objects=w1139084777", "id_url": "https://www.openstreetmap.org/edit?editor=id&way=1139084777#map=20/-12.1035253/-77.0457257"}}, {"type": "Feature", "geometry": {"type": "Point", "coordinates": [-76.9466029, -12.0782186]}, "properties": {"id": 1203330897, "feat_type": "way", "quality_categories": "disjointed_geometries, improper_keys, missing_tags", "issue_ids": "[19, 1, 2]", "osm_url": "https://www.openstreetmap.org/way/1203330897", "josm_url": "http://127.0.0.1:8111/load_object?new_layer=false&objects=w1203330897", "id_url": "https://www.openstreetmap.org/edit?editor=id&way=1203330897#map=20/-12.0782186/-76.9466029"}}, {"type": "Feature", "geometry": {"type": "Point", "coordinates": [-76.9584661, -12.0696808]}, "properties": {"id": 1261918327, "feat_type": "way", "quality_categories": "crossings_lacking_kerbs, improper_keys, missing_tags", "issue_ids": "[20, 1, 5]", "osm_url": "https://www.openstreetmap.org/way/1261918327", "josm_url": "http://127.0.0.1:8111/load_object?new_layer=false&objects=w1261918327", "id_url": "https://www.openstreetmap.org/edit?editor=id&way=1261918327#map=20/-12.0696808/-76.9584661"}}, {"type": "Feature", "geometry": {"type": "Point", "coordinates": [-77.0833384, -12.0779417]}, "properties": {"id": 1324232786, "feat_type": "way", "quality_categories": "crossings_lacking_kerbs, improper_keys, missing_tags", "issue_ids": "[6, 1, 5]", "osm_url": "https://www.openstreetmap.org/way/1324232786", "josm_url": "http://127.0.0.1:8111/load_object?new_layer=false&objects=w1324232786", "id_url": "https://www.openstreetmap.org/edit?editor=id&way=1324232786#map=20/-12.0779417/-77.0833384"}}, {"type": "Feature", "geometry": {"type": "Point", "coordinates": [-77.0242319, -12.1079904]}, "properties": {"id": 1342058406, "feat_type": "way", "quality_categories": "crossings_lacking_kerbs, improper_keys", "issue_ids": "[21, 5]", "osm_url": "https://www.openstreetmap.org/way/1342058406", "josm_url": "http://127.0.0.1:8111/load_object?new_layer=false&objects=w1342058406", "id_url": "https://www.openstreetmap.org/edit?editor=id&way=1342058406#map=20/-12.1079904/-77.0242319"}}, {"type": "Feature", "geometry": {"type": "Point", "coordinates": [-77.0241223, -12.1078051]}, "properties": {"id": 1342058408, "feat_type": "way", "quality_categories": "crossings_lacking_kerbs, improper_keys", "issue_ids": "[22, 5]", "osm_url": "https://www.openstreetmap.org/way/1342058408", "josm_url": "http://127.0.0.1:8111/load_object?new_layer=false&objects=w1342058408", "id_url": "https://www.openstreetmap.org/edit?editor=id&way=1342058408#map=20/-12.1078051/-77.0241223"}}, {"type": "Feature", "geometry": {"type": "Point", "coordinates": [-77.0778351, -11.9777849]}, "properties": {"id": 1343533716, "feat_type": "way", "quality_categories": "disjointed_geometries, improper_keys, missing_tags", "issue_ids": "[23, 1, 2]", "osm_url": "https://www.openstreetmap.org/way/1343533716", "josm_url": "http://127.0.0.1:8111/load_object?new_layer=false&objects=w1343533716", "id_url": "https://www.openstreetmap.org/edit?editor=id&way=1343533716#map=20/-11.9777849/-77.0778351"}}]}