{"type": "FeatureCollection", "features": [{"type": "Feature", "geometry": {"type": "Point", "coordinates": [-76.9369038, -12.0556478]}, "properties": {"id": 467379972, "feat_type": "way", "quality_categories": "disjointed_geometries, improper_keys, missing_tags, replaceable_values, uncanny_keys", "issue_ids": "[0, 1, 2, 3, 4]", "osm_url": "https://www.openstreetmap.org/way/467379972", "josm_url": "http://127.0.0.1:8111/load_object?new_layer=false&objects=w467379972", "id_url": "https://www.openstreetmap.org/edit?editor=id&way=467379972#map=20/-12.0556478/-76.9369038"}}, {"type": "Feature", "geometry": {"type": "Point", "coordinates": [-76.9750973, -12.0854159]}, "properties": {"id": 561833542, "feat_type": "way", "quality_categories": "crossings_lacking_kerbs, missing_tags, older_than_five_years, replaceable_values, uncanny_keys", "issue_ids": "[5, 2, 6, 3, 7]", "osm_url": "https://www.openstreetmap.org/way/561833542", "josm_url": "http://127.0.0.1:8111/load_object?new_layer=false&objects=w561833542", "id_url": "https://www.openstreetmap.org/edit?editor=id&way=561833542#map=20/-12.0854159/-76.9750973"}}, {"type": "Feature", "geometry": {"type": "Point", "coordinates": [-76.9759395, -12.0855653]}, "properties": {"id": 674441691, "feat_type": "way", "quality_categories": "disjointed_geometries, missing_tags, replaceable_values, uncanny_keys", "issue_ids": "[8, 9, 3, 4]", "osm_url": "https://www.openstreetmap.org/way/674441691", "josm_url": "http://127.0.0.1:8111/load_object?new_layer=false&objects=w674441691", "id_url": "https://www.openstreetmap.org/edit?editor=id&way=674441691#map=20/-12.0855653/-76.9759395"}}, {"type": "Feature", "geometry": {"type": "Point", "coordinates": [-77.057576, -12.0079414]}, "properties": {"id": 1103770665, "feat_type": "way", "quality_categories": "crossings_lacking_kerbs, replaceable_values, uncanny_keys", "issue_ids": "[8, 9, 7]", "osm_url": "https://www.openstreetmap.org/way/1103770665", "josm_url": "http://127.0.0.1:8111/load_object?new_layer=false&objects=w1103770665", "id_url": "https://www.openstreetmap.org/edit?editor=id&way=1103770665#map=20/-12.0079414/-77.057576"}}]}