{"type": "FeatureCollection", "features": [{"type": "Feature", "geometry": {"type": "Point", "coordinates": [-76.9488802, -12.1028878]}, "properties": {"id": 1149180369, "feat_type": "way", "quality_categories": "wrong_mispelled_or_unlisted_values", "issue_ids": "[0]", "osm_url": "https://www.openstreetmap.org/way/1149180369", "josm_url": "http://127.0.0.1:8111/load_object?new_layer=false&objects=w1149180369", "id_url": "https://www.openstreetmap.org/edit?editor=id&way=1149180369#map=20/-12.1028878/-76.9488802"}}, {"type": "Feature", "geometry": {"type": "Point", "coordinates": [-76.9454429, -12.1018125]}, "properties": {"id": 1435778926, "feat_type": "way", "quality_categories": "wrong_mispelled_or_unlisted_values", "issue_ids": "[0]", "osm_url": "https://www.openstreetmap.org/way/1435778926", "josm_url": "http://127.0.0.1:8111/load_object?new_layer=false&objects=w1435778926", "id_url": "https://www.openstreetmap.org/edit?editor=id&way=1435778926#map=20/-12.1018125/-76.9454429"}}, {"type": "Feature", "geometry": {"type": "Point", "coordinates": [-76.9453669, -12.101909]}, "properties": {"id": 1435778927, "feat_type": "way", "quality_categories": "crossings_lacking_kerbs, wrong_mispelled_or_unlisted_values", "issue_ids": "[0, 1]", "osm_url": "https://www.openstreetmap.org/way/1435778927", "josm_url": "http://127.0.0.1:8111/load_object?new_layer=false&objects=w1435778927", "id_url": "https://www.openstreetmap.org/edit?editor=id&way=1435778927#map=20/-12.101909/-76.9453669"}}, {"type": "Feature", "geometry": {"type": "Point", "coordinates": [-76.9487436, -12.1029783]}, "properties": {"id": 1443589490, "feat_type": "way", "quality_categories": "crossings_lacking_kerbs, wrong_mispelled_or_unlisted_values", "issue_ids": "[0, 1]", "osm_url": "https://www.openstreetmap.org/way/1443589490", "josm_url": "http://127.0.0.1:8111/load_object?new_layer=false&objects=w1443589490", "id_url": "https://www.openstreetmap.org/edit?editor=id&way=1443589490#map=20/-12.1029783/-76.9487436"}}, {"type": "Feature", "geometry": {"type": "Point", "coordinates": [-76.940494, -12.1146883]}, "properties": {"id": 1445312290, "feat_type": "way", "quality_categories": "disjointed_geometries, wrong_mispelled_or_unlisted_values", "issue_ids": "[0, 2]", "osm_url": "https://www.openstreetmap.org/way/1445312290", "josm_url": "http://127.0.0.1:8111/load_object?new_layer=false&objects=w1445312290", "id_url": "https://www.openstreetmap.org/edit?editor=id&way=1445312290#map=20/-12.1146883/-76.940494"}}, {"type": "Feature", "geometry": {"type": "Point", "coordinates": [-76.9405645, -12.114603]}, "properties": {"id": 1445312292, "feat_type": "way", "quality_categories": "disjointed_geometries, wrong_mispelled_or_unlisted_values", "issue_ids": "[0, 2]", "osm_url": "https://www.openstreetmap.org/way/1445312292", "josm_url": "http://127.0.0.1:8111/load_object?new_layer=false&objects=w1445312292", "id_url": "https://www.openstreetmap.org/edit?editor=id&way=1445312292#map=20/-12.114603/-76.9405645"}}, {"type": "Feature", "geometry": {"type": "Point", "coordinates": [-77.0420917, -12.0797072]}, "properties": {"id": 1550659007, "feat_type": "way", "quality_categories": "crossings_lacking_kerbs, wrong_mispelled_or_unlisted_values", "issue_ids": "[3, 1]", "osm_url": "https://www.openstreetmap.org/way/1550659007", "josm_url": "http://127.0.0.1:8111/load_object?new_layer=false&objects=w1550659007", "id_url": "https://www.openstreetmap.org/edit?editor=id&way=1550659007#map=20/-12.0797072/-77.0420917"}}]}