{"type": "FeatureCollection", "features": [{"type": "Feature", "geometry": {"type": "Point", "coordinates": [-76.97380020875013, -12.0586025]}, "properties": {"id": 1238699553, "feat_type": "way", "quality_categories": "improper_keys", "issue_ids": "[0]", "osm_url": "https://www.openstreetmap.org/way/1238699553", "josm_url": "http://127.0.0.1:8111/load_object?new_layer=false&objects=w1238699553", "id_url": "https://www.openstreetmap.org/edit?editor=id&way=1238699553#map=20/-12.0586025/-76.97380020875013"}}, {"type": "Feature", "geometry": {"type": "Point", "coordinates": [-77.02988863580836, -12.1328079]}, "properties": {"id": 1497546137, "feat_type": "way", "quality_categories": "improper_keys, missing_tags", "issue_ids": "[1, 2]", "osm_url": "https://www.openstreetmap.org/way/1497546137", "josm_url": "http://127.0.0.1:8111/load_object?new_layer=false&objects=w1497546137", "id_url": "https://www.openstreetmap.org/edit?editor=id&way=1497546137#map=20/-12.1328079/-77.02988863580836"}}, {"type": "Feature", "geometry": {"type": "Point", "coordinates": [-77.03073680099033, -12.1321993]}, "properties": {"id": 1497546146, "feat_type": "way", "quality_categories": "improper_keys, missing_tags", "issue_ids": "[1, 2]", "osm_url": "https://www.openstreetmap.org/way/1497546146", "josm_url": "http://127.0.0.1:8111/load_object?new_layer=false&objects=w1497546146", "id_url": "https://www.openstreetmap.org/edit?editor=id&way=1497546146#map=20/-12.1321993/-77.03073680099033"}}]}