{"type": "FeatureCollection", "features": [{"type": "Feature", "geometry": {"type": "Point", "coordinates": [-77.0782119, -12.0757843]}, "properties": {"id": 194908065, "feat_type": "way", "quality_categories": "invalid_characters, missing_tags", "issue_ids": "[0, 1]", "osm_url": "https://www.openstreetmap.org/way/194908065", "josm_url": "http://127.0.0.1:8111/load_object?new_layer=false&objects=w194908065", "id_url": "https://www.openstreetmap.org/edit?editor=id&way=194908065#map=20/-12.0757843/-77.0782119"}}]}