{"type": "FeatureCollection", "features": [{"type": "Feature", "geometry": {"type": "Point", "coordinates": [-77.0202306, -12.1482064]}, "properties": {"id": 37272320, "feat_type": "way", "quality_categories": "wrong_mispelled_or_unlisted_values", "issue_ids": "[0]", "osm_url": "https://www.openstreetmap.org/way/37272320", "josm_url": "http://127.0.0.1:8111/load_object?new_layer=false&objects=w37272320", "id_url": "https://www.openstreetmap.org/edit?editor=id&way=37272320#map=20/-12.1482064/-77.0202306"}}, {"type": "Feature", "geometry": {"type": "Point", "coordinates": [-76.9924925, -12.1632637]}, "properties": {"id": 111909980, "feat_type": "way", "quality_categories": "wrong_mispelled_or_unlisted_values", "issue_ids": "[1]", "osm_url": "https://www.openstreetmap.org/way/111909980", "josm_url": "http://127.0.0.1:8111/load_object?new_layer=false&objects=w111909980", "id_url": "https://www.openstreetmap.org/edit?editor=id&way=111909980#map=20/-12.1632637/-76.9924925"}}, {"type": "Feature", "geometry": {"type": "Point", "coordinates": [-77.0809467, -12.0575455]}, "properties": {"id": 131940647, "feat_type": "way", "quality_categories": "wrong_mispelled_or_unlisted_values", "issue_ids": "[2]", "osm_url": "https://www.openstreetmap.org/way/131940647", "josm_url": "http://127.0.0.1:8111/load_object?new_layer=false&objects=w131940647", "id_url": "https://www.openstreetmap.org/edit?editor=id&way=131940647#map=20/-12.0575455/-77.0809467"}}, {"type": "Feature", "geometry": {"type": "Point", "coordinates": [-77.0810024, -12.0576134]}, "properties": {"id": 180638237, "feat_type": "way", "quality_categories": "wrong_mispelled_or_unlisted_values", "issue_ids": "[2]", "osm_url": "https://www.openstreetmap.org/way/180638237", "josm_url": "http://127.0.0.1:8111/load_object?new_layer=false&objects=w180638237", "id_url": "https://www.openstreetmap.org/edit?editor=id&way=180638237#map=20/-12.0576134/-77.0810024"}}, {"type": "Feature", "geometry": {"type": "Point", "coordinates": [-77.03754229937576, -12.0555679]}, "properties": {"id": 435970177, "feat_type": "way", "quality_categories": "wrong_mispelled_or_unlisted_values", "issue_ids": "[3]", "osm_url": "https://www.openstreetmap.org/way/435970177", "josm_url": "http://127.0.0.1:8111/load_object?new_layer=false&objects=w435970177", "id_url": "https://www.openstreetmap.org/edit?editor=id&way=435970177#map=20/-12.0555679/-77.03754229937576"}}, {"type": "Feature", "geometry": {"type": "Point", "coordinates": [-77.0358224, -12.1040031]}, "properties": {"id": 457105143, "feat_type": "way", "quality_categories": "wrong_mispelled_or_unlisted_values", "issue_ids": "[4]", "osm_url": "https://www.openstreetmap.org/way/457105143", "josm_url": "http://127.0.0.1:8111/load_object?new_layer=false&objects=w457105143", "id_url": "https://www.openstreetmap.org/edit?editor=id&way=457105143#map=20/-12.1040031/-77.0358224"}}, {"type": "Feature", "geometry": {"type": "Point", "coordinates": [-77.0350014, -12.1028703]}, "properties": {"id": 457106672, "feat_type": "way", "quality_categories": "wrong_mispelled_or_unlisted_values", "issue_ids": "[4]", "osm_url": "https://www.openstreetmap.org/way/457106672", "josm_url": "http://127.0.0.1:8111/load_object?new_layer=false&objects=w457106672", "id_url": "https://www.openstreetmap.org/edit?editor=id&way=457106672#map=20/-12.1028703/-77.0350014"}}, {"type": "Feature", "geometry": {"type": "Point", "coordinates": [-77.023585, -12.1488834]}, "properties": {"id": 570553347, "feat_type": "way", "quality_categories": "wrong_mispelled_or_unlisted_values", "issue_ids": "[5]", "osm_url": "https://www.openstreetmap.org/way/570553347", "josm_url": "http://127.0.0.1:8111/load_object?new_layer=false&objects=w570553347", "id_url": "https://www.openstreetmap.org/edit?editor=id&way=570553347#map=20/-12.1488834/-77.023585"}}, {"type": "Feature", "geometry": {"type": "Point", "coordinates": [-77.0185847, -12.2117777]}, "properties": {"id": 584928857, "feat_type": "way", "quality_categories": "wrong_mispelled_or_unlisted_values", "issue_ids": "[6]", "osm_url": "https://www.openstreetmap.org/way/584928857", "josm_url": "http://127.0.0.1:8111/load_object?new_layer=false&objects=w584928857", "id_url": "https://www.openstreetmap.org/edit?editor=id&way=584928857#map=20/-12.2117777/-77.0185847"}}, {"type": "Feature", "geometry": {"type": "Point", "coordinates": [-76.916751254644, -12.255926200000001]}, "properties": {"id": 626051501, "feat_type": "way", "quality_categories": "older_than_five_years, wrong_mispelled_or_unlisted_values", "issue_ids": "[7, 8]", "osm_url": "https://www.openstreetmap.org/way/626051501", "josm_url": "http://127.0.0.1:8111/load_object?new_layer=false&objects=w626051501", "id_url": "https://www.openstreetmap.org/edit?editor=id&way=626051501#map=20/-12.255926200000001/-76.916751254644"}}, {"type": "Feature", "geometry": {"type": "Point", "coordinates": [-76.997645, -12.0738934]}, "properties": {"id": 835869849, "feat_type": "way", "quality_categories": "wrong_mispelled_or_unlisted_values", "issue_ids": "[2]", "osm_url": "https://www.openstreetmap.org/way/835869849", "josm_url": "http://127.0.0.1:8111/load_object?new_layer=false&objects=w835869849", "id_url": "https://www.openstreetmap.org/edit?editor=id&way=835869849#map=20/-12.0738934/-76.997645"}}, {"type": "Feature", "geometry": {"type": "Point", "coordinates": [-76.8683523, -12.2028499]}, "properties": {"id": 849968059, "feat_type": "way", "quality_categories": "wrong_mispelled_or_unlisted_values", "issue_ids": "[5]", "osm_url": "https://www.openstreetmap.org/way/849968059", "josm_url": "http://127.0.0.1:8111/load_object?new_layer=false&objects=w849968059", "id_url": "https://www.openstreetmap.org/edit?editor=id&way=849968059#map=20/-12.2028499/-76.8683523"}}, {"type": "Feature", "geometry": {"type": "Point", "coordinates": [-77.0015967, -11.9719401]}, "properties": {"id": 913257466, "feat_type": "way", "quality_categories": "wrong_mispelled_or_unlisted_values", "issue_ids": "[2]", "osm_url": "https://www.openstreetmap.org/way/913257466", "josm_url": "http://127.0.0.1:8111/load_object?new_layer=false&objects=w913257466", "id_url": "https://www.openstreetmap.org/edit?editor=id&way=913257466#map=20/-11.9719401/-77.0015967"}}, {"type": "Feature", "geometry": {"type": "Point", "coordinates": [-76.9967046, -11.9719154]}, "properties": {"id": 984501789, "feat_type": "way", "quality_categories": "wrong_mispelled_or_unlisted_values", "issue_ids": "[1]", "osm_url": "https://www.openstreetmap.org/way/984501789", "josm_url": "http://127.0.0.1:8111/load_object?new_layer=false&objects=w984501789", "id_url": "https://www.openstreetmap.org/edit?editor=id&way=984501789#map=20/-11.9719154/-76.9967046"}}, {"type": "Feature", "geometry": {"type": "Point", "coordinates": [-76.9492986, -12.1056131]}, "properties": {"id": 986413993, "feat_type": "way", "quality_categories": "wrong_mispelled_or_unlisted_values", "issue_ids": "[9]", "osm_url": "https://www.openstreetmap.org/way/986413993", "josm_url": "http://127.0.0.1:8111/load_object?new_layer=false&objects=w986413993", "id_url": "https://www.openstreetmap.org/edit?editor=id&way=986413993#map=20/-12.1056131/-76.9492986"}}, {"type": "Feature", "geometry": {"type": "Point", "coordinates": [-76.9697036, -12.0852068]}, "properties": {"id": 1052153473, "feat_type": "way", "quality_categories": "wrong_mispelled_or_unlisted_values", "issue_ids": "[10]", "osm_url": "https://www.openstreetmap.org/way/1052153473", "josm_url": "http://127.0.0.1:8111/load_object?new_layer=false&objects=w1052153473", "id_url": "https://www.openstreetmap.org/edit?editor=id&way=1052153473#map=20/-12.0852068/-76.9697036"}}, {"type": "Feature", "geometry": {"type": "Point", "coordinates": [-76.9698078, -12.0851846]}, "properties": {"id": 1052153474, "feat_type": "way", "quality_categories": "wrong_mispelled_or_unlisted_values", "issue_ids": "[10]", "osm_url": "https://www.openstreetmap.org/way/1052153474", "josm_url": "http://127.0.0.1:8111/load_object?new_layer=false&objects=w1052153474", "id_url": "https://www.openstreetmap.org/edit?editor=id&way=1052153474#map=20/-12.0851846/-76.9698078"}}, {"type": "Feature", "geometry": {"type": "Point", "coordinates": [-76.9698078, -12.0851846]}, "properties": {"id": 1054037635, "feat_type": "way", "quality_categories": "wrong_mispelled_or_unlisted_values", "issue_ids": "[10]", "osm_url": "https://www.openstreetmap.org/way/1054037635", "josm_url": "http://127.0.0.1:8111/load_object?new_layer=false&objects=w1054037635", "id_url": "https://www.openstreetmap.org/edit?editor=id&way=1054037635#map=20/-12.0851846/-76.9698078"}}, {"type": "Feature", "geometry": {"type": "Point", "coordinates": [-77.0233335, -12.042396]}, "properties": {"id": 1062495944, "feat_type": "way", "quality_categories": "wrong_mispelled_or_unlisted_values", "issue_ids": "[3]", "osm_url": "https://www.openstreetmap.org/way/1062495944", "josm_url": "http://127.0.0.1:8111/load_object?new_layer=false&objects=w1062495944", "id_url": "https://www.openstreetmap.org/edit?editor=id&way=1062495944#map=20/-12.042396/-77.0233335"}}, {"type": "Feature", "geometry": {"type": "Point", "coordinates": [-76.8795858, -12.2208606]}, "properties": {"id": 1098046214, "feat_type": "way", "quality_categories": "wrong_mispelled_or_unlisted_values", "issue_ids": "[2]", "osm_url": "https://www.openstreetmap.org/way/1098046214", "josm_url": "http://127.0.0.1:8111/load_object?new_layer=false&objects=w1098046214", "id_url": "https://www.openstreetmap.org/edit?editor=id&way=1098046214#map=20/-12.2208606/-76.8795858"}}, {"type": "Feature", "geometry": {"type": "Point", "coordinates": [-76.8780327, -12.2198037]}, "properties": {"id": 1098046215, "feat_type": "way", "quality_categories": "wrong_mispelled_or_unlisted_values", "issue_ids": "[2]", "osm_url": "https://www.openstreetmap.org/way/1098046215", "josm_url": "http://127.0.0.1:8111/load_object?new_layer=false&objects=w1098046215", "id_url": "https://www.openstreetmap.org/edit?editor=id&way=1098046215#map=20/-12.2198037/-76.8780327"}}, {"type": "Feature", "geometry": {"type": "Point", "coordinates": [-76.939903, -12.1061006]}, "properties": {"id": 1098604656, "feat_type": "way", "quality_categories": "wrong_mispelled_or_unlisted_values", "issue_ids": "[1]", "osm_url": "https://www.openstreetmap.org/way/1098604656", "josm_url": "http://127.0.0.1:8111/load_object?new_layer=false&objects=w1098604656", "id_url": "https://www.openstreetmap.org/edit?editor=id&way=1098604656#map=20/-12.1061006/-76.939903"}}, {"type": "Feature", "geometry": {"type": "Point", "coordinates": [-77.02195627870968, -12.0420667]}, "properties": {"id": 1104560217, "feat_type": "way", "quality_categories": "wrong_mispelled_or_unlisted_values", "issue_ids": "[3]", "osm_url": "https://www.openstreetmap.org/way/1104560217", "josm_url": "http://127.0.0.1:8111/load_object?new_layer=false&objects=w1104560217", "id_url": "https://www.openstreetmap.org/edit?editor=id&way=1104560217#map=20/-12.0420667/-77.02195627870968"}}, {"type": "Feature", "geometry": {"type": "Point", "coordinates": [-77.0254445, -12.1204112]}, "properties": {"id": 1171598877, "feat_type": "way", "quality_categories": "wrong_mispelled_or_unlisted_values", "issue_ids": "[2]", "osm_url": "https://www.openstreetmap.org/way/1171598877", "josm_url": "http://127.0.0.1:8111/load_object?new_layer=false&objects=w1171598877", "id_url": "https://www.openstreetmap.org/edit?editor=id&way=1171598877#map=20/-12.1204112/-77.0254445"}}, {"type": "Feature", "geometry": {"type": "Point", "coordinates": [-77.0009784, -11.9716318]}, "properties": {"id": 1172887358, "feat_type": "way", "quality_categories": "wrong_mispelled_or_unlisted_values", "issue_ids": "[2]", "osm_url": "https://www.openstreetmap.org/way/1172887358", "josm_url": "http://127.0.0.1:8111/load_object?new_layer=false&objects=w1172887358", "id_url": "https://www.openstreetmap.org/edit?editor=id&way=1172887358#map=20/-11.9716318/-77.0009784"}}, {"type": "Feature", "geometry": {"type": "Point", "coordinates": [-76.9698887, -12.0851832]}, "properties": {"id": 1380340723, "feat_type": "way", "quality_categories": "wrong_mispelled_or_unlisted_values", "issue_ids": "[10]", "osm_url": "https://www.openstreetmap.org/way/1380340723", "josm_url": "http://127.0.0.1:8111/load_object?new_layer=false&objects=w1380340723", "id_url": "https://www.openstreetmap.org/edit?editor=id&way=1380340723#map=20/-12.0851832/-76.9698887"}}, {"type": "Feature", "geometry": {"type": "Point", "coordinates": [-77.0735485, -11.9776713]}, "properties": {"id": 1394071082, "feat_type": "way", "quality_categories": "wrong_mispelled_or_unlisted_values", "issue_ids": "[7]", "osm_url": "https://www.openstreetmap.org/way/1394071082", "josm_url": "http://127.0.0.1:8111/load_object?new_layer=false&objects=w1394071082", "id_url": "https://www.openstreetmap.org/edit?editor=id&way=1394071082#map=20/-11.9776713/-77.0735485"}}, {"type": "Feature", "geometry": {"type": "Point", "coordinates": [-77.0731119, -11.9777179]}, "properties": {"id": 1395301840, "feat_type": "way", "quality_categories": "wrong_mispelled_or_unlisted_values", "issue_ids": "[7]", "osm_url": "https://www.openstreetmap.org/way/1395301840", "josm_url": "http://127.0.0.1:8111/load_object?new_layer=false&objects=w1395301840", "id_url": "https://www.openstreetmap.org/edit?editor=id&way=1395301840#map=20/-11.9777179/-77.0731119"}}, {"type": "Feature", "geometry": {"type": "Point", "coordinates": [-77.0732348, -11.9777048]}, "properties": {"id": 1395301842, "feat_type": "way", "quality_categories": "wrong_mispelled_or_unlisted_values", "issue_ids": "[7]", "osm_url": "https://www.openstreetmap.org/way/1395301842", "josm_url": "http://127.0.0.1:8111/load_object?new_layer=false&objects=w1395301842", "id_url": "https://www.openstreetmap.org/edit?editor=id&way=1395301842#map=20/-11.9777048/-77.0732348"}}, {"type": "Feature", "geometry": {"type": "Point", "coordinates": [-77.0732348, -11.9777048]}, "properties": {"id": 1395301844, "feat_type": "way", "quality_categories": "wrong_mispelled_or_unlisted_values", "issue_ids": "[7]", "osm_url": "https://www.openstreetmap.org/way/1395301844", "josm_url": "http://127.0.0.1:8111/load_object?new_layer=false&objects=w1395301844", "id_url": "https://www.openstreetmap.org/edit?editor=id&way=1395301844#map=20/-11.9777048/-77.0732348"}}, {"type": "Feature", "geometry": {"type": "Point", "coordinates": [-77.0731697, -11.9777115]}, "properties": {"id": 1395301846, "feat_type": "way", "quality_categories": "wrong_mispelled_or_unlisted_values", "issue_ids": "[7]", "osm_url": "https://www.openstreetmap.org/way/1395301846", "josm_url": "http://127.0.0.1:8111/load_object?new_layer=false&objects=w1395301846", "id_url": "https://www.openstreetmap.org/edit?editor=id&way=1395301846#map=20/-11.9777115/-77.0731697"}}, {"type": "Feature", "geometry": {"type": "Point", "coordinates": [-77.0731254, -11.9777166]}, "properties": {"id": 1395301847, "feat_type": "way", "quality_categories": "wrong_mispelled_or_unlisted_values", "issue_ids": "[7]", "osm_url": "https://www.openstreetmap.org/way/1395301847", "josm_url": "http://127.0.0.1:8111/load_object?new_layer=false&objects=w1395301847", "id_url": "https://www.openstreetmap.org/edit?editor=id&way=1395301847#map=20/-11.9777166/-77.0731254"}}, {"type": "Feature", "geometry": {"type": "Point", "coordinates": [-77.0731119, -11.9777179]}, "properties": {"id": 1395301849, "feat_type": "way", "quality_categories": "wrong_mispelled_or_unlisted_values", "issue_ids": "[7]", "osm_url": "https://www.openstreetmap.org/way/1395301849", "josm_url": "http://127.0.0.1:8111/load_object?new_layer=false&objects=w1395301849", "id_url": "https://www.openstreetmap.org/edit?editor=id&way=1395301849#map=20/-11.9777179/-77.0731119"}}, {"type": "Feature", "geometry": {"type": "Point", "coordinates": [-76.9709836, -12.1010325]}, "properties": {"id": 1487439626, "feat_type": "way", "quality_categories": "wrong_mispelled_or_unlisted_values", "issue_ids": "[10]", "osm_url": "https://www.openstreetmap.org/way/1487439626", "josm_url": "http://127.0.0.1:8111/load_object?new_layer=false&objects=w1487439626", "id_url": "https://www.openstreetmap.org/edit?editor=id&way=1487439626#map=20/-12.1010325/-76.9709836"}}, {"type": "Feature", "geometry": {"type": "Point", "coordinates": [-76.9712098, -12.1016035]}, "properties": {"id": 1487439633, "feat_type": "way", "quality_categories": "wrong_mispelled_or_unlisted_values", "issue_ids": "[10]", "osm_url": "https://www.openstreetmap.org/way/1487439633", "josm_url": "http://127.0.0.1:8111/load_object?new_layer=false&objects=w1487439633", "id_url": "https://www.openstreetmap.org/edit?editor=id&way=1487439633#map=20/-12.1016035/-76.9712098"}}, {"type": "Feature", "geometry": {"type": "Point", "coordinates": [-76.9709873, -12.0857279]}, "properties": {"id": 1499376656, "feat_type": "way", "quality_categories": "wrong_mispelled_or_unlisted_values", "issue_ids": "[10]", "osm_url": "https://www.openstreetmap.org/way/1499376656", "josm_url": "http://127.0.0.1:8111/load_object?new_layer=false&objects=w1499376656", "id_url": "https://www.openstreetmap.org/edit?editor=id&way=1499376656#map=20/-12.0857279/-76.9709873"}}, {"type": "Feature", "geometry": {"type": "Point", "coordinates": [-76.9712869, -12.0849649]}, "properties": {"id": 1499376675, "feat_type": "way", "quality_categories": "wrong_mispelled_or_unlisted_values", "issue_ids": "[10]", "osm_url": "https://www.openstreetmap.org/way/1499376675", "josm_url": "http://127.0.0.1:8111/load_object?new_layer=false&objects=w1499376675", "id_url": "https://www.openstreetmap.org/edit?editor=id&way=1499376675#map=20/-12.0849649/-76.9712869"}}, {"type": "Feature", "geometry": {"type": "Point", "coordinates": [-76.7558431, -11.9718338]}, "properties": {"id": 1538467081, "feat_type": "way", "quality_categories": "wrong_mispelled_or_unlisted_values", "issue_ids": "[11]", "osm_url": "https://www.openstreetmap.org/way/1538467081", "josm_url": "http://127.0.0.1:8111/load_object?new_layer=false&objects=w1538467081", "id_url": "https://www.openstreetmap.org/edit?editor=id&way=1538467081#map=20/-11.9718338/-76.7558431"}}, {"type": "Feature", "geometry": {"type": "Point", "coordinates": [-76.9707042, -12.0857136]}, "properties": {"id": 1546862990, "feat_type": "way", "quality_categories": "wrong_mispelled_or_unlisted_values", "issue_ids": "[10]", "osm_url": "https://www.openstreetmap.org/way/1546862990", "josm_url": "http://127.0.0.1:8111/load_object?new_layer=false&objects=w1546862990", "id_url": "https://www.openstreetmap.org/edit?editor=id&way=1546862990#map=20/-12.0857136/-76.9707042"}}]}