{"type": "FeatureCollection", "features": [{"type": "Feature", "geometry": {"type": "Point", "coordinates": [-77.0290299, -12.1216629]}, "properties": {"id": 114613846, "feat_type": "node", "quality_categories": "disjointed_geometries, uncanny_keys", "issue_ids": "[0, 1]", "osm_url": "https://www.openstreetmap.org/node/114613846", "josm_url": "http://127.0.0.1:8111/load_object?new_layer=false&objects=n114613846", "id_url": "https://www.openstreetmap.org/edit?editor=id&node=114613846#map=20/-12.1216629/-77.0290299"}}, {"type": "Feature", "geometry": {"type": "Point", "coordinates": [-77.0350796, -12.0942909]}, "properties": {"id": 262730390, "feat_type": "node", "quality_categories": "disjointed_geometries, improper_keys", "issue_ids": "[2, 1]", "osm_url": "https://www.openstreetmap.org/node/262730390", "josm_url": "http://127.0.0.1:8111/load_object?new_layer=false&objects=n262730390", "id_url": "https://www.openstreetmap.org/edit?editor=id&node=262730390#map=20/-12.0942909/-77.0350796"}}, {"type": "Feature", "geometry": {"type": "Point", "coordinates": [-77.0348528, -12.0992234]}, "properties": {"id": 1273690370, "feat_type": "node", "quality_categories": "disjointed_geometries, improper_keys, uncanny_keys", "issue_ids": "[3, 4, 1]", "osm_url": "https://www.openstreetmap.org/node/1273690370", "josm_url": "http://127.0.0.1:8111/load_object?new_layer=false&objects=n1273690370", "id_url": "https://www.openstreetmap.org/edit?editor=id&node=1273690370#map=20/-12.0992234/-77.0348528"}}, {"type": "Feature", "geometry": {"type": "Point", "coordinates": [-77.0293043, -12.1244909]}, "properties": {"id": 3245705959, "feat_type": "node", "quality_categories": "disjointed_geometries, improper_keys", "issue_ids": "[5, 1]", "osm_url": "https://www.openstreetmap.org/node/3245705959", "josm_url": "http://127.0.0.1:8111/load_object?new_layer=false&objects=n3245705959", "id_url": "https://www.openstreetmap.org/edit?editor=id&node=3245705959#map=20/-12.1244909/-77.0293043"}}, {"type": "Feature", "geometry": {"type": "Point", "coordinates": [-77.0293103, -12.1245656]}, "properties": {"id": 3245705961, "feat_type": "node", "quality_categories": "disjointed_geometries, improper_keys", "issue_ids": "[5, 1]", "osm_url": "https://www.openstreetmap.org/node/3245705961", "josm_url": "http://127.0.0.1:8111/load_object?new_layer=false&objects=n3245705961", "id_url": "https://www.openstreetmap.org/edit?editor=id&node=3245705961#map=20/-12.1245656/-77.0293103"}}, {"type": "Feature", "geometry": {"type": "Point", "coordinates": [-77.0252232, -12.1220151]}, "properties": {"id": 3952810640, "feat_type": "node", "quality_categories": "disjointed_geometries, improper_keys", "issue_ids": "[2, 1]", "osm_url": "https://www.openstreetmap.org/node/3952810640", "josm_url": "http://127.0.0.1:8111/load_object?new_layer=false&objects=n3952810640", "id_url": "https://www.openstreetmap.org/edit?editor=id&node=3952810640#map=20/-12.1220151/-77.0252232"}}, {"type": "Feature", "geometry": {"type": "Point", "coordinates": [-77.0251896, -12.1221503]}, "properties": {"id": 3952810641, "feat_type": "node", "quality_categories": "disjointed_geometries, improper_keys", "issue_ids": "[2, 1]", "osm_url": "https://www.openstreetmap.org/node/3952810641", "josm_url": "http://127.0.0.1:8111/load_object?new_layer=false&objects=n3952810641", "id_url": "https://www.openstreetmap.org/edit?editor=id&node=3952810641#map=20/-12.1221503/-77.0251896"}}, {"type": "Feature", "geometry": {"type": "Point", "coordinates": [-76.9792717, -12.1331788]}, "properties": {"id": 3952991347, "feat_type": "node", "quality_categories": "disjointed_geometries, improper_keys", "issue_ids": "[2, 1]", "osm_url": "https://www.openstreetmap.org/node/3952991347", "josm_url": "http://127.0.0.1:8111/load_object?new_layer=false&objects=n3952991347", "id_url": "https://www.openstreetmap.org/edit?editor=id&node=3952991347#map=20/-12.1331788/-76.9792717"}}, {"type": "Feature", "geometry": {"type": "Point", "coordinates": [-77.0329643, -12.0954413]}, "properties": {"id": 4033899334, "feat_type": "node", "quality_categories": "disjointed_geometries, improper_keys", "issue_ids": "[2, 1]", "osm_url": "https://www.openstreetmap.org/node/4033899334", "josm_url": "http://127.0.0.1:8111/load_object?new_layer=false&objects=n4033899334", "id_url": "https://www.openstreetmap.org/edit?editor=id&node=4033899334#map=20/-12.0954413/-77.0329643"}}, {"type": "Feature", "geometry": {"type": "Point", "coordinates": [-77.0314654, -12.0913066]}, "properties": {"id": 4039124523, "feat_type": "node", "quality_categories": "disjointed_geometries, improper_keys", "issue_ids": "[2, 1]", "osm_url": "https://www.openstreetmap.org/node/4039124523", "josm_url": "http://127.0.0.1:8111/load_object?new_layer=false&objects=n4039124523", "id_url": "https://www.openstreetmap.org/edit?editor=id&node=4039124523#map=20/-12.0913066/-77.0314654"}}, {"type": "Feature", "geometry": {"type": "Point", "coordinates": [-77.0365955, -12.0946902]}, "properties": {"id": 4039124621, "feat_type": "node", "quality_categories": "disjointed_geometries, improper_keys", "issue_ids": "[2, 1]", "osm_url": "https://www.openstreetmap.org/node/4039124621", "josm_url": "http://127.0.0.1:8111/load_object?new_layer=false&objects=n4039124621", "id_url": "https://www.openstreetmap.org/edit?editor=id&node=4039124621#map=20/-12.0946902/-77.0365955"}}, {"type": "Feature", "geometry": {"type": "Point", "coordinates": [-77.0307031, -12.0893735]}, "properties": {"id": 4039145250, "feat_type": "node", "quality_categories": "disjointed_geometries, improper_keys", "issue_ids": "[2, 1]", "osm_url": "https://www.openstreetmap.org/node/4039145250", "josm_url": "http://127.0.0.1:8111/load_object?new_layer=false&objects=n4039145250", "id_url": "https://www.openstreetmap.org/edit?editor=id&node=4039145250#map=20/-12.0893735/-77.0307031"}}, {"type": "Feature", "geometry": {"type": "Point", "coordinates": [-77.0306443, -12.0893024]}, "properties": {"id": 4039145251, "feat_type": "node", "quality_categories": "disjointed_geometries, improper_keys", "issue_ids": "[2, 1]", "osm_url": "https://www.openstreetmap.org/node/4039145251", "josm_url": "http://127.0.0.1:8111/load_object?new_layer=false&objects=n4039145251", "id_url": "https://www.openstreetmap.org/edit?editor=id&node=4039145251#map=20/-12.0893024/-77.0306443"}}, {"type": "Feature", "geometry": {"type": "Point", "coordinates": [-77.0305928, -12.089362]}, "properties": {"id": 4039145252, "feat_type": "node", "quality_categories": "disjointed_geometries, improper_keys", "issue_ids": "[2, 1]", "osm_url": "https://www.openstreetmap.org/node/4039145252", "josm_url": "http://127.0.0.1:8111/load_object?new_layer=false&objects=n4039145252", "id_url": "https://www.openstreetmap.org/edit?editor=id&node=4039145252#map=20/-12.089362/-77.0305928"}}, {"type": "Feature", "geometry": {"type": "Point", "coordinates": [-77.0306291, -12.089409]}, "properties": {"id": 4039145253, "feat_type": "node", "quality_categories": "disjointed_geometries, improper_keys", "issue_ids": "[2, 1]", "osm_url": "https://www.openstreetmap.org/node/4039145253", "josm_url": "http://127.0.0.1:8111/load_object?new_layer=false&objects=n4039145253", "id_url": "https://www.openstreetmap.org/edit?editor=id&node=4039145253#map=20/-12.089409/-77.0306291"}}, {"type": "Feature", "geometry": {"type": "Point", "coordinates": [-77.0316207, -12.0902669]}, "properties": {"id": 4039158700, "feat_type": "node", "quality_categories": "disjointed_geometries, improper_keys", "issue_ids": "[2, 1]", "osm_url": "https://www.openstreetmap.org/node/4039158700", "josm_url": "http://127.0.0.1:8111/load_object?new_layer=false&objects=n4039158700", "id_url": "https://www.openstreetmap.org/edit?editor=id&node=4039158700#map=20/-12.0902669/-77.0316207"}}, {"type": "Feature", "geometry": {"type": "Point", "coordinates": [-77.0327189, -12.0888763]}, "properties": {"id": 4039158739, "feat_type": "node", "quality_categories": "disjointed_geometries, improper_keys", "issue_ids": "[2, 1]", "osm_url": "https://www.openstreetmap.org/node/4039158739", "josm_url": "http://127.0.0.1:8111/load_object?new_layer=false&objects=n4039158739", "id_url": "https://www.openstreetmap.org/edit?editor=id&node=4039158739#map=20/-12.0888763/-77.0327189"}}, {"type": "Feature", "geometry": {"type": "Point", "coordinates": [-77.0328602, -12.0877882]}, "properties": {"id": 4039158740, "feat_type": "node", "quality_categories": "disjointed_geometries, improper_keys", "issue_ids": "[2, 1]", "osm_url": "https://www.openstreetmap.org/node/4039158740", "josm_url": "http://127.0.0.1:8111/load_object?new_layer=false&objects=n4039158740", "id_url": "https://www.openstreetmap.org/edit?editor=id&node=4039158740#map=20/-12.0877882/-77.0328602"}}, {"type": "Feature", "geometry": {"type": "Point", "coordinates": [-77.031842, -12.0887427]}, "properties": {"id": 4039178241, "feat_type": "node", "quality_categories": "disjointed_geometries, improper_keys", "issue_ids": "[2, 1]", "osm_url": "https://www.openstreetmap.org/node/4039178241", "josm_url": "http://127.0.0.1:8111/load_object?new_layer=false&objects=n4039178241", "id_url": "https://www.openstreetmap.org/edit?editor=id&node=4039178241#map=20/-12.0887427/-77.031842"}}, {"type": "Feature", "geometry": {"type": "Point", "coordinates": [-77.0318177, -12.0889102]}, "properties": {"id": 4039178242, "feat_type": "node", "quality_categories": "disjointed_geometries, improper_keys", "issue_ids": "[2, 1]", "osm_url": "https://www.openstreetmap.org/node/4039178242", "josm_url": "http://127.0.0.1:8111/load_object?new_layer=false&objects=n4039178242", "id_url": "https://www.openstreetmap.org/edit?editor=id&node=4039178242#map=20/-12.0889102/-77.0318177"}}, {"type": "Feature", "geometry": {"type": "Point", "coordinates": [-77.0291914, -12.1230328]}, "properties": {"id": 4069200592, "feat_type": "node", "quality_categories": "disjointed_geometries, improper_keys", "issue_ids": "[2, 1]", "osm_url": "https://www.openstreetmap.org/node/4069200592", "josm_url": "http://127.0.0.1:8111/load_object?new_layer=false&objects=n4069200592", "id_url": "https://www.openstreetmap.org/edit?editor=id&node=4069200592#map=20/-12.1230328/-77.0291914"}}, {"type": "Feature", "geometry": {"type": "Point", "coordinates": [-77.0290805, -12.1229562]}, "properties": {"id": 4081359628, "feat_type": "node", "quality_categories": "disjointed_geometries, improper_keys", "issue_ids": "[2, 1]", "osm_url": "https://www.openstreetmap.org/node/4081359628", "josm_url": "http://127.0.0.1:8111/load_object?new_layer=false&objects=n4081359628", "id_url": "https://www.openstreetmap.org/edit?editor=id&node=4081359628#map=20/-12.1229562/-77.0290805"}}, {"type": "Feature", "geometry": {"type": "Point", "coordinates": [-77.0410014, -12.0509351]}, "properties": {"id": 4119534128, "feat_type": "node", "quality_categories": "disjointed_geometries, improper_keys", "issue_ids": "[2, 1]", "osm_url": "https://www.openstreetmap.org/node/4119534128", "josm_url": "http://127.0.0.1:8111/load_object?new_layer=false&objects=n4119534128", "id_url": "https://www.openstreetmap.org/edit?editor=id&node=4119534128#map=20/-12.0509351/-77.0410014"}}, {"type": "Feature", "geometry": {"type": "Point", "coordinates": [-77.0409276, -12.0508402]}, "properties": {"id": 4119534129, "feat_type": "node", "quality_categories": "disjointed_geometries, improper_keys", "issue_ids": "[2, 1]", "osm_url": "https://www.openstreetmap.org/node/4119534129", "josm_url": "http://127.0.0.1:8111/load_object?new_layer=false&objects=n4119534129", "id_url": "https://www.openstreetmap.org/edit?editor=id&node=4119534129#map=20/-12.0508402/-77.0409276"}}, {"type": "Feature", "geometry": {"type": "Point", "coordinates": [-77.0408494, -12.0509394]}, "properties": {"id": 4119534130, "feat_type": "node", "quality_categories": "disjointed_geometries, improper_keys", "issue_ids": "[2, 1]", "osm_url": "https://www.openstreetmap.org/node/4119534130", "josm_url": "http://127.0.0.1:8111/load_object?new_layer=false&objects=n4119534130", "id_url": "https://www.openstreetmap.org/edit?editor=id&node=4119534130#map=20/-12.0509394/-77.0408494"}}, {"type": "Feature", "geometry": {"type": "Point", "coordinates": [-77.0220564, -12.1422453]}, "properties": {"id": 4213310416, "feat_type": "node", "quality_categories": "disjointed_geometries, improper_keys", "issue_ids": "[2, 1]", "osm_url": "https://www.openstreetmap.org/node/4213310416", "josm_url": "http://127.0.0.1:8111/load_object?new_layer=false&objects=n4213310416", "id_url": "https://www.openstreetmap.org/edit?editor=id&node=4213310416#map=20/-12.1422453/-77.0220564"}}, {"type": "Feature", "geometry": {"type": "Point", "coordinates": [-77.0272025, -12.0913307]}, "properties": {"id": 4337425089, "feat_type": "node", "quality_categories": "disjointed_geometries, improper_keys", "issue_ids": "[3, 1]", "osm_url": "https://www.openstreetmap.org/node/4337425089", "josm_url": "http://127.0.0.1:8111/load_object?new_layer=false&objects=n4337425089", "id_url": "https://www.openstreetmap.org/edit?editor=id&node=4337425089#map=20/-12.0913307/-77.0272025"}}, {"type": "Feature", "geometry": {"type": "Point", "coordinates": [-77.0268689, -12.091285]}, "properties": {"id": 4337438759, "feat_type": "node", "quality_categories": "disjointed_geometries, improper_keys", "issue_ids": "[3, 1]", "osm_url": "https://www.openstreetmap.org/node/4337438759", "josm_url": "http://127.0.0.1:8111/load_object?new_layer=false&objects=n4337438759", "id_url": "https://www.openstreetmap.org/edit?editor=id&node=4337438759#map=20/-12.091285/-77.0268689"}}, {"type": "Feature", "geometry": {"type": "Point", "coordinates": [-77.0259448, -12.1251734]}, "properties": {"id": 4372751392, "feat_type": "node", "quality_categories": "disjointed_geometries, improper_keys", "issue_ids": "[3, 1]", "osm_url": "https://www.openstreetmap.org/node/4372751392", "josm_url": "http://127.0.0.1:8111/load_object?new_layer=false&objects=n4372751392", "id_url": "https://www.openstreetmap.org/edit?editor=id&node=4372751392#map=20/-12.1251734/-77.0259448"}}, {"type": "Feature", "geometry": {"type": "Point", "coordinates": [-77.0218275, -12.143632]}, "properties": {"id": 4551606262, "feat_type": "node", "quality_categories": "disjointed_geometries, improper_keys", "issue_ids": "[2, 1]", "osm_url": "https://www.openstreetmap.org/node/4551606262", "josm_url": "http://127.0.0.1:8111/load_object?new_layer=false&objects=n4551606262", "id_url": "https://www.openstreetmap.org/edit?editor=id&node=4551606262#map=20/-12.143632/-77.0218275"}}, {"type": "Feature", "geometry": {"type": "Point", "coordinates": [-77.0412547, -12.1179207]}, "properties": {"id": 4559275892, "feat_type": "node", "quality_categories": "disjointed_geometries, improper_keys", "issue_ids": "[2, 1]", "osm_url": "https://www.openstreetmap.org/node/4559275892", "josm_url": "http://127.0.0.1:8111/load_object?new_layer=false&objects=n4559275892", "id_url": "https://www.openstreetmap.org/edit?editor=id&node=4559275892#map=20/-12.1179207/-77.0412547"}}, {"type": "Feature", "geometry": {"type": "Point", "coordinates": [-77.0355624, -12.084884]}, "properties": {"id": 4560606185, "feat_type": "node", "quality_categories": "disjointed_geometries, improper_keys", "issue_ids": "[5, 1]", "osm_url": "https://www.openstreetmap.org/node/4560606185", "josm_url": "http://127.0.0.1:8111/load_object?new_layer=false&objects=n4560606185", "id_url": "https://www.openstreetmap.org/edit?editor=id&node=4560606185#map=20/-12.084884/-77.0355624"}}, {"type": "Feature", "geometry": {"type": "Point", "coordinates": [-77.0496131, -12.0636143]}, "properties": {"id": 5090905985, "feat_type": "node", "quality_categories": "disjointed_geometries, improper_keys", "issue_ids": "[2, 1]", "osm_url": "https://www.openstreetmap.org/node/5090905985", "josm_url": "http://127.0.0.1:8111/load_object?new_layer=false&objects=n5090905985", "id_url": "https://www.openstreetmap.org/edit?editor=id&node=5090905985#map=20/-12.0636143/-77.0496131"}}, {"type": "Feature", "geometry": {"type": "Point", "coordinates": [-77.0194816, -12.1416103]}, "properties": {"id": 5476399704, "feat_type": "node", "quality_categories": "disjointed_geometries, improper_keys", "issue_ids": "[2, 1]", "osm_url": "https://www.openstreetmap.org/node/5476399704", "josm_url": "http://127.0.0.1:8111/load_object?new_layer=false&objects=n5476399704", "id_url": "https://www.openstreetmap.org/edit?editor=id&node=5476399704#map=20/-12.1416103/-77.0194816"}}, {"type": "Feature", "geometry": {"type": "Point", "coordinates": [-77.0210774, -12.1412231]}, "properties": {"id": 5476399705, "feat_type": "node", "quality_categories": "disjointed_geometries, improper_keys", "issue_ids": "[2, 1]", "osm_url": "https://www.openstreetmap.org/node/5476399705", "josm_url": "http://127.0.0.1:8111/load_object?new_layer=false&objects=n5476399705", "id_url": "https://www.openstreetmap.org/edit?editor=id&node=5476399705#map=20/-12.1412231/-77.0210774"}}, {"type": "Feature", "geometry": {"type": "Point", "coordinates": [-77.0405767, -12.1136107]}, "properties": {"id": 5481200875, "feat_type": "node", "quality_categories": "disjointed_geometries, improper_keys", "issue_ids": "[2, 1]", "osm_url": "https://www.openstreetmap.org/node/5481200875", "josm_url": "http://127.0.0.1:8111/load_object?new_layer=false&objects=n5481200875", "id_url": "https://www.openstreetmap.org/edit?editor=id&node=5481200875#map=20/-12.1136107/-77.0405767"}}, {"type": "Feature", "geometry": {"type": "Point", "coordinates": [-76.9854453, -12.1511044]}, "properties": {"id": 5481350627, "feat_type": "node", "quality_categories": "disjointed_geometries, improper_keys", "issue_ids": "[2, 1]", "osm_url": "https://www.openstreetmap.org/node/5481350627", "josm_url": "http://127.0.0.1:8111/load_object?new_layer=false&objects=n5481350627", "id_url": "https://www.openstreetmap.org/edit?editor=id&node=5481350627#map=20/-12.1511044/-76.9854453"}}, {"type": "Feature", "geometry": {"type": "Point", "coordinates": [-76.985526, -12.1512671]}, "properties": {"id": 5481350628, "feat_type": "node", "quality_categories": "disjointed_geometries, improper_keys", "issue_ids": "[2, 1]", "osm_url": "https://www.openstreetmap.org/node/5481350628", "josm_url": "http://127.0.0.1:8111/load_object?new_layer=false&objects=n5481350628", "id_url": "https://www.openstreetmap.org/edit?editor=id&node=5481350628#map=20/-12.1512671/-76.985526"}}, {"type": "Feature", "geometry": {"type": "Point", "coordinates": [-77.0289282, -12.1124457]}, "properties": {"id": 5838333251, "feat_type": "node", "quality_categories": "disjointed_geometries, improper_keys", "issue_ids": "[2, 1]", "osm_url": "https://www.openstreetmap.org/node/5838333251", "josm_url": "http://127.0.0.1:8111/load_object?new_layer=false&objects=n5838333251", "id_url": "https://www.openstreetmap.org/edit?editor=id&node=5838333251#map=20/-12.1124457/-77.0289282"}}, {"type": "Feature", "geometry": {"type": "Point", "coordinates": [-77.0348699, -12.0939422]}, "properties": {"id": 5967655039, "feat_type": "node", "quality_categories": "disjointed_geometries, improper_keys", "issue_ids": "[2, 1]", "osm_url": "https://www.openstreetmap.org/node/5967655039", "josm_url": "http://127.0.0.1:8111/load_object?new_layer=false&objects=n5967655039", "id_url": "https://www.openstreetmap.org/edit?editor=id&node=5967655039#map=20/-12.0939422/-77.0348699"}}, {"type": "Feature", "geometry": {"type": "Point", "coordinates": [-77.0507622, -12.1110586]}, "properties": {"id": 5970435748, "feat_type": "node", "quality_categories": "disjointed_geometries, improper_keys", "issue_ids": "[2, 1]", "osm_url": "https://www.openstreetmap.org/node/5970435748", "josm_url": "http://127.0.0.1:8111/load_object?new_layer=false&objects=n5970435748", "id_url": "https://www.openstreetmap.org/edit?editor=id&node=5970435748#map=20/-12.1110586/-77.0507622"}}, {"type": "Feature", "geometry": {"type": "Point", "coordinates": [-77.0402856, -12.1226086]}, "properties": {"id": 5970572344, "feat_type": "node", "quality_categories": "disjointed_geometries, improper_keys", "issue_ids": "[2, 1]", "osm_url": "https://www.openstreetmap.org/node/5970572344", "josm_url": "http://127.0.0.1:8111/load_object?new_layer=false&objects=n5970572344", "id_url": "https://www.openstreetmap.org/edit?editor=id&node=5970572344#map=20/-12.1226086/-77.0402856"}}, {"type": "Feature", "geometry": {"type": "Point", "coordinates": [-77.0388831, -12.1202473]}, "properties": {"id": 5970641654, "feat_type": "node", "quality_categories": "disjointed_geometries, improper_keys", "issue_ids": "[2, 1]", "osm_url": "https://www.openstreetmap.org/node/5970641654", "josm_url": "http://127.0.0.1:8111/load_object?new_layer=false&objects=n5970641654", "id_url": "https://www.openstreetmap.org/edit?editor=id&node=5970641654#map=20/-12.1202473/-77.0388831"}}, {"type": "Feature", "geometry": {"type": "Point", "coordinates": [-77.0350138, -12.0940056]}, "properties": {"id": 6049666722, "feat_type": "node", "quality_categories": "disjointed_geometries, improper_keys", "issue_ids": "[2, 1]", "osm_url": "https://www.openstreetmap.org/node/6049666722", "josm_url": "http://127.0.0.1:8111/load_object?new_layer=false&objects=n6049666722", "id_url": "https://www.openstreetmap.org/edit?editor=id&node=6049666722#map=20/-12.0940056/-77.0350138"}}, {"type": "Feature", "geometry": {"type": "Point", "coordinates": [-77.0391386, -12.1199862]}, "properties": {"id": 6133702986, "feat_type": "node", "quality_categories": "disjointed_geometries, improper_keys", "issue_ids": "[6, 1]", "osm_url": "https://www.openstreetmap.org/node/6133702986", "josm_url": "http://127.0.0.1:8111/load_object?new_layer=false&objects=n6133702986", "id_url": "https://www.openstreetmap.org/edit?editor=id&node=6133702986#map=20/-12.1199862/-77.0391386"}}, {"type": "Feature", "geometry": {"type": "Point", "coordinates": [-77.0292452, -12.1106093]}, "properties": {"id": 6135879244, "feat_type": "node", "quality_categories": "disjointed_geometries, improper_keys", "issue_ids": "[3, 1]", "osm_url": "https://www.openstreetmap.org/node/6135879244", "josm_url": "http://127.0.0.1:8111/load_object?new_layer=false&objects=n6135879244", "id_url": "https://www.openstreetmap.org/edit?editor=id&node=6135879244#map=20/-12.1106093/-77.0292452"}}, {"type": "Feature", "geometry": {"type": "Point", "coordinates": [-77.0563378, -12.0944214]}, "properties": {"id": 7070228188, "feat_type": "node", "quality_categories": "disjointed_geometries, improper_keys", "issue_ids": "[2, 1]", "osm_url": "https://www.openstreetmap.org/node/7070228188", "josm_url": "http://127.0.0.1:8111/load_object?new_layer=false&objects=n7070228188", "id_url": "https://www.openstreetmap.org/edit?editor=id&node=7070228188#map=20/-12.0944214/-77.0563378"}}, {"type": "Feature", "geometry": {"type": "Point", "coordinates": [-77.0561954, -12.0941449]}, "properties": {"id": 7070228189, "feat_type": "node", "quality_categories": "disjointed_geometries, improper_keys", "issue_ids": "[2, 1]", "osm_url": "https://www.openstreetmap.org/node/7070228189", "josm_url": "http://127.0.0.1:8111/load_object?new_layer=false&objects=n7070228189", "id_url": "https://www.openstreetmap.org/edit?editor=id&node=7070228189#map=20/-12.0941449/-77.0561954"}}, {"type": "Feature", "geometry": {"type": "Point", "coordinates": [-77.0571913, -12.0940245]}, "properties": {"id": 7070242787, "feat_type": "node", "quality_categories": "disjointed_geometries, improper_keys", "issue_ids": "[2, 1]", "osm_url": "https://www.openstreetmap.org/node/7070242787", "josm_url": "http://127.0.0.1:8111/load_object?new_layer=false&objects=n7070242787", "id_url": "https://www.openstreetmap.org/edit?editor=id&node=7070242787#map=20/-12.0940245/-77.0571913"}}, {"type": "Feature", "geometry": {"type": "Point", "coordinates": [-77.0570581, -12.093747]}, "properties": {"id": 7070242788, "feat_type": "node", "quality_categories": "disjointed_geometries, improper_keys", "issue_ids": "[2, 1]", "osm_url": "https://www.openstreetmap.org/node/7070242788", "josm_url": "http://127.0.0.1:8111/load_object?new_layer=false&objects=n7070242788", "id_url": "https://www.openstreetmap.org/edit?editor=id&node=7070242788#map=20/-12.093747/-77.0570581"}}, {"type": "Feature", "geometry": {"type": "Point", "coordinates": [-77.0698023, -12.0927095]}, "properties": {"id": 9215391467, "feat_type": "node", "quality_categories": "disjointed_geometries, improper_keys", "issue_ids": "[7, 1]", "osm_url": "https://www.openstreetmap.org/node/9215391467", "josm_url": "http://127.0.0.1:8111/load_object?new_layer=false&objects=n9215391467", "id_url": "https://www.openstreetmap.org/edit?editor=id&node=9215391467#map=20/-12.0927095/-77.0698023"}}, {"type": "Feature", "geometry": {"type": "Point", "coordinates": [-76.6982797, -11.9393548]}, "properties": {"id": 9836930870, "feat_type": "node", "quality_categories": "disjointed_geometries, improper_keys", "issue_ids": "[3, 1]", "osm_url": "https://www.openstreetmap.org/node/9836930870", "josm_url": "http://127.0.0.1:8111/load_object?new_layer=false&objects=n9836930870", "id_url": "https://www.openstreetmap.org/edit?editor=id&node=9836930870#map=20/-11.9393548/-76.6982797"}}, {"type": "Feature", "geometry": {"type": "Point", "coordinates": [-76.6982714, -11.9394745]}, "properties": {"id": 9836930871, "feat_type": "node", "quality_categories": "disjointed_geometries, improper_keys", "issue_ids": "[3, 1]", "osm_url": "https://www.openstreetmap.org/node/9836930871", "josm_url": "http://127.0.0.1:8111/load_object?new_layer=false&objects=n9836930871", "id_url": "https://www.openstreetmap.org/edit?editor=id&node=9836930871#map=20/-11.9394745/-76.6982714"}}, {"type": "Feature", "geometry": {"type": "Point", "coordinates": [-76.6984047, -11.9395085]}, "properties": {"id": 9836930872, "feat_type": "node", "quality_categories": "disjointed_geometries, improper_keys", "issue_ids": "[3, 1]", "osm_url": "https://www.openstreetmap.org/node/9836930872", "josm_url": "http://127.0.0.1:8111/load_object?new_layer=false&objects=n9836930872", "id_url": "https://www.openstreetmap.org/edit?editor=id&node=9836930872#map=20/-11.9395085/-76.6984047"}}, {"type": "Feature", "geometry": {"type": "Point", "coordinates": [-77.0268525, -12.0914378]}, "properties": {"id": 10083048867, "feat_type": "node", "quality_categories": "disjointed_geometries, improper_keys", "issue_ids": "[3, 1]", "osm_url": "https://www.openstreetmap.org/node/10083048867", "josm_url": "http://127.0.0.1:8111/load_object?new_layer=false&objects=n10083048867", "id_url": "https://www.openstreetmap.org/edit?editor=id&node=10083048867#map=20/-12.0914378/-77.0268525"}}, {"type": "Feature", "geometry": {"type": "Point", "coordinates": [-77.0271896, -12.091486]}, "properties": {"id": 10083048868, "feat_type": "node", "quality_categories": "disjointed_geometries, improper_keys", "issue_ids": "[3, 1]", "osm_url": "https://www.openstreetmap.org/node/10083048868", "josm_url": "http://127.0.0.1:8111/load_object?new_layer=false&objects=n10083048868", "id_url": "https://www.openstreetmap.org/edit?editor=id&node=10083048868#map=20/-12.091486/-77.0271896"}}, {"type": "Feature", "geometry": {"type": "Point", "coordinates": [-77.0270161, -12.0915771]}, "properties": {"id": 10083048869, "feat_type": "node", "quality_categories": "disjointed_geometries, improper_keys", "issue_ids": "[3, 1]", "osm_url": "https://www.openstreetmap.org/node/10083048869", "josm_url": "http://127.0.0.1:8111/load_object?new_layer=false&objects=n10083048869", "id_url": "https://www.openstreetmap.org/edit?editor=id&node=10083048869#map=20/-12.0915771/-77.0270161"}}, {"type": "Feature", "geometry": {"type": "Point", "coordinates": [-77.0005401, -12.0448815]}, "properties": {"id": 10538277655, "feat_type": "node", "quality_categories": "disjointed_geometries, improper_keys", "issue_ids": "[6, 1]", "osm_url": "https://www.openstreetmap.org/node/10538277655", "josm_url": "http://127.0.0.1:8111/load_object?new_layer=false&objects=n10538277655", "id_url": "https://www.openstreetmap.org/edit?editor=id&node=10538277655#map=20/-12.0448815/-77.0005401"}}, {"type": "Feature", "geometry": {"type": "Point", "coordinates": [-76.7118096, -11.9436962]}, "properties": {"id": 11029611005, "feat_type": "node", "quality_categories": "disjointed_geometries, improper_keys", "issue_ids": "[8, 1]", "osm_url": "https://www.openstreetmap.org/node/11029611005", "josm_url": "http://127.0.0.1:8111/load_object?new_layer=false&objects=n11029611005", "id_url": "https://www.openstreetmap.org/edit?editor=id&node=11029611005#map=20/-11.9436962/-76.7118096"}}, {"type": "Feature", "geometry": {"type": "Point", "coordinates": [-76.7120314, -11.9438023]}, "properties": {"id": 11029611019, "feat_type": "node", "quality_categories": "disjointed_geometries, improper_keys", "issue_ids": "[8, 1]", "osm_url": "https://www.openstreetmap.org/node/11029611019", "josm_url": "http://127.0.0.1:8111/load_object?new_layer=false&objects=n11029611019", "id_url": "https://www.openstreetmap.org/edit?editor=id&node=11029611019#map=20/-11.9438023/-76.7120314"}}, {"type": "Feature", "geometry": {"type": "Point", "coordinates": [-76.9430502, -12.1023958]}, "properties": {"id": 12779294750, "feat_type": "node", "quality_categories": "disjointed_geometries, improper_keys", "issue_ids": "[8, 1]", "osm_url": "https://www.openstreetmap.org/node/12779294750", "josm_url": "http://127.0.0.1:8111/load_object?new_layer=false&objects=n12779294750", "id_url": "https://www.openstreetmap.org/edit?editor=id&node=12779294750#map=20/-12.1023958/-76.9430502"}}, {"type": "Feature", "geometry": {"type": "Point", "coordinates": [-76.9436217, -12.1026627]}, "properties": {"id": 12779294751, "feat_type": "node", "quality_categories": "disjointed_geometries, improper_keys", "issue_ids": "[8, 1]", "osm_url": "https://www.openstreetmap.org/node/12779294751", "josm_url": "http://127.0.0.1:8111/load_object?new_layer=false&objects=n12779294751", "id_url": "https://www.openstreetmap.org/edit?editor=id&node=12779294751#map=20/-12.1026627/-76.9436217"}}, {"type": "Feature", "geometry": {"type": "Point", "coordinates": [-77.0358758, -12.0827107]}, "properties": {"id": 12798226214, "feat_type": "node", "quality_categories": "disjointed_geometries, improper_keys", "issue_ids": "[5, 1]", "osm_url": "https://www.openstreetmap.org/node/12798226214", "josm_url": "http://127.0.0.1:8111/load_object?new_layer=false&objects=n12798226214", "id_url": "https://www.openstreetmap.org/edit?editor=id&node=12798226214#map=20/-12.0827107/-77.0358758"}}, {"type": "Feature", "geometry": {"type": "Point", "coordinates": [-77.0359804, -12.0826256]}, "properties": {"id": 12798226215, "feat_type": "node", "quality_categories": "disjointed_geometries, improper_keys", "issue_ids": "[5, 1]", "osm_url": "https://www.openstreetmap.org/node/12798226215", "josm_url": "http://127.0.0.1:8111/load_object?new_layer=false&objects=n12798226215", "id_url": "https://www.openstreetmap.org/edit?editor=id&node=12798226215#map=20/-12.0826256/-77.0359804"}}, {"type": "Feature", "geometry": {"type": "Point", "coordinates": [-77.0356567, -12.0836433]}, "properties": {"id": 12798226216, "feat_type": "node", "quality_categories": "disjointed_geometries, improper_keys", "issue_ids": "[5, 1]", "osm_url": "https://www.openstreetmap.org/node/12798226216", "josm_url": "http://127.0.0.1:8111/load_object?new_layer=false&objects=n12798226216", "id_url": "https://www.openstreetmap.org/edit?editor=id&node=12798226216#map=20/-12.0836433/-77.0356567"}}, {"type": "Feature", "geometry": {"type": "Point", "coordinates": [-77.0356356, -12.0837319]}, "properties": {"id": 12798226217, "feat_type": "node", "quality_categories": "disjointed_geometries, improper_keys", "issue_ids": "[5, 1]", "osm_url": "https://www.openstreetmap.org/node/12798226217", "josm_url": "http://127.0.0.1:8111/load_object?new_layer=false&objects=n12798226217", "id_url": "https://www.openstreetmap.org/edit?editor=id&node=12798226217#map=20/-12.0837319/-77.0356356"}}, {"type": "Feature", "geometry": {"type": "Point", "coordinates": [-77.0357141, -12.0838403]}, "properties": {"id": 12798226218, "feat_type": "node", "quality_categories": "disjointed_geometries, improper_keys", "issue_ids": "[5, 1]", "osm_url": "https://www.openstreetmap.org/node/12798226218", "josm_url": "http://127.0.0.1:8111/load_object?new_layer=false&objects=n12798226218", "id_url": "https://www.openstreetmap.org/edit?editor=id&node=12798226218#map=20/-12.0838403/-77.0357141"}}, {"type": "Feature", "geometry": {"type": "Point", "coordinates": [-77.0358224, -12.0837577]}, "properties": {"id": 12798226219, "feat_type": "node", "quality_categories": "disjointed_geometries, improper_keys", "issue_ids": "[5, 1]", "osm_url": "https://www.openstreetmap.org/node/12798226219", "josm_url": "http://127.0.0.1:8111/load_object?new_layer=false&objects=n12798226219", "id_url": "https://www.openstreetmap.org/edit?editor=id&node=12798226219#map=20/-12.0837577/-77.0358224"}}, {"type": "Feature", "geometry": {"type": "Point", "coordinates": [-77.0358383, -12.0836687]}, "properties": {"id": 12798226220, "feat_type": "node", "quality_categories": "disjointed_geometries, improper_keys", "issue_ids": "[5, 1]", "osm_url": "https://www.openstreetmap.org/node/12798226220", "josm_url": "http://127.0.0.1:8111/load_object?new_layer=false&objects=n12798226220", "id_url": "https://www.openstreetmap.org/edit?editor=id&node=12798226220#map=20/-12.0836687/-77.0358383"}}, {"type": "Feature", "geometry": {"type": "Point", "coordinates": [-77.0357506, -12.0835911]}, "properties": {"id": 12798226221, "feat_type": "node", "quality_categories": "disjointed_geometries, improper_keys", "issue_ids": "[5, 1]", "osm_url": "https://www.openstreetmap.org/node/12798226221", "josm_url": "http://127.0.0.1:8111/load_object?new_layer=false&objects=n12798226221", "id_url": "https://www.openstreetmap.org/edit?editor=id&node=12798226221#map=20/-12.0835911/-77.0357506"}}, {"type": "Feature", "geometry": {"type": "Point", "coordinates": [-77.0356697, -12.0848086]}, "properties": {"id": 12798226222, "feat_type": "node", "quality_categories": "disjointed_geometries, improper_keys", "issue_ids": "[5, 1]", "osm_url": "https://www.openstreetmap.org/node/12798226222", "josm_url": "http://127.0.0.1:8111/load_object?new_layer=false&objects=n12798226222", "id_url": "https://www.openstreetmap.org/edit?editor=id&node=12798226222#map=20/-12.0848086/-77.0356697"}}, {"type": "Feature", "geometry": {"type": "Point", "coordinates": [-77.0354957, -12.0847841]}, "properties": {"id": 12798226223, "feat_type": "node", "quality_categories": "disjointed_geometries, improper_keys", "issue_ids": "[5, 1]", "osm_url": "https://www.openstreetmap.org/node/12798226223", "josm_url": "http://127.0.0.1:8111/load_object?new_layer=false&objects=n12798226223", "id_url": "https://www.openstreetmap.org/edit?editor=id&node=12798226223#map=20/-12.0847841/-77.0354957"}}, {"type": "Feature", "geometry": {"type": "Point", "coordinates": [-77.0958662, -12.0829434]}, "properties": {"id": 13401777752, "feat_type": "node", "quality_categories": "disjointed_geometries, improper_keys", "issue_ids": "[3, 1]", "osm_url": "https://www.openstreetmap.org/node/13401777752", "josm_url": "http://127.0.0.1:8111/load_object?new_layer=false&objects=n13401777752", "id_url": "https://www.openstreetmap.org/edit?editor=id&node=13401777752#map=20/-12.0829434/-77.0958662"}}, {"type": "Feature", "geometry": {"type": "Point", "coordinates": [-77.0820738, -12.0909667]}, "properties": {"id": 13620436128, "feat_type": "node", "quality_categories": "disjointed_geometries, improper_keys", "issue_ids": "[8, 1]", "osm_url": "https://www.openstreetmap.org/node/13620436128", "josm_url": "http://127.0.0.1:8111/load_object?new_layer=false&objects=n13620436128", "id_url": "https://www.openstreetmap.org/edit?editor=id&node=13620436128#map=20/-12.0909667/-77.0820738"}}, {"type": "Feature", "geometry": {"type": "Point", "coordinates": [-77.0303142, -12.1170509]}, "properties": {"id": 1759772460, "feat_type": "node", "quality_categories": "disjointed_geometries", "issue_ids": "[1]", "osm_url": "https://www.openstreetmap.org/node/1759772460", "josm_url": "http://127.0.0.1:8111/load_object?new_layer=false&objects=n1759772460", "id_url": "https://www.openstreetmap.org/edit?editor=id&node=1759772460#map=20/-12.1170509/-77.0303142"}}, {"type": "Feature", "geometry": {"type": "Point", "coordinates": [-77.0358267, -12.1189139]}, "properties": {"id": 3245705918, "feat_type": "node", "quality_categories": "disjointed_geometries", "issue_ids": "[1]", "osm_url": "https://www.openstreetmap.org/node/3245705918", "josm_url": "http://127.0.0.1:8111/load_object?new_layer=false&objects=n3245705918", "id_url": "https://www.openstreetmap.org/edit?editor=id&node=3245705918#map=20/-12.1189139/-77.0358267"}}, {"type": "Feature", "geometry": {"type": "Point", "coordinates": [-77.0359264, -12.1189836]}, "properties": {"id": 3245705923, "feat_type": "node", "quality_categories": "disjointed_geometries", "issue_ids": "[1]", "osm_url": "https://www.openstreetmap.org/node/3245705923", "josm_url": "http://127.0.0.1:8111/load_object?new_layer=false&objects=n3245705923", "id_url": "https://www.openstreetmap.org/edit?editor=id&node=3245705923#map=20/-12.1189836/-77.0359264"}}, {"type": "Feature", "geometry": {"type": "Point", "coordinates": [-77.0357356, -12.118985]}, "properties": {"id": 3245705924, "feat_type": "node", "quality_categories": "disjointed_geometries", "issue_ids": "[1]", "osm_url": "https://www.openstreetmap.org/node/3245705924", "josm_url": "http://127.0.0.1:8111/load_object?new_layer=false&objects=n3245705924", "id_url": "https://www.openstreetmap.org/edit?editor=id&node=3245705924#map=20/-12.118985/-77.0357356"}}, {"type": "Feature", "geometry": {"type": "Point", "coordinates": [-77.0359219, -12.1191108]}, "properties": {"id": 3245705929, "feat_type": "node", "quality_categories": "disjointed_geometries", "issue_ids": "[1]", "osm_url": "https://www.openstreetmap.org/node/3245705929", "josm_url": "http://127.0.0.1:8111/load_object?new_layer=false&objects=n3245705929", "id_url": "https://www.openstreetmap.org/edit?editor=id&node=3245705929#map=20/-12.1191108/-77.0359219"}}, {"type": "Feature", "geometry": {"type": "Point", "coordinates": [-77.0357194, -12.1191144]}, "properties": {"id": 3245705930, "feat_type": "node", "quality_categories": "disjointed_geometries", "issue_ids": "[1]", "osm_url": "https://www.openstreetmap.org/node/3245705930", "josm_url": "http://127.0.0.1:8111/load_object?new_layer=false&objects=n3245705930", "id_url": "https://www.openstreetmap.org/edit?editor=id&node=3245705930#map=20/-12.1191144/-77.0357194"}}, {"type": "Feature", "geometry": {"type": "Point", "coordinates": [-77.0358303, -12.1192033]}, "properties": {"id": 3245705932, "feat_type": "node", "quality_categories": "disjointed_geometries", "issue_ids": "[1]", "osm_url": "https://www.openstreetmap.org/node/3245705932", "josm_url": "http://127.0.0.1:8111/load_object?new_layer=false&objects=n3245705932", "id_url": "https://www.openstreetmap.org/edit?editor=id&node=3245705932#map=20/-12.1192033/-77.0358303"}}, {"type": "Feature", "geometry": {"type": "Point", "coordinates": [-77.030588, -12.1255166]}, "properties": {"id": 3245706006, "feat_type": "node", "quality_categories": "disjointed_geometries", "issue_ids": "[1]", "osm_url": "https://www.openstreetmap.org/node/3245706006", "josm_url": "http://127.0.0.1:8111/load_object?new_layer=false&objects=n3245706006", "id_url": "https://www.openstreetmap.org/edit?editor=id&node=3245706006#map=20/-12.1255166/-77.030588"}}, {"type": "Feature", "geometry": {"type": "Point", "coordinates": [-77.0305447, -12.1255975]}, "properties": {"id": 3245706007, "feat_type": "node", "quality_categories": "disjointed_geometries", "issue_ids": "[1]", "osm_url": "https://www.openstreetmap.org/node/3245706007", "josm_url": "http://127.0.0.1:8111/load_object?new_layer=false&objects=n3245706007", "id_url": "https://www.openstreetmap.org/edit?editor=id&node=3245706007#map=20/-12.1255975/-77.0305447"}}, {"type": "Feature", "geometry": {"type": "Point", "coordinates": [-77.0216896, -12.1458048]}, "properties": {"id": 3261249254, "feat_type": "node", "quality_categories": "disjointed_geometries", "issue_ids": "[1]", "osm_url": "https://www.openstreetmap.org/node/3261249254", "josm_url": "http://127.0.0.1:8111/load_object?new_layer=false&objects=n3261249254", "id_url": "https://www.openstreetmap.org/edit?editor=id&node=3261249254#map=20/-12.1458048/-77.0216896"}}, {"type": "Feature", "geometry": {"type": "Point", "coordinates": [-77.0218452, -12.1458361]}, "properties": {"id": 3261249255, "feat_type": "node", "quality_categories": "disjointed_geometries", "issue_ids": "[1]", "osm_url": "https://www.openstreetmap.org/node/3261249255", "josm_url": "http://127.0.0.1:8111/load_object?new_layer=false&objects=n3261249255", "id_url": "https://www.openstreetmap.org/edit?editor=id&node=3261249255#map=20/-12.1458361/-77.0218452"}}, {"type": "Feature", "geometry": {"type": "Point", "coordinates": [-77.021758, -12.1458757]}, "properties": {"id": 3261249256, "feat_type": "node", "quality_categories": "disjointed_geometries", "issue_ids": "[1]", "osm_url": "https://www.openstreetmap.org/node/3261249256", "josm_url": "http://127.0.0.1:8111/load_object?new_layer=false&objects=n3261249256", "id_url": "https://www.openstreetmap.org/edit?editor=id&node=3261249256#map=20/-12.1458757/-77.021758"}}, {"type": "Feature", "geometry": {"type": "Point", "coordinates": [-77.0067736, -11.9896455]}, "properties": {"id": 4357654614, "feat_type": "node", "quality_categories": "disjointed_geometries", "issue_ids": "[1]", "osm_url": "https://www.openstreetmap.org/node/4357654614", "josm_url": "http://127.0.0.1:8111/load_object?new_layer=false&objects=n4357654614", "id_url": "https://www.openstreetmap.org/edit?editor=id&node=4357654614#map=20/-11.9896455/-77.0067736"}}, {"type": "Feature", "geometry": {"type": "Point", "coordinates": [-77.0288696, -12.1115188]}, "properties": {"id": 4358231536, "feat_type": "node", "quality_categories": "disjointed_geometries", "issue_ids": "[1]", "osm_url": "https://www.openstreetmap.org/node/4358231536", "josm_url": "http://127.0.0.1:8111/load_object?new_layer=false&objects=n4358231536", "id_url": "https://www.openstreetmap.org/edit?editor=id&node=4358231536#map=20/-12.1115188/-77.0288696"}}, {"type": "Feature", "geometry": {"type": "Point", "coordinates": [-77.065498, -12.0940239]}, "properties": {"id": 5614357850, "feat_type": "node", "quality_categories": "disjointed_geometries", "issue_ids": "[1]", "osm_url": "https://www.openstreetmap.org/node/5614357850", "josm_url": "http://127.0.0.1:8111/load_object?new_layer=false&objects=n5614357850", "id_url": "https://www.openstreetmap.org/edit?editor=id&node=5614357850#map=20/-12.0940239/-77.065498"}}, {"type": "Feature", "geometry": {"type": "Point", "coordinates": [-77.0655173, -12.0939528]}, "properties": {"id": 5614357851, "feat_type": "node", "quality_categories": "disjointed_geometries", "issue_ids": "[1]", "osm_url": "https://www.openstreetmap.org/node/5614357851", "josm_url": "http://127.0.0.1:8111/load_object?new_layer=false&objects=n5614357851", "id_url": "https://www.openstreetmap.org/edit?editor=id&node=5614357851#map=20/-12.0939528/-77.0655173"}}, {"type": "Feature", "geometry": {"type": "Point", "coordinates": [-77.0654292, -12.0939408]}, "properties": {"id": 5614357852, "feat_type": "node", "quality_categories": "disjointed_geometries", "issue_ids": "[1]", "osm_url": "https://www.openstreetmap.org/node/5614357852", "josm_url": "http://127.0.0.1:8111/load_object?new_layer=false&objects=n5614357852", "id_url": "https://www.openstreetmap.org/edit?editor=id&node=5614357852#map=20/-12.0939408/-77.0654292"}}, {"type": "Feature", "geometry": {"type": "Point", "coordinates": [-77.0654316, -12.0940223]}, "properties": {"id": 5614357853, "feat_type": "node", "quality_categories": "disjointed_geometries", "issue_ids": "[1]", "osm_url": "https://www.openstreetmap.org/node/5614357853", "josm_url": "http://127.0.0.1:8111/load_object?new_layer=false&objects=n5614357853", "id_url": "https://www.openstreetmap.org/edit?editor=id&node=5614357853#map=20/-12.0940223/-77.0654316"}}, {"type": "Feature", "geometry": {"type": "Point", "coordinates": [-77.0650756, -12.0944]}, "properties": {"id": 5614357857, "feat_type": "node", "quality_categories": "disjointed_geometries", "issue_ids": "[1]", "osm_url": "https://www.openstreetmap.org/node/5614357857", "josm_url": "http://127.0.0.1:8111/load_object?new_layer=false&objects=n5614357857", "id_url": "https://www.openstreetmap.org/edit?editor=id&node=5614357857#map=20/-12.0944/-77.0650756"}}, {"type": "Feature", "geometry": {"type": "Point", "coordinates": [-76.9250452, -12.2219311]}, "properties": {"id": 6810542927, "feat_type": "node", "quality_categories": "disjointed_geometries", "issue_ids": "[1]", "osm_url": "https://www.openstreetmap.org/node/6810542927", "josm_url": "http://127.0.0.1:8111/load_object?new_layer=false&objects=n6810542927", "id_url": "https://www.openstreetmap.org/edit?editor=id&node=6810542927#map=20/-12.2219311/-76.9250452"}}, {"type": "Feature", "geometry": {"type": "Point", "coordinates": [-77.0619571, -12.09271]}, "properties": {"id": 7070268759, "feat_type": "node", "quality_categories": "disjointed_geometries", "issue_ids": "[1]", "osm_url": "https://www.openstreetmap.org/node/7070268759", "josm_url": "http://127.0.0.1:8111/load_object?new_layer=false&objects=n7070268759", "id_url": "https://www.openstreetmap.org/edit?editor=id&node=7070268759#map=20/-12.09271/-77.0619571"}}, {"type": "Feature", "geometry": {"type": "Point", "coordinates": [-77.0606843, -12.0930424]}, "properties": {"id": 7070268761, "feat_type": "node", "quality_categories": "disjointed_geometries", "issue_ids": "[1]", "osm_url": "https://www.openstreetmap.org/node/7070268761", "josm_url": "http://127.0.0.1:8111/load_object?new_layer=false&objects=n7070268761", "id_url": "https://www.openstreetmap.org/edit?editor=id&node=7070268761#map=20/-12.0930424/-77.0606843"}}, {"type": "Feature", "geometry": {"type": "Point", "coordinates": [-77.0056717, -12.1178761]}, "properties": {"id": 9125047937, "feat_type": "node", "quality_categories": "disjointed_geometries", "issue_ids": "[1]", "osm_url": "https://www.openstreetmap.org/node/9125047937", "josm_url": "http://127.0.0.1:8111/load_object?new_layer=false&objects=n9125047937", "id_url": "https://www.openstreetmap.org/edit?editor=id&node=9125047937#map=20/-12.1178761/-77.0056717"}}, {"type": "Feature", "geometry": {"type": "Point", "coordinates": [-76.9959226, -12.1665359]}, "properties": {"id": 9168945203, "feat_type": "node", "quality_categories": "disjointed_geometries", "issue_ids": "[1]", "osm_url": "https://www.openstreetmap.org/node/9168945203", "josm_url": "http://127.0.0.1:8111/load_object?new_layer=false&objects=n9168945203", "id_url": "https://www.openstreetmap.org/edit?editor=id&node=9168945203#map=20/-12.1665359/-76.9959226"}}, {"type": "Feature", "geometry": {"type": "Point", "coordinates": [-76.9942291, -12.1659721]}, "properties": {"id": 9168945204, "feat_type": "node", "quality_categories": "disjointed_geometries", "issue_ids": "[1]", "osm_url": "https://www.openstreetmap.org/node/9168945204", "josm_url": "http://127.0.0.1:8111/load_object?new_layer=false&objects=n9168945204", "id_url": "https://www.openstreetmap.org/edit?editor=id&node=9168945204#map=20/-12.1659721/-76.9942291"}}, {"type": "Feature", "geometry": {"type": "Point", "coordinates": [-76.9945146, -12.1663639]}, "properties": {"id": 9168945205, "feat_type": "node", "quality_categories": "disjointed_geometries", "issue_ids": "[1]", "osm_url": "https://www.openstreetmap.org/node/9168945205", "josm_url": "http://127.0.0.1:8111/load_object?new_layer=false&objects=n9168945205", "id_url": "https://www.openstreetmap.org/edit?editor=id&node=9168945205#map=20/-12.1663639/-76.9945146"}}, {"type": "Feature", "geometry": {"type": "Point", "coordinates": [-76.9952095, -12.1670019]}, "properties": {"id": 9168945206, "feat_type": "node", "quality_categories": "disjointed_geometries", "issue_ids": "[1]", "osm_url": "https://www.openstreetmap.org/node/9168945206", "josm_url": "http://127.0.0.1:8111/load_object?new_layer=false&objects=n9168945206", "id_url": "https://www.openstreetmap.org/edit?editor=id&node=9168945206#map=20/-12.1670019/-76.9952095"}}, {"type": "Feature", "geometry": {"type": "Point", "coordinates": [-76.9964499, -12.1662637]}, "properties": {"id": 9168945207, "feat_type": "node", "quality_categories": "disjointed_geometries", "issue_ids": "[1]", "osm_url": "https://www.openstreetmap.org/node/9168945207", "josm_url": "http://127.0.0.1:8111/load_object?new_layer=false&objects=n9168945207", "id_url": "https://www.openstreetmap.org/edit?editor=id&node=9168945207#map=20/-12.1662637/-76.9964499"}}, {"type": "Feature", "geometry": {"type": "Point", "coordinates": [-76.9964055, -12.1661819]}, "properties": {"id": 9168945208, "feat_type": "node", "quality_categories": "disjointed_geometries", "issue_ids": "[1]", "osm_url": "https://www.openstreetmap.org/node/9168945208", "josm_url": "http://127.0.0.1:8111/load_object?new_layer=false&objects=n9168945208", "id_url": "https://www.openstreetmap.org/edit?editor=id&node=9168945208#map=20/-12.1661819/-76.9964055"}}, {"type": "Feature", "geometry": {"type": "Point", "coordinates": [-77.0312405, -12.0987781]}, "properties": {"id": 10005766635, "feat_type": "node", "quality_categories": "disjointed_geometries", "issue_ids": "[1]", "osm_url": "https://www.openstreetmap.org/node/10005766635", "josm_url": "http://127.0.0.1:8111/load_object?new_layer=false&objects=n10005766635", "id_url": "https://www.openstreetmap.org/edit?editor=id&node=10005766635#map=20/-12.0987781/-77.0312405"}}, {"type": "Feature", "geometry": {"type": "Point", "coordinates": [-77.0312008, -12.0986841]}, "properties": {"id": 10005766636, "feat_type": "node", "quality_categories": "disjointed_geometries", "issue_ids": "[1]", "osm_url": "https://www.openstreetmap.org/node/10005766636", "josm_url": "http://127.0.0.1:8111/load_object?new_layer=false&objects=n10005766636", "id_url": "https://www.openstreetmap.org/edit?editor=id&node=10005766636#map=20/-12.0986841/-77.0312008"}}, {"type": "Feature", "geometry": {"type": "Point", "coordinates": [-77.0313582, -12.0987089]}, "properties": {"id": 10005766637, "feat_type": "node", "quality_categories": "disjointed_geometries", "issue_ids": "[1]", "osm_url": "https://www.openstreetmap.org/node/10005766637", "josm_url": "http://127.0.0.1:8111/load_object?new_layer=false&objects=n10005766637", "id_url": "https://www.openstreetmap.org/edit?editor=id&node=10005766637#map=20/-12.0987089/-77.0313582"}}, {"type": "Feature", "geometry": {"type": "Point", "coordinates": [-77.0312713, -12.0985866]}, "properties": {"id": 10005766638, "feat_type": "node", "quality_categories": "disjointed_geometries", "issue_ids": "[1]", "osm_url": "https://www.openstreetmap.org/node/10005766638", "josm_url": "http://127.0.0.1:8111/load_object?new_layer=false&objects=n10005766638", "id_url": "https://www.openstreetmap.org/edit?editor=id&node=10005766638#map=20/-12.0985866/-77.0312713"}}, {"type": "Feature", "geometry": {"type": "Point", "coordinates": [-77.0565035, -12.1067429]}, "properties": {"id": 10205804835, "feat_type": "node", "quality_categories": "disjointed_geometries", "issue_ids": "[1]", "osm_url": "https://www.openstreetmap.org/node/10205804835", "josm_url": "http://127.0.0.1:8111/load_object?new_layer=false&objects=n10205804835", "id_url": "https://www.openstreetmap.org/edit?editor=id&node=10205804835#map=20/-12.1067429/-77.0565035"}}, {"type": "Feature", "geometry": {"type": "Point", "coordinates": [-77.0567066, -12.1073963]}, "properties": {"id": 10205812293, "feat_type": "node", "quality_categories": "disjointed_geometries", "issue_ids": "[1]", "osm_url": "https://www.openstreetmap.org/node/10205812293", "josm_url": "http://127.0.0.1:8111/load_object?new_layer=false&objects=n10205812293", "id_url": "https://www.openstreetmap.org/edit?editor=id&node=10205812293#map=20/-12.1073963/-77.0567066"}}, {"type": "Feature", "geometry": {"type": "Point", "coordinates": [-77.0846104, -12.0263059]}, "properties": {"id": 10738081483, "feat_type": "node", "quality_categories": "disjointed_geometries", "issue_ids": "[1]", "osm_url": "https://www.openstreetmap.org/node/10738081483", "josm_url": "http://127.0.0.1:8111/load_object?new_layer=false&objects=n10738081483", "id_url": "https://www.openstreetmap.org/edit?editor=id&node=10738081483#map=20/-12.0263059/-77.0846104"}}, {"type": "Feature", "geometry": {"type": "Point", "coordinates": [-77.0846663, -12.0269698]}, "properties": {"id": 10738081484, "feat_type": "node", "quality_categories": "disjointed_geometries", "issue_ids": "[1]", "osm_url": "https://www.openstreetmap.org/node/10738081484", "josm_url": "http://127.0.0.1:8111/load_object?new_layer=false&objects=n10738081484", "id_url": "https://www.openstreetmap.org/edit?editor=id&node=10738081484#map=20/-12.0269698/-77.0846663"}}, {"type": "Feature", "geometry": {"type": "Point", "coordinates": [-77.0844707, -12.0264999]}, "properties": {"id": 10738081485, "feat_type": "node", "quality_categories": "disjointed_geometries", "issue_ids": "[1]", "osm_url": "https://www.openstreetmap.org/node/10738081485", "josm_url": "http://127.0.0.1:8111/load_object?new_layer=false&objects=n10738081485", "id_url": "https://www.openstreetmap.org/edit?editor=id&node=10738081485#map=20/-12.0264999/-77.0844707"}}, {"type": "Feature", "geometry": {"type": "Point", "coordinates": [-77.0509256, -11.9410914]}, "properties": {"id": 10757403540, "feat_type": "node", "quality_categories": "disjointed_geometries", "issue_ids": "[1]", "osm_url": "https://www.openstreetmap.org/node/10757403540", "josm_url": "http://127.0.0.1:8111/load_object?new_layer=false&objects=n10757403540", "id_url": "https://www.openstreetmap.org/edit?editor=id&node=10757403540#map=20/-11.9410914/-77.0509256"}}, {"type": "Feature", "geometry": {"type": "Point", "coordinates": [-77.0453739, -12.0646242]}, "properties": {"id": 11177572532, "feat_type": "node", "quality_categories": "disjointed_geometries", "issue_ids": "[1]", "osm_url": "https://www.openstreetmap.org/node/11177572532", "josm_url": "http://127.0.0.1:8111/load_object?new_layer=false&objects=n11177572532", "id_url": "https://www.openstreetmap.org/edit?editor=id&node=11177572532#map=20/-12.0646242/-77.0453739"}}, {"type": "Feature", "geometry": {"type": "Point", "coordinates": [-76.9709041, -12.1056013]}, "properties": {"id": 11216904915, "feat_type": "node", "quality_categories": "disjointed_geometries", "issue_ids": "[1]", "osm_url": "https://www.openstreetmap.org/node/11216904915", "josm_url": "http://127.0.0.1:8111/load_object?new_layer=false&objects=n11216904915", "id_url": "https://www.openstreetmap.org/edit?editor=id&node=11216904915#map=20/-12.1056013/-76.9709041"}}, {"type": "Feature", "geometry": {"type": "Point", "coordinates": [-77.0598438, -12.0900802]}, "properties": {"id": 11357490927, "feat_type": "node", "quality_categories": "disjointed_geometries", "issue_ids": "[1]", "osm_url": "https://www.openstreetmap.org/node/11357490927", "josm_url": "http://127.0.0.1:8111/load_object?new_layer=false&objects=n11357490927", "id_url": "https://www.openstreetmap.org/edit?editor=id&node=11357490927#map=20/-12.0900802/-77.0598438"}}, {"type": "Feature", "geometry": {"type": "Point", "coordinates": [-77.0599249, -12.0900998]}, "properties": {"id": 11357490928, "feat_type": "node", "quality_categories": "disjointed_geometries", "issue_ids": "[1]", "osm_url": "https://www.openstreetmap.org/node/11357490928", "josm_url": "http://127.0.0.1:8111/load_object?new_layer=false&objects=n11357490928", "id_url": "https://www.openstreetmap.org/edit?editor=id&node=11357490928#map=20/-12.0900998/-77.0599249"}}, {"type": "Feature", "geometry": {"type": "Point", "coordinates": [-77.059839, -12.0899743]}, "properties": {"id": 11357490929, "feat_type": "node", "quality_categories": "disjointed_geometries", "issue_ids": "[1]", "osm_url": "https://www.openstreetmap.org/node/11357490929", "josm_url": "http://127.0.0.1:8111/load_object?new_layer=false&objects=n11357490929", "id_url": "https://www.openstreetmap.org/edit?editor=id&node=11357490929#map=20/-12.0899743/-77.059839"}}, {"type": "Feature", "geometry": {"type": "Point", "coordinates": [-77.0599492, -12.0900085]}, "properties": {"id": 11357490930, "feat_type": "node", "quality_categories": "disjointed_geometries", "issue_ids": "[1]", "osm_url": "https://www.openstreetmap.org/node/11357490930", "josm_url": "http://127.0.0.1:8111/load_object?new_layer=false&objects=n11357490930", "id_url": "https://www.openstreetmap.org/edit?editor=id&node=11357490930#map=20/-12.0900085/-77.0599492"}}, {"type": "Feature", "geometry": {"type": "Point", "coordinates": [-77.0590915, -12.0905825]}, "properties": {"id": 11357490931, "feat_type": "node", "quality_categories": "disjointed_geometries", "issue_ids": "[1]", "osm_url": "https://www.openstreetmap.org/node/11357490931", "josm_url": "http://127.0.0.1:8111/load_object?new_layer=false&objects=n11357490931", "id_url": "https://www.openstreetmap.org/edit?editor=id&node=11357490931#map=20/-12.0905825/-77.0590915"}}, {"type": "Feature", "geometry": {"type": "Point", "coordinates": [-77.0591207, -12.09047]}, "properties": {"id": 11357490932, "feat_type": "node", "quality_categories": "disjointed_geometries", "issue_ids": "[1]", "osm_url": "https://www.openstreetmap.org/node/11357490932", "josm_url": "http://127.0.0.1:8111/load_object?new_layer=false&objects=n11357490932", "id_url": "https://www.openstreetmap.org/edit?editor=id&node=11357490932#map=20/-12.09047/-77.0591207"}}, {"type": "Feature", "geometry": {"type": "Point", "coordinates": [-77.0592095, -12.090505]}, "properties": {"id": 11357490933, "feat_type": "node", "quality_categories": "disjointed_geometries", "issue_ids": "[1]", "osm_url": "https://www.openstreetmap.org/node/11357490933", "josm_url": "http://127.0.0.1:8111/load_object?new_layer=false&objects=n11357490933", "id_url": "https://www.openstreetmap.org/edit?editor=id&node=11357490933#map=20/-12.090505/-77.0592095"}}, {"type": "Feature", "geometry": {"type": "Point", "coordinates": [-77.0591963, -12.090579]}, "properties": {"id": 11357490934, "feat_type": "node", "quality_categories": "disjointed_geometries", "issue_ids": "[1]", "osm_url": "https://www.openstreetmap.org/node/11357490934", "josm_url": "http://127.0.0.1:8111/load_object?new_layer=false&objects=n11357490934", "id_url": "https://www.openstreetmap.org/edit?editor=id&node=11357490934#map=20/-12.090579/-77.0591963"}}, {"type": "Feature", "geometry": {"type": "Point", "coordinates": [-76.9824591, -12.1439086]}, "properties": {"id": 12408794896, "feat_type": "node", "quality_categories": "disjointed_geometries", "issue_ids": "[1]", "osm_url": "https://www.openstreetmap.org/node/12408794896", "josm_url": "http://127.0.0.1:8111/load_object?new_layer=false&objects=n12408794896", "id_url": "https://www.openstreetmap.org/edit?editor=id&node=12408794896#map=20/-12.1439086/-76.9824591"}}, {"type": "Feature", "geometry": {"type": "Point", "coordinates": [-76.9824229, -12.1436811]}, "properties": {"id": 12408794897, "feat_type": "node", "quality_categories": "disjointed_geometries", "issue_ids": "[1]", "osm_url": "https://www.openstreetmap.org/node/12408794897", "josm_url": "http://127.0.0.1:8111/load_object?new_layer=false&objects=n12408794897", "id_url": "https://www.openstreetmap.org/edit?editor=id&node=12408794897#map=20/-12.1436811/-76.9824229"}}, {"type": "Feature", "geometry": {"type": "Point", "coordinates": [-76.9828762, -12.1435953]}, "properties": {"id": 12408794898, "feat_type": "node", "quality_categories": "disjointed_geometries", "issue_ids": "[1]", "osm_url": "https://www.openstreetmap.org/node/12408794898", "josm_url": "http://127.0.0.1:8111/load_object?new_layer=false&objects=n12408794898", "id_url": "https://www.openstreetmap.org/edit?editor=id&node=12408794898#map=20/-12.1435953/-76.9828762"}}, {"type": "Feature", "geometry": {"type": "Point", "coordinates": [-77.059065, -12.1019189]}, "properties": {"id": 12428184976, "feat_type": "node", "quality_categories": "disjointed_geometries", "issue_ids": "[1]", "osm_url": "https://www.openstreetmap.org/node/12428184976", "josm_url": "http://127.0.0.1:8111/load_object?new_layer=false&objects=n12428184976", "id_url": "https://www.openstreetmap.org/edit?editor=id&node=12428184976#map=20/-12.1019189/-77.059065"}}, {"type": "Feature", "geometry": {"type": "Point", "coordinates": [-77.0483919, -12.1145621]}, "properties": {"id": 12430876742, "feat_type": "node", "quality_categories": "disjointed_geometries", "issue_ids": "[1]", "osm_url": "https://www.openstreetmap.org/node/12430876742", "josm_url": "http://127.0.0.1:8111/load_object?new_layer=false&objects=n12430876742", "id_url": "https://www.openstreetmap.org/edit?editor=id&node=12430876742#map=20/-12.1145621/-77.0483919"}}, {"type": "Feature", "geometry": {"type": "Point", "coordinates": [-77.0484763, -12.1145516]}, "properties": {"id": 12430876743, "feat_type": "node", "quality_categories": "disjointed_geometries", "issue_ids": "[1]", "osm_url": "https://www.openstreetmap.org/node/12430876743", "josm_url": "http://127.0.0.1:8111/load_object?new_layer=false&objects=n12430876743", "id_url": "https://www.openstreetmap.org/edit?editor=id&node=12430876743#map=20/-12.1145516/-77.0484763"}}, {"type": "Feature", "geometry": {"type": "Point", "coordinates": [-77.0484683, -12.1144887]}, "properties": {"id": 12430876744, "feat_type": "node", "quality_categories": "disjointed_geometries", "issue_ids": "[1]", "osm_url": "https://www.openstreetmap.org/node/12430876744", "josm_url": "http://127.0.0.1:8111/load_object?new_layer=false&objects=n12430876744", "id_url": "https://www.openstreetmap.org/edit?editor=id&node=12430876744#map=20/-12.1144887/-77.0484683"}}, {"type": "Feature", "geometry": {"type": "Point", "coordinates": [-77.0483905, -12.1144769]}, "properties": {"id": 12430876745, "feat_type": "node", "quality_categories": "disjointed_geometries", "issue_ids": "[1]", "osm_url": "https://www.openstreetmap.org/node/12430876745", "josm_url": "http://127.0.0.1:8111/load_object?new_layer=false&objects=n12430876745", "id_url": "https://www.openstreetmap.org/edit?editor=id&node=12430876745#map=20/-12.1144769/-77.0483905"}}, {"type": "Feature", "geometry": {"type": "Point", "coordinates": [-76.9798446, -12.1345105]}, "properties": {"id": 12431168352, "feat_type": "node", "quality_categories": "disjointed_geometries", "issue_ids": "[1]", "osm_url": "https://www.openstreetmap.org/node/12431168352", "josm_url": "http://127.0.0.1:8111/load_object?new_layer=false&objects=n12431168352", "id_url": "https://www.openstreetmap.org/edit?editor=id&node=12431168352#map=20/-12.1345105/-76.9798446"}}, {"type": "Feature", "geometry": {"type": "Point", "coordinates": [-77.0345261, -12.1111953]}, "properties": {"id": 12820790233, "feat_type": "node", "quality_categories": "disjointed_geometries", "issue_ids": "[1]", "osm_url": "https://www.openstreetmap.org/node/12820790233", "josm_url": "http://127.0.0.1:8111/load_object?new_layer=false&objects=n12820790233", "id_url": "https://www.openstreetmap.org/edit?editor=id&node=12820790233#map=20/-12.1111953/-77.0345261"}}, {"type": "Feature", "geometry": {"type": "Point", "coordinates": [-77.030271, -12.1169564]}, "properties": {"id": 12832529723, "feat_type": "node", "quality_categories": "disjointed_geometries", "issue_ids": "[1]", "osm_url": "https://www.openstreetmap.org/node/12832529723", "josm_url": "http://127.0.0.1:8111/load_object?new_layer=false&objects=n12832529723", "id_url": "https://www.openstreetmap.org/edit?editor=id&node=12832529723#map=20/-12.1169564/-77.030271"}}, {"type": "Feature", "geometry": {"type": "Point", "coordinates": [-77.0303615, -12.1168909]}, "properties": {"id": 12832529724, "feat_type": "node", "quality_categories": "disjointed_geometries", "issue_ids": "[1]", "osm_url": "https://www.openstreetmap.org/node/12832529724", "josm_url": "http://127.0.0.1:8111/load_object?new_layer=false&objects=n12832529724", "id_url": "https://www.openstreetmap.org/edit?editor=id&node=12832529724#map=20/-12.1168909/-77.0303615"}}, {"type": "Feature", "geometry": {"type": "Point", "coordinates": [-77.0304658, -12.1169544]}, "properties": {"id": 12832529725, "feat_type": "node", "quality_categories": "disjointed_geometries", "issue_ids": "[1]", "osm_url": "https://www.openstreetmap.org/node/12832529725", "josm_url": "http://127.0.0.1:8111/load_object?new_layer=false&objects=n12832529725", "id_url": "https://www.openstreetmap.org/edit?editor=id&node=12832529725#map=20/-12.1169544/-77.0304658"}}, {"type": "Feature", "geometry": {"type": "Point", "coordinates": [-77.031378, -12.1169013]}, "properties": {"id": 12832529726, "feat_type": "node", "quality_categories": "disjointed_geometries", "issue_ids": "[1]", "osm_url": "https://www.openstreetmap.org/node/12832529726", "josm_url": "http://127.0.0.1:8111/load_object?new_layer=false&objects=n12832529726", "id_url": "https://www.openstreetmap.org/edit?editor=id&node=12832529726#map=20/-12.1169013/-77.031378"}}, {"type": "Feature", "geometry": {"type": "Point", "coordinates": [-77.0312939, -12.1169523]}, "properties": {"id": 12832529727, "feat_type": "node", "quality_categories": "disjointed_geometries", "issue_ids": "[1]", "osm_url": "https://www.openstreetmap.org/node/12832529727", "josm_url": "http://127.0.0.1:8111/load_object?new_layer=false&objects=n12832529727", "id_url": "https://www.openstreetmap.org/edit?editor=id&node=12832529727#map=20/-12.1169523/-77.0312939"}}, {"type": "Feature", "geometry": {"type": "Point", "coordinates": [-77.0313791, -12.117023]}, "properties": {"id": 12832529728, "feat_type": "node", "quality_categories": "disjointed_geometries", "issue_ids": "[1]", "osm_url": "https://www.openstreetmap.org/node/12832529728", "josm_url": "http://127.0.0.1:8111/load_object?new_layer=false&objects=n12832529728", "id_url": "https://www.openstreetmap.org/edit?editor=id&node=12832529728#map=20/-12.117023/-77.0313791"}}, {"type": "Feature", "geometry": {"type": "Point", "coordinates": [-77.0314557, -12.1169533]}, "properties": {"id": 12832529729, "feat_type": "node", "quality_categories": "disjointed_geometries", "issue_ids": "[1]", "osm_url": "https://www.openstreetmap.org/node/12832529729", "josm_url": "http://127.0.0.1:8111/load_object?new_layer=false&objects=n12832529729", "id_url": "https://www.openstreetmap.org/edit?editor=id&node=12832529729#map=20/-12.1169533/-77.0314557"}}, {"type": "Feature", "geometry": {"type": "Point", "coordinates": [-77.069293, -12.091762]}, "properties": {"id": 13081833586, "feat_type": "node", "quality_categories": "disjointed_geometries", "issue_ids": "[1]", "osm_url": "https://www.openstreetmap.org/node/13081833586", "josm_url": "http://127.0.0.1:8111/load_object?new_layer=false&objects=n13081833586", "id_url": "https://www.openstreetmap.org/edit?editor=id&node=13081833586#map=20/-12.091762/-77.069293"}}, {"type": "Feature", "geometry": {"type": "Point", "coordinates": [-77.0693909, -12.0917325]}, "properties": {"id": 13081833587, "feat_type": "node", "quality_categories": "disjointed_geometries", "issue_ids": "[1]", "osm_url": "https://www.openstreetmap.org/node/13081833587", "josm_url": "http://127.0.0.1:8111/load_object?new_layer=false&objects=n13081833587", "id_url": "https://www.openstreetmap.org/edit?editor=id&node=13081833587#map=20/-12.0917325/-77.0693909"}}, {"type": "Feature", "geometry": {"type": "Point", "coordinates": [-77.0693225, -12.0916997]}, "properties": {"id": 13081833588, "feat_type": "node", "quality_categories": "disjointed_geometries", "issue_ids": "[1]", "osm_url": "https://www.openstreetmap.org/node/13081833588", "josm_url": "http://127.0.0.1:8111/load_object?new_layer=false&objects=n13081833588", "id_url": "https://www.openstreetmap.org/edit?editor=id&node=13081833588#map=20/-12.0916997/-77.0693225"}}, {"type": "Feature", "geometry": {"type": "Point", "coordinates": [-77.0340606, -12.0863052]}, "properties": {"id": 13416081108, "feat_type": "node", "quality_categories": "disjointed_geometries", "issue_ids": "[1]", "osm_url": "https://www.openstreetmap.org/node/13416081108", "josm_url": "http://127.0.0.1:8111/load_object?new_layer=false&objects=n13416081108", "id_url": "https://www.openstreetmap.org/edit?editor=id&node=13416081108#map=20/-12.0863052/-77.0340606"}}, {"type": "Feature", "geometry": {"type": "Point", "coordinates": [-76.919459, -12.0842628]}, "properties": {"id": 13909492161, "feat_type": "node", "quality_categories": "disjointed_geometries", "issue_ids": "[1]", "osm_url": "https://www.openstreetmap.org/node/13909492161", "josm_url": "http://127.0.0.1:8111/load_object?new_layer=false&objects=n13909492161", "id_url": "https://www.openstreetmap.org/edit?editor=id&node=13909492161#map=20/-12.0842628/-76.919459"}}, {"type": "Feature", "geometry": {"type": "Point", "coordinates": [-76.9213299, -12.0839936]}, "properties": {"id": 13909492164, "feat_type": "node", "quality_categories": "disjointed_geometries", "issue_ids": "[1]", "osm_url": "https://www.openstreetmap.org/node/13909492164", "josm_url": "http://127.0.0.1:8111/load_object?new_layer=false&objects=n13909492164", "id_url": "https://www.openstreetmap.org/edit?editor=id&node=13909492164#map=20/-12.0839936/-76.9213299"}}, {"type": "Feature", "geometry": {"type": "Point", "coordinates": [-77.0652884, -12.0756155]}, "properties": {"id": 14084738892, "feat_type": "node", "quality_categories": "disjointed_geometries", "issue_ids": "[1]", "osm_url": "https://www.openstreetmap.org/node/14084738892", "josm_url": "http://127.0.0.1:8111/load_object?new_layer=false&objects=n14084738892", "id_url": "https://www.openstreetmap.org/edit?editor=id&node=14084738892#map=20/-12.0756155/-77.0652884"}}, {"type": "Feature", "geometry": {"type": "Point", "coordinates": [-77.0667838, -12.0822316]}, "properties": {"id": 14085020869, "feat_type": "node", "quality_categories": "disjointed_geometries", "issue_ids": "[1]", "osm_url": "https://www.openstreetmap.org/node/14085020869", "josm_url": "http://127.0.0.1:8111/load_object?new_layer=false&objects=n14085020869", "id_url": "https://www.openstreetmap.org/edit?editor=id&node=14085020869#map=20/-12.0822316/-77.0667838"}}, {"type": "Feature", "geometry": {"type": "Point", "coordinates": [-77.0505188, -12.0646071]}, "properties": {"id": 14087387747, "feat_type": "node", "quality_categories": "disjointed_geometries", "issue_ids": "[1]", "osm_url": "https://www.openstreetmap.org/node/14087387747", "josm_url": "http://127.0.0.1:8111/load_object?new_layer=false&objects=n14087387747", "id_url": "https://www.openstreetmap.org/edit?editor=id&node=14087387747#map=20/-12.0646071/-77.0505188"}}, {"type": "Feature", "geometry": {"type": "Point", "coordinates": [-77.0505262, -12.0645278]}, "properties": {"id": 14087387748, "feat_type": "node", "quality_categories": "disjointed_geometries", "issue_ids": "[1]", "osm_url": "https://www.openstreetmap.org/node/14087387748", "josm_url": "http://127.0.0.1:8111/load_object?new_layer=false&objects=n14087387748", "id_url": "https://www.openstreetmap.org/edit?editor=id&node=14087387748#map=20/-12.0645278/-77.0505262"}}, {"type": "Feature", "geometry": {"type": "Point", "coordinates": [-77.0506013, -12.0646163]}, "properties": {"id": 14087387749, "feat_type": "node", "quality_categories": "disjointed_geometries", "issue_ids": "[1]", "osm_url": "https://www.openstreetmap.org/node/14087387749", "josm_url": "http://127.0.0.1:8111/load_object?new_layer=false&objects=n14087387749", "id_url": "https://www.openstreetmap.org/edit?editor=id&node=14087387749#map=20/-12.0646163/-77.0506013"}}, {"type": "Feature", "geometry": {"type": "Point", "coordinates": [-77.0506067, -12.0645357]}, "properties": {"id": 14087387750, "feat_type": "node", "quality_categories": "disjointed_geometries", "issue_ids": "[1]", "osm_url": "https://www.openstreetmap.org/node/14087387750", "josm_url": "http://127.0.0.1:8111/load_object?new_layer=false&objects=n14087387750", "id_url": "https://www.openstreetmap.org/edit?editor=id&node=14087387750#map=20/-12.0645357/-77.0506067"}}, {"type": "Feature", "geometry": {"type": "Point", "coordinates": [-77.0450552, -12.0564883]}, "properties": {"id": 14089109750, "feat_type": "node", "quality_categories": "disjointed_geometries", "issue_ids": "[1]", "osm_url": "https://www.openstreetmap.org/node/14089109750", "josm_url": "http://127.0.0.1:8111/load_object?new_layer=false&objects=n14089109750", "id_url": "https://www.openstreetmap.org/edit?editor=id&node=14089109750#map=20/-12.0564883/-77.0450552"}}, {"type": "Feature", "geometry": {"type": "Point", "coordinates": [-77.0253922, -12.1210828]}, "properties": {"id": 653828572, "feat_type": "way", "quality_categories": "disjointed_geometries", "issue_ids": "[1]", "osm_url": "https://www.openstreetmap.org/way/653828572", "josm_url": "http://127.0.0.1:8111/load_object?new_layer=false&objects=w653828572", "id_url": "https://www.openstreetmap.org/edit?editor=id&way=653828572#map=20/-12.1210828/-77.0253922"}}, {"type": "Feature", "geometry": {"type": "Point", "coordinates": [-77.0238332, -12.0935251]}, "properties": {"id": 655111049, "feat_type": "way", "quality_categories": "disjointed_geometries", "issue_ids": "[1]", "osm_url": "https://www.openstreetmap.org/way/655111049", "josm_url": "http://127.0.0.1:8111/load_object?new_layer=false&objects=w655111049", "id_url": "https://www.openstreetmap.org/edit?editor=id&way=655111049#map=20/-12.0935251/-77.0238332"}}, {"type": "Feature", "geometry": {"type": "Point", "coordinates": [-77.0337880995283, -12.123727599999999]}, "properties": {"id": 669858049, "feat_type": "way", "quality_categories": "disjointed_geometries", "issue_ids": "[1]", "osm_url": "https://www.openstreetmap.org/way/669858049", "josm_url": "http://127.0.0.1:8111/load_object?new_layer=false&objects=w669858049", "id_url": "https://www.openstreetmap.org/edit?editor=id&way=669858049#map=20/-12.123727599999999/-77.0337880995283"}}, {"type": "Feature", "geometry": {"type": "Point", "coordinates": [-76.9767675, -12.2189031]}, "properties": {"id": 1004441316, "feat_type": "way", "quality_categories": "disjointed_geometries", "issue_ids": "[1]", "osm_url": "https://www.openstreetmap.org/way/1004441316", "josm_url": "http://127.0.0.1:8111/load_object?new_layer=false&objects=w1004441316", "id_url": "https://www.openstreetmap.org/edit?editor=id&way=1004441316#map=20/-12.2189031/-76.9767675"}}, {"type": "Feature", "geometry": {"type": "Point", "coordinates": [-76.9777169, -12.2180139]}, "properties": {"id": 1149943361, "feat_type": "way", "quality_categories": "disjointed_geometries", "issue_ids": "[1]", "osm_url": "https://www.openstreetmap.org/way/1149943361", "josm_url": "http://127.0.0.1:8111/load_object?new_layer=false&objects=w1149943361", "id_url": "https://www.openstreetmap.org/edit?editor=id&way=1149943361#map=20/-12.2180139/-76.9777169"}}, {"type": "Feature", "geometry": {"type": "Point", "coordinates": [-76.9767566, -12.2180506]}, "properties": {"id": 1149943362, "feat_type": "way", "quality_categories": "disjointed_geometries", "issue_ids": "[1]", "osm_url": "https://www.openstreetmap.org/way/1149943362", "josm_url": "http://127.0.0.1:8111/load_object?new_layer=false&objects=w1149943362", "id_url": "https://www.openstreetmap.org/edit?editor=id&way=1149943362#map=20/-12.2180506/-76.9767566"}}, {"type": "Feature", "geometry": {"type": "Point", "coordinates": [-76.838328, -12.3121069]}, "properties": {"id": 1453185152, "feat_type": "way", "quality_categories": "disjointed_geometries", "issue_ids": "[1]", "osm_url": "https://www.openstreetmap.org/way/1453185152", "josm_url": "http://127.0.0.1:8111/load_object?new_layer=false&objects=w1453185152", "id_url": "https://www.openstreetmap.org/edit?editor=id&way=1453185152#map=20/-12.3121069/-76.838328"}}, {"type": "Feature", "geometry": {"type": "Point", "coordinates": [-76.8363995, -12.3121633]}, "properties": {"id": 1453185153, "feat_type": "way", "quality_categories": "disjointed_geometries", "issue_ids": "[1]", "osm_url": "https://www.openstreetmap.org/way/1453185153", "josm_url": "http://127.0.0.1:8111/load_object?new_layer=false&objects=w1453185153", "id_url": "https://www.openstreetmap.org/edit?editor=id&way=1453185153#map=20/-12.3121633/-76.8363995"}}]}