{"type": "FeatureCollection", "features": [{"type": "Feature", "geometry": {"type": "Point", "coordinates": [-77.0350796, -12.0942909]}, "properties": {"id": 262730390, "feat_type": "node", "quality_categories": "disjointed_geometries, improper_keys", "issue_ids": "[0, 1]", "osm_url": "https://www.openstreetmap.org/node/262730390", "josm_url": "http://127.0.0.1:8111/load_object?new_layer=false&objects=n262730390", "id_url": "https://www.openstreetmap.org/edit?editor=id&node=262730390#map=20/-12.0942909/-77.0350796"}}, {"type": "Feature", "geometry": {"type": "Point", "coordinates": [-76.99043, -12.12388]}, "properties": {"id": 392151116, "feat_type": "node", "quality_categories": "improper_keys", "issue_ids": "[0]", "osm_url": "https://www.openstreetmap.org/node/392151116", "josm_url": "http://127.0.0.1:8111/load_object?new_layer=false&objects=n392151116", "id_url": "https://www.openstreetmap.org/edit?editor=id&node=392151116#map=20/-12.12388/-76.99043"}}, {"type": "Feature", "geometry": {"type": "Point", "coordinates": [-77.0348528, -12.0992234]}, "properties": {"id": 1273690370, "feat_type": "node", "quality_categories": "disjointed_geometries, improper_keys, uncanny_keys", "issue_ids": "[2, 3, 1]", "osm_url": "https://www.openstreetmap.org/node/1273690370", "josm_url": "http://127.0.0.1:8111/load_object?new_layer=false&objects=n1273690370", "id_url": "https://www.openstreetmap.org/edit?editor=id&node=1273690370#map=20/-12.0992234/-77.0348528"}}, {"type": "Feature", "geometry": {"type": "Point", "coordinates": [-77.0351, -12.1011566]}, "properties": {"id": 1759772453, "feat_type": "node", "quality_categories": "improper_keys, kerb_on_top_of_non_crossing, uncanny_keys", "issue_ids": "[2, 3, 4]", "osm_url": "https://www.openstreetmap.org/node/1759772453", "josm_url": "http://127.0.0.1:8111/load_object?new_layer=false&objects=n1759772453", "id_url": "https://www.openstreetmap.org/edit?editor=id&node=1759772453#map=20/-12.1011566/-77.0351"}}, {"type": "Feature", "geometry": {"type": "Point", "coordinates": [-77.0380514, -12.0598325]}, "properties": {"id": 2689744147, "feat_type": "node", "quality_categories": "improper_keys", "issue_ids": "[0]", "osm_url": "https://www.openstreetmap.org/node/2689744147", "josm_url": "http://127.0.0.1:8111/load_object?new_layer=false&objects=n2689744147", "id_url": "https://www.openstreetmap.org/edit?editor=id&node=2689744147#map=20/-12.0598325/-77.0380514"}}, {"type": "Feature", "geometry": {"type": "Point", "coordinates": [-77.0306394, -12.0452131]}, "properties": {"id": 2987081363, "feat_type": "node", "quality_categories": "improper_keys", "issue_ids": "[0]", "osm_url": "https://www.openstreetmap.org/node/2987081363", "josm_url": "http://127.0.0.1:8111/load_object?new_layer=false&objects=n2987081363", "id_url": "https://www.openstreetmap.org/edit?editor=id&node=2987081363#map=20/-12.0452131/-77.0306394"}}, {"type": "Feature", "geometry": {"type": "Point", "coordinates": [-76.9852124, -12.1431721]}, "properties": {"id": 3227674468, "feat_type": "node", "quality_categories": "improper_keys, uncanny_keys", "issue_ids": "[5, 6]", "osm_url": "https://www.openstreetmap.org/node/3227674468", "josm_url": "http://127.0.0.1:8111/load_object?new_layer=false&objects=n3227674468", "id_url": "https://www.openstreetmap.org/edit?editor=id&node=3227674468#map=20/-12.1431721/-76.9852124"}}, {"type": "Feature", "geometry": {"type": "Point", "coordinates": [-76.9850848, -12.1431902]}, "properties": {"id": 3227674469, "feat_type": "node", "quality_categories": "improper_keys, uncanny_keys", "issue_ids": "[5, 6]", "osm_url": "https://www.openstreetmap.org/node/3227674469", "josm_url": "http://127.0.0.1:8111/load_object?new_layer=false&objects=n3227674469", "id_url": "https://www.openstreetmap.org/edit?editor=id&node=3227674469#map=20/-12.1431902/-76.9850848"}}, {"type": "Feature", "geometry": {"type": "Point", "coordinates": [-76.9852921, -12.1432273]}, "properties": {"id": 3227674470, "feat_type": "node", "quality_categories": "improper_keys, uncanny_keys", "issue_ids": "[5, 6]", "osm_url": "https://www.openstreetmap.org/node/3227674470", "josm_url": "http://127.0.0.1:8111/load_object?new_layer=false&objects=n3227674470", "id_url": "https://www.openstreetmap.org/edit?editor=id&node=3227674470#map=20/-12.1432273/-76.9852921"}}, {"type": "Feature", "geometry": {"type": "Point", "coordinates": [-76.9850242, -12.1432692]}, "properties": {"id": 3227674471, "feat_type": "node", "quality_categories": "improper_keys, uncanny_keys", "issue_ids": "[5, 6]", "osm_url": "https://www.openstreetmap.org/node/3227674471", "josm_url": "http://127.0.0.1:8111/load_object?new_layer=false&objects=n3227674471", "id_url": "https://www.openstreetmap.org/edit?editor=id&node=3227674471#map=20/-12.1432692/-76.9850242"}}, {"type": "Feature", "geometry": {"type": "Point", "coordinates": [-76.985049, -12.1433714]}, "properties": {"id": 3227674473, "feat_type": "node", "quality_categories": "improper_keys, uncanny_keys", "issue_ids": "[5, 6]", "osm_url": "https://www.openstreetmap.org/node/3227674473", "josm_url": "http://127.0.0.1:8111/load_object?new_layer=false&objects=n3227674473", "id_url": "https://www.openstreetmap.org/edit?editor=id&node=3227674473#map=20/-12.1433714/-76.985049"}}, {"type": "Feature", "geometry": {"type": "Point", "coordinates": [-76.9851311, -12.143475]}, "properties": {"id": 3227674474, "feat_type": "node", "quality_categories": "improper_keys, uncanny_keys", "issue_ids": "[5, 6]", "osm_url": "https://www.openstreetmap.org/node/3227674474", "josm_url": "http://127.0.0.1:8111/load_object?new_layer=false&objects=n3227674474", "id_url": "https://www.openstreetmap.org/edit?editor=id&node=3227674474#map=20/-12.143475/-76.9851311"}}, {"type": "Feature", "geometry": {"type": "Point", "coordinates": [-77.0369889, -12.1138714]}, "properties": {"id": 3245705894, "feat_type": "node", "quality_categories": "improper_keys, kerb_on_top_of_non_crossing", "issue_ids": "[2, 4]", "osm_url": "https://www.openstreetmap.org/node/3245705894", "josm_url": "http://127.0.0.1:8111/load_object?new_layer=false&objects=n3245705894", "id_url": "https://www.openstreetmap.org/edit?editor=id&node=3245705894#map=20/-12.1138714/-77.0369889"}}, {"type": "Feature", "geometry": {"type": "Point", "coordinates": [-77.0368475, -12.1138794]}, "properties": {"id": 3245705895, "feat_type": "node", "quality_categories": "improper_keys, kerb_on_top_of_non_crossing", "issue_ids": "[2, 4]", "osm_url": "https://www.openstreetmap.org/node/3245705895", "josm_url": "http://127.0.0.1:8111/load_object?new_layer=false&objects=n3245705895", "id_url": "https://www.openstreetmap.org/edit?editor=id&node=3245705895#map=20/-12.1138794/-77.0368475"}}, {"type": "Feature", "geometry": {"type": "Point", "coordinates": [-77.0369914, -12.1141317]}, "properties": {"id": 3245705899, "feat_type": "node", "quality_categories": "improper_keys, kerb_on_top_of_non_crossing", "issue_ids": "[2, 4]", "osm_url": "https://www.openstreetmap.org/node/3245705899", "josm_url": "http://127.0.0.1:8111/load_object?new_layer=false&objects=n3245705899", "id_url": "https://www.openstreetmap.org/edit?editor=id&node=3245705899#map=20/-12.1141317/-77.0369914"}}, {"type": "Feature", "geometry": {"type": "Point", "coordinates": [-77.036845, -12.1141263]}, "properties": {"id": 3245705900, "feat_type": "node", "quality_categories": "improper_keys, kerb_on_top_of_non_crossing", "issue_ids": "[2, 4]", "osm_url": "https://www.openstreetmap.org/node/3245705900", "josm_url": "http://127.0.0.1:8111/load_object?new_layer=false&objects=n3245705900", "id_url": "https://www.openstreetmap.org/edit?editor=id&node=3245705900#map=20/-12.1141263/-77.036845"}}, {"type": "Feature", "geometry": {"type": "Point", "coordinates": [-77.0359805, -12.1212093]}, "properties": {"id": 3245705941, "feat_type": "node", "quality_categories": "improper_keys, kerb_on_top_of_non_crossing", "issue_ids": "[7, 4]", "osm_url": "https://www.openstreetmap.org/node/3245705941", "josm_url": "http://127.0.0.1:8111/load_object?new_layer=false&objects=n3245705941", "id_url": "https://www.openstreetmap.org/edit?editor=id&node=3245705941#map=20/-12.1212093/-77.0359805"}}, {"type": "Feature", "geometry": {"type": "Point", "coordinates": [-77.0318934, -12.1228461]}, "properties": {"id": 3245705948, "feat_type": "node", "quality_categories": "improper_keys, kerb_on_top_of_non_crossing", "issue_ids": "[2, 4]", "osm_url": "https://www.openstreetmap.org/node/3245705948", "josm_url": "http://127.0.0.1:8111/load_object?new_layer=false&objects=n3245705948", "id_url": "https://www.openstreetmap.org/edit?editor=id&node=3245705948#map=20/-12.1228461/-77.0318934"}}, {"type": "Feature", "geometry": {"type": "Point", "coordinates": [-77.0293043, -12.1244909]}, "properties": {"id": 3245705959, "feat_type": "node", "quality_categories": "disjointed_geometries, improper_keys", "issue_ids": "[5, 1]", "osm_url": "https://www.openstreetmap.org/node/3245705959", "josm_url": "http://127.0.0.1:8111/load_object?new_layer=false&objects=n3245705959", "id_url": "https://www.openstreetmap.org/edit?editor=id&node=3245705959#map=20/-12.1244909/-77.0293043"}}, {"type": "Feature", "geometry": {"type": "Point", "coordinates": [-77.0293103, -12.1245656]}, "properties": {"id": 3245705961, "feat_type": "node", "quality_categories": "disjointed_geometries, improper_keys", "issue_ids": "[5, 1]", "osm_url": "https://www.openstreetmap.org/node/3245705961", "josm_url": "http://127.0.0.1:8111/load_object?new_layer=false&objects=n3245705961", "id_url": "https://www.openstreetmap.org/edit?editor=id&node=3245705961#map=20/-12.1245656/-77.0293103"}}, {"type": "Feature", "geometry": {"type": "Point", "coordinates": [-77.0279197, -12.1246358]}, "properties": {"id": 3245705963, "feat_type": "node", "quality_categories": "improper_keys, kerb_on_top_of_non_crossing", "issue_ids": "[2, 4]", "osm_url": "https://www.openstreetmap.org/node/3245705963", "josm_url": "http://127.0.0.1:8111/load_object?new_layer=false&objects=n3245705963", "id_url": "https://www.openstreetmap.org/edit?editor=id&node=3245705963#map=20/-12.1246358/-77.0279197"}}, {"type": "Feature", "geometry": {"type": "Point", "coordinates": [-77.0279322, -12.1248503]}, "properties": {"id": 3245705973, "feat_type": "node", "quality_categories": "improper_keys, kerb_on_top_of_non_crossing, uncanny_keys", "issue_ids": "[5, 6, 4]", "osm_url": "https://www.openstreetmap.org/node/3245705973", "josm_url": "http://127.0.0.1:8111/load_object?new_layer=false&objects=n3245705973", "id_url": "https://www.openstreetmap.org/edit?editor=id&node=3245705973#map=20/-12.1248503/-77.0279322"}}, {"type": "Feature", "geometry": {"type": "Point", "coordinates": [-77.0252232, -12.1220151]}, "properties": {"id": 3952810640, "feat_type": "node", "quality_categories": "disjointed_geometries, improper_keys", "issue_ids": "[0, 1]", "osm_url": "https://www.openstreetmap.org/node/3952810640", "josm_url": "http://127.0.0.1:8111/load_object?new_layer=false&objects=n3952810640", "id_url": "https://www.openstreetmap.org/edit?editor=id&node=3952810640#map=20/-12.1220151/-77.0252232"}}, {"type": "Feature", "geometry": {"type": "Point", "coordinates": [-77.0251896, -12.1221503]}, "properties": {"id": 3952810641, "feat_type": "node", "quality_categories": "disjointed_geometries, improper_keys", "issue_ids": "[0, 1]", "osm_url": "https://www.openstreetmap.org/node/3952810641", "josm_url": "http://127.0.0.1:8111/load_object?new_layer=false&objects=n3952810641", "id_url": "https://www.openstreetmap.org/edit?editor=id&node=3952810641#map=20/-12.1221503/-77.0251896"}}, {"type": "Feature", "geometry": {"type": "Point", "coordinates": [-77.0225654, -12.1362986]}, "properties": {"id": 3952827981, "feat_type": "node", "quality_categories": "improper_keys, kerb_on_top_of_non_crossing", "issue_ids": "[0, 4]", "osm_url": "https://www.openstreetmap.org/node/3952827981", "josm_url": "http://127.0.0.1:8111/load_object?new_layer=false&objects=n3952827981", "id_url": "https://www.openstreetmap.org/edit?editor=id&node=3952827981#map=20/-12.1362986/-77.0225654"}}, {"type": "Feature", "geometry": {"type": "Point", "coordinates": [-77.0223675, -12.1378363]}, "properties": {"id": 3952827986, "feat_type": "node", "quality_categories": "improper_keys, kerb_on_top_of_non_crossing", "issue_ids": "[0, 4]", "osm_url": "https://www.openstreetmap.org/node/3952827986", "josm_url": "http://127.0.0.1:8111/load_object?new_layer=false&objects=n3952827986", "id_url": "https://www.openstreetmap.org/edit?editor=id&node=3952827986#map=20/-12.1378363/-77.0223675"}}, {"type": "Feature", "geometry": {"type": "Point", "coordinates": [-77.0222671, -12.1386317]}, "properties": {"id": 3952828763, "feat_type": "node", "quality_categories": "improper_keys, kerb_on_top_of_non_crossing", "issue_ids": "[0, 4]", "osm_url": "https://www.openstreetmap.org/node/3952828763", "josm_url": "http://127.0.0.1:8111/load_object?new_layer=false&objects=n3952828763", "id_url": "https://www.openstreetmap.org/edit?editor=id&node=3952828763#map=20/-12.1386317/-77.0222671"}}, {"type": "Feature", "geometry": {"type": "Point", "coordinates": [-76.9792717, -12.1331788]}, "properties": {"id": 3952991347, "feat_type": "node", "quality_categories": "disjointed_geometries, improper_keys", "issue_ids": "[0, 1]", "osm_url": "https://www.openstreetmap.org/node/3952991347", "josm_url": "http://127.0.0.1:8111/load_object?new_layer=false&objects=n3952991347", "id_url": "https://www.openstreetmap.org/edit?editor=id&node=3952991347#map=20/-12.1331788/-76.9792717"}}, {"type": "Feature", "geometry": {"type": "Point", "coordinates": [-77.0329643, -12.0954413]}, "properties": {"id": 4033899334, "feat_type": "node", "quality_categories": "disjointed_geometries, improper_keys", "issue_ids": "[0, 1]", "osm_url": "https://www.openstreetmap.org/node/4033899334", "josm_url": "http://127.0.0.1:8111/load_object?new_layer=false&objects=n4033899334", "id_url": "https://www.openstreetmap.org/edit?editor=id&node=4033899334#map=20/-12.0954413/-77.0329643"}}, {"type": "Feature", "geometry": {"type": "Point", "coordinates": [-77.0314654, -12.0913066]}, "properties": {"id": 4039124523, "feat_type": "node", "quality_categories": "disjointed_geometries, improper_keys", "issue_ids": "[0, 1]", "osm_url": "https://www.openstreetmap.org/node/4039124523", "josm_url": "http://127.0.0.1:8111/load_object?new_layer=false&objects=n4039124523", "id_url": "https://www.openstreetmap.org/edit?editor=id&node=4039124523#map=20/-12.0913066/-77.0314654"}}, {"type": "Feature", "geometry": {"type": "Point", "coordinates": [-77.0322553, -12.0919512]}, "properties": {"id": 4039124552, "feat_type": "node", "quality_categories": "improper_keys, kerb_on_top_of_non_crossing", "issue_ids": "[0, 4]", "osm_url": "https://www.openstreetmap.org/node/4039124552", "josm_url": "http://127.0.0.1:8111/load_object?new_layer=false&objects=n4039124552", "id_url": "https://www.openstreetmap.org/edit?editor=id&node=4039124552#map=20/-12.0919512/-77.0322553"}}, {"type": "Feature", "geometry": {"type": "Point", "coordinates": [-77.035327, -12.0923824]}, "properties": {"id": 4039124595, "feat_type": "node", "quality_categories": "improper_keys, kerb_on_top_of_non_crossing", "issue_ids": "[0, 4]", "osm_url": "https://www.openstreetmap.org/node/4039124595", "josm_url": "http://127.0.0.1:8111/load_object?new_layer=false&objects=n4039124595", "id_url": "https://www.openstreetmap.org/edit?editor=id&node=4039124595#map=20/-12.0923824/-77.035327"}}, {"type": "Feature", "geometry": {"type": "Point", "coordinates": [-77.0361426, -12.0924359]}, "properties": {"id": 4039124596, "feat_type": "node", "quality_categories": "improper_keys, kerb_on_top_of_non_crossing", "issue_ids": "[0, 4]", "osm_url": "https://www.openstreetmap.org/node/4039124596", "josm_url": "http://127.0.0.1:8111/load_object?new_layer=false&objects=n4039124596", "id_url": "https://www.openstreetmap.org/edit?editor=id&node=4039124596#map=20/-12.0924359/-77.0361426"}}, {"type": "Feature", "geometry": {"type": "Point", "coordinates": [-77.0365955, -12.0946902]}, "properties": {"id": 4039124621, "feat_type": "node", "quality_categories": "disjointed_geometries, improper_keys", "issue_ids": "[0, 1]", "osm_url": "https://www.openstreetmap.org/node/4039124621", "josm_url": "http://127.0.0.1:8111/load_object?new_layer=false&objects=n4039124621", "id_url": "https://www.openstreetmap.org/edit?editor=id&node=4039124621#map=20/-12.0946902/-77.0365955"}}, {"type": "Feature", "geometry": {"type": "Point", "coordinates": [-77.0322047, -12.0922923]}, "properties": {"id": 4039142376, "feat_type": "node", "quality_categories": "improper_keys, kerb_on_top_of_non_crossing", "issue_ids": "[0, 4]", "osm_url": "https://www.openstreetmap.org/node/4039142376", "josm_url": "http://127.0.0.1:8111/load_object?new_layer=false&objects=n4039142376", "id_url": "https://www.openstreetmap.org/edit?editor=id&node=4039142376#map=20/-12.0922923/-77.0322047"}}, {"type": "Feature", "geometry": {"type": "Point", "coordinates": [-77.0307031, -12.0893735]}, "properties": {"id": 4039145250, "feat_type": "node", "quality_categories": "disjointed_geometries, improper_keys", "issue_ids": "[0, 1]", "osm_url": "https://www.openstreetmap.org/node/4039145250", "josm_url": "http://127.0.0.1:8111/load_object?new_layer=false&objects=n4039145250", "id_url": "https://www.openstreetmap.org/edit?editor=id&node=4039145250#map=20/-12.0893735/-77.0307031"}}, {"type": "Feature", "geometry": {"type": "Point", "coordinates": [-77.0306443, -12.0893024]}, "properties": {"id": 4039145251, "feat_type": "node", "quality_categories": "disjointed_geometries, improper_keys", "issue_ids": "[0, 1]", "osm_url": "https://www.openstreetmap.org/node/4039145251", "josm_url": "http://127.0.0.1:8111/load_object?new_layer=false&objects=n4039145251", "id_url": "https://www.openstreetmap.org/edit?editor=id&node=4039145251#map=20/-12.0893024/-77.0306443"}}, {"type": "Feature", "geometry": {"type": "Point", "coordinates": [-77.0305928, -12.089362]}, "properties": {"id": 4039145252, "feat_type": "node", "quality_categories": "disjointed_geometries, improper_keys", "issue_ids": "[0, 1]", "osm_url": "https://www.openstreetmap.org/node/4039145252", "josm_url": "http://127.0.0.1:8111/load_object?new_layer=false&objects=n4039145252", "id_url": "https://www.openstreetmap.org/edit?editor=id&node=4039145252#map=20/-12.089362/-77.0305928"}}, {"type": "Feature", "geometry": {"type": "Point", "coordinates": [-77.0306291, -12.089409]}, "properties": {"id": 4039145253, "feat_type": "node", "quality_categories": "disjointed_geometries, improper_keys", "issue_ids": "[0, 1]", "osm_url": "https://www.openstreetmap.org/node/4039145253", "josm_url": "http://127.0.0.1:8111/load_object?new_layer=false&objects=n4039145253", "id_url": "https://www.openstreetmap.org/edit?editor=id&node=4039145253#map=20/-12.089409/-77.0306291"}}, {"type": "Feature", "geometry": {"type": "Point", "coordinates": [-77.0316207, -12.0902669]}, "properties": {"id": 4039158700, "feat_type": "node", "quality_categories": "disjointed_geometries, improper_keys", "issue_ids": "[0, 1]", "osm_url": "https://www.openstreetmap.org/node/4039158700", "josm_url": "http://127.0.0.1:8111/load_object?new_layer=false&objects=n4039158700", "id_url": "https://www.openstreetmap.org/edit?editor=id&node=4039158700#map=20/-12.0902669/-77.0316207"}}, {"type": "Feature", "geometry": {"type": "Point", "coordinates": [-77.0327189, -12.0888763]}, "properties": {"id": 4039158739, "feat_type": "node", "quality_categories": "disjointed_geometries, improper_keys", "issue_ids": "[0, 1]", "osm_url": "https://www.openstreetmap.org/node/4039158739", "josm_url": "http://127.0.0.1:8111/load_object?new_layer=false&objects=n4039158739", "id_url": "https://www.openstreetmap.org/edit?editor=id&node=4039158739#map=20/-12.0888763/-77.0327189"}}, {"type": "Feature", "geometry": {"type": "Point", "coordinates": [-77.0328602, -12.0877882]}, "properties": {"id": 4039158740, "feat_type": "node", "quality_categories": "disjointed_geometries, improper_keys", "issue_ids": "[0, 1]", "osm_url": "https://www.openstreetmap.org/node/4039158740", "josm_url": "http://127.0.0.1:8111/load_object?new_layer=false&objects=n4039158740", "id_url": "https://www.openstreetmap.org/edit?editor=id&node=4039158740#map=20/-12.0877882/-77.0328602"}}, {"type": "Feature", "geometry": {"type": "Point", "coordinates": [-77.031842, -12.0887427]}, "properties": {"id": 4039178241, "feat_type": "node", "quality_categories": "disjointed_geometries, improper_keys", "issue_ids": "[0, 1]", "osm_url": "https://www.openstreetmap.org/node/4039178241", "josm_url": "http://127.0.0.1:8111/load_object?new_layer=false&objects=n4039178241", "id_url": "https://www.openstreetmap.org/edit?editor=id&node=4039178241#map=20/-12.0887427/-77.031842"}}, {"type": "Feature", "geometry": {"type": "Point", "coordinates": [-77.0318177, -12.0889102]}, "properties": {"id": 4039178242, "feat_type": "node", "quality_categories": "disjointed_geometries, improper_keys", "issue_ids": "[0, 1]", "osm_url": "https://www.openstreetmap.org/node/4039178242", "josm_url": "http://127.0.0.1:8111/load_object?new_layer=false&objects=n4039178242", "id_url": "https://www.openstreetmap.org/edit?editor=id&node=4039178242#map=20/-12.0889102/-77.0318177"}}, {"type": "Feature", "geometry": {"type": "Point", "coordinates": [-77.0291914, -12.1230328]}, "properties": {"id": 4069200592, "feat_type": "node", "quality_categories": "disjointed_geometries, improper_keys", "issue_ids": "[0, 1]", "osm_url": "https://www.openstreetmap.org/node/4069200592", "josm_url": "http://127.0.0.1:8111/load_object?new_layer=false&objects=n4069200592", "id_url": "https://www.openstreetmap.org/edit?editor=id&node=4069200592#map=20/-12.1230328/-77.0291914"}}, {"type": "Feature", "geometry": {"type": "Point", "coordinates": [-77.0290805, -12.1229562]}, "properties": {"id": 4081359628, "feat_type": "node", "quality_categories": "disjointed_geometries, improper_keys", "issue_ids": "[0, 1]", "osm_url": "https://www.openstreetmap.org/node/4081359628", "josm_url": "http://127.0.0.1:8111/load_object?new_layer=false&objects=n4081359628", "id_url": "https://www.openstreetmap.org/edit?editor=id&node=4081359628#map=20/-12.1229562/-77.0290805"}}, {"type": "Feature", "geometry": {"type": "Point", "coordinates": [-77.0303241, -12.118933]}, "properties": {"id": 4081606553, "feat_type": "node", "quality_categories": "improper_keys, kerb_on_top_of_non_crossing", "issue_ids": "[0, 4]", "osm_url": "https://www.openstreetmap.org/node/4081606553", "josm_url": "http://127.0.0.1:8111/load_object?new_layer=false&objects=n4081606553", "id_url": "https://www.openstreetmap.org/edit?editor=id&node=4081606553#map=20/-12.118933/-77.0303241"}}, {"type": "Feature", "geometry": {"type": "Point", "coordinates": [-76.9694329, -12.1079312]}, "properties": {"id": 4117258321, "feat_type": "node", "quality_categories": "improper_keys, kerb_on_top_of_non_crossing, older_than_five_years", "issue_ids": "[0, 8, 4]", "osm_url": "https://www.openstreetmap.org/node/4117258321", "josm_url": "http://127.0.0.1:8111/load_object?new_layer=false&objects=n4117258321", "id_url": "https://www.openstreetmap.org/edit?editor=id&node=4117258321#map=20/-12.1079312/-76.9694329"}}, {"type": "Feature", "geometry": {"type": "Point", "coordinates": [-76.9693595, -12.1080348]}, "properties": {"id": 4117258322, "feat_type": "node", "quality_categories": "improper_keys, kerb_on_top_of_non_crossing, older_than_five_years", "issue_ids": "[0, 9, 4]", "osm_url": "https://www.openstreetmap.org/node/4117258322", "josm_url": "http://127.0.0.1:8111/load_object?new_layer=false&objects=n4117258322", "id_url": "https://www.openstreetmap.org/edit?editor=id&node=4117258322#map=20/-12.1080348/-76.9693595"}}, {"type": "Feature", "geometry": {"type": "Point", "coordinates": [-76.9695847, -12.1080413]}, "properties": {"id": 4117258323, "feat_type": "node", "quality_categories": "improper_keys, kerb_on_top_of_non_crossing, older_than_five_years", "issue_ids": "[0, 9, 4]", "osm_url": "https://www.openstreetmap.org/node/4117258323", "josm_url": "http://127.0.0.1:8111/load_object?new_layer=false&objects=n4117258323", "id_url": "https://www.openstreetmap.org/edit?editor=id&node=4117258323#map=20/-12.1080413/-76.9695847"}}, {"type": "Feature", "geometry": {"type": "Point", "coordinates": [-76.969508, -12.1081425]}, "properties": {"id": 4117258324, "feat_type": "node", "quality_categories": "improper_keys, kerb_on_top_of_non_crossing, older_than_five_years", "issue_ids": "[0, 9, 4]", "osm_url": "https://www.openstreetmap.org/node/4117258324", "josm_url": "http://127.0.0.1:8111/load_object?new_layer=false&objects=n4117258324", "id_url": "https://www.openstreetmap.org/edit?editor=id&node=4117258324#map=20/-12.1081425/-76.969508"}}, {"type": "Feature", "geometry": {"type": "Point", "coordinates": [-77.0410014, -12.0509351]}, "properties": {"id": 4119534128, "feat_type": "node", "quality_categories": "disjointed_geometries, improper_keys", "issue_ids": "[0, 1]", "osm_url": "https://www.openstreetmap.org/node/4119534128", "josm_url": "http://127.0.0.1:8111/load_object?new_layer=false&objects=n4119534128", "id_url": "https://www.openstreetmap.org/edit?editor=id&node=4119534128#map=20/-12.0509351/-77.0410014"}}, {"type": "Feature", "geometry": {"type": "Point", "coordinates": [-77.0409276, -12.0508402]}, "properties": {"id": 4119534129, "feat_type": "node", "quality_categories": "disjointed_geometries, improper_keys", "issue_ids": "[0, 1]", "osm_url": "https://www.openstreetmap.org/node/4119534129", "josm_url": "http://127.0.0.1:8111/load_object?new_layer=false&objects=n4119534129", "id_url": "https://www.openstreetmap.org/edit?editor=id&node=4119534129#map=20/-12.0508402/-77.0409276"}}, {"type": "Feature", "geometry": {"type": "Point", "coordinates": [-77.0408494, -12.0509394]}, "properties": {"id": 4119534130, "feat_type": "node", "quality_categories": "disjointed_geometries, improper_keys", "issue_ids": "[0, 1]", "osm_url": "https://www.openstreetmap.org/node/4119534130", "josm_url": "http://127.0.0.1:8111/load_object?new_layer=false&objects=n4119534130", "id_url": "https://www.openstreetmap.org/edit?editor=id&node=4119534130#map=20/-12.0509394/-77.0408494"}}, {"type": "Feature", "geometry": {"type": "Point", "coordinates": [-77.0607939, -12.1008665]}, "properties": {"id": 4143633194, "feat_type": "node", "quality_categories": "improper_keys, kerb_on_top_of_non_crossing", "issue_ids": "[0, 4]", "osm_url": "https://www.openstreetmap.org/node/4143633194", "josm_url": "http://127.0.0.1:8111/load_object?new_layer=false&objects=n4143633194", "id_url": "https://www.openstreetmap.org/edit?editor=id&node=4143633194#map=20/-12.1008665/-77.0607939"}}, {"type": "Feature", "geometry": {"type": "Point", "coordinates": [-77.0339533, -12.08692]}, "properties": {"id": 4186479548, "feat_type": "node", "quality_categories": "improper_keys, kerb_on_top_of_non_crossing", "issue_ids": "[0, 4]", "osm_url": "https://www.openstreetmap.org/node/4186479548", "josm_url": "http://127.0.0.1:8111/load_object?new_layer=false&objects=n4186479548", "id_url": "https://www.openstreetmap.org/edit?editor=id&node=4186479548#map=20/-12.08692/-77.0339533"}}, {"type": "Feature", "geometry": {"type": "Point", "coordinates": [-77.0220564, -12.1422453]}, "properties": {"id": 4213310416, "feat_type": "node", "quality_categories": "disjointed_geometries, improper_keys", "issue_ids": "[0, 1]", "osm_url": "https://www.openstreetmap.org/node/4213310416", "josm_url": "http://127.0.0.1:8111/load_object?new_layer=false&objects=n4213310416", "id_url": "https://www.openstreetmap.org/edit?editor=id&node=4213310416#map=20/-12.1422453/-77.0220564"}}, {"type": "Feature", "geometry": {"type": "Point", "coordinates": [-77.0513002, -12.1101752]}, "properties": {"id": 4318884459, "feat_type": "node", "quality_categories": "improper_keys, kerb_on_top_of_non_crossing", "issue_ids": "[0, 4]", "osm_url": "https://www.openstreetmap.org/node/4318884459", "josm_url": "http://127.0.0.1:8111/load_object?new_layer=false&objects=n4318884459", "id_url": "https://www.openstreetmap.org/edit?editor=id&node=4318884459#map=20/-12.1101752/-77.0513002"}}, {"type": "Feature", "geometry": {"type": "Point", "coordinates": [-77.0410169, -12.0721822]}, "properties": {"id": 4325704994, "feat_type": "node", "quality_categories": "improper_keys, kerb_on_top_of_non_crossing", "issue_ids": "[0, 4]", "osm_url": "https://www.openstreetmap.org/node/4325704994", "josm_url": "http://127.0.0.1:8111/load_object?new_layer=false&objects=n4325704994", "id_url": "https://www.openstreetmap.org/edit?editor=id&node=4325704994#map=20/-12.0721822/-77.0410169"}}, {"type": "Feature", "geometry": {"type": "Point", "coordinates": [-77.0272025, -12.0913307]}, "properties": {"id": 4337425089, "feat_type": "node", "quality_categories": "disjointed_geometries, improper_keys", "issue_ids": "[2, 1]", "osm_url": "https://www.openstreetmap.org/node/4337425089", "josm_url": "http://127.0.0.1:8111/load_object?new_layer=false&objects=n4337425089", "id_url": "https://www.openstreetmap.org/edit?editor=id&node=4337425089#map=20/-12.0913307/-77.0272025"}}, {"type": "Feature", "geometry": {"type": "Point", "coordinates": [-77.0268689, -12.091285]}, "properties": {"id": 4337438759, "feat_type": "node", "quality_categories": "disjointed_geometries, improper_keys", "issue_ids": "[2, 1]", "osm_url": "https://www.openstreetmap.org/node/4337438759", "josm_url": "http://127.0.0.1:8111/load_object?new_layer=false&objects=n4337438759", "id_url": "https://www.openstreetmap.org/edit?editor=id&node=4337438759#map=20/-12.091285/-77.0268689"}}, {"type": "Feature", "geometry": {"type": "Point", "coordinates": [-76.9919222, -12.1112945]}, "properties": {"id": 4348865445, "feat_type": "node", "quality_categories": "improper_keys, kerb_on_top_of_non_crossing, older_than_five_years", "issue_ids": "[0, 10, 4]", "osm_url": "https://www.openstreetmap.org/node/4348865445", "josm_url": "http://127.0.0.1:8111/load_object?new_layer=false&objects=n4348865445", "id_url": "https://www.openstreetmap.org/edit?editor=id&node=4348865445#map=20/-12.1112945/-76.9919222"}}, {"type": "Feature", "geometry": {"type": "Point", "coordinates": [-77.0082024, -12.1927921]}, "properties": {"id": 4355003652, "feat_type": "node", "quality_categories": "improper_keys, kerb_on_top_of_non_crossing, older_than_five_years", "issue_ids": "[0, 11, 4]", "osm_url": "https://www.openstreetmap.org/node/4355003652", "josm_url": "http://127.0.0.1:8111/load_object?new_layer=false&objects=n4355003652", "id_url": "https://www.openstreetmap.org/edit?editor=id&node=4355003652#map=20/-12.1927921/-77.0082024"}}, {"type": "Feature", "geometry": {"type": "Point", "coordinates": [-77.0081356, -12.1928361]}, "properties": {"id": 4355003653, "feat_type": "node", "quality_categories": "improper_keys, kerb_on_top_of_non_crossing, older_than_five_years", "issue_ids": "[0, 11, 4]", "osm_url": "https://www.openstreetmap.org/node/4355003653", "josm_url": "http://127.0.0.1:8111/load_object?new_layer=false&objects=n4355003653", "id_url": "https://www.openstreetmap.org/edit?editor=id&node=4355003653#map=20/-12.1928361/-77.0081356"}}, {"type": "Feature", "geometry": {"type": "Point", "coordinates": [-77.0081187, -12.1926755]}, "properties": {"id": 4355003654, "feat_type": "node", "quality_categories": "improper_keys, kerb_on_top_of_non_crossing, older_than_five_years", "issue_ids": "[0, 11, 4]", "osm_url": "https://www.openstreetmap.org/node/4355003654", "josm_url": "http://127.0.0.1:8111/load_object?new_layer=false&objects=n4355003654", "id_url": "https://www.openstreetmap.org/edit?editor=id&node=4355003654#map=20/-12.1926755/-77.0081187"}}, {"type": "Feature", "geometry": {"type": "Point", "coordinates": [-77.0080527, -12.1927207]}, "properties": {"id": 4355003655, "feat_type": "node", "quality_categories": "improper_keys, kerb_on_top_of_non_crossing", "issue_ids": "[0, 4]", "osm_url": "https://www.openstreetmap.org/node/4355003655", "josm_url": "http://127.0.0.1:8111/load_object?new_layer=false&objects=n4355003655", "id_url": "https://www.openstreetmap.org/edit?editor=id&node=4355003655#map=20/-12.1927207/-77.0080527"}}, {"type": "Feature", "geometry": {"type": "Point", "coordinates": [-77.0080482, -12.1928143]}, "properties": {"id": 4355003656, "feat_type": "node", "quality_categories": "improper_keys, kerb_on_top_of_non_crossing, older_than_five_years", "issue_ids": "[0, 11, 4]", "osm_url": "https://www.openstreetmap.org/node/4355003656", "josm_url": "http://127.0.0.1:8111/load_object?new_layer=false&objects=n4355003656", "id_url": "https://www.openstreetmap.org/edit?editor=id&node=4355003656#map=20/-12.1928143/-77.0080482"}}, {"type": "Feature", "geometry": {"type": "Point", "coordinates": [-77.0097735, -12.1788423]}, "properties": {"id": 4362392709, "feat_type": "node", "quality_categories": "improper_keys, kerb_on_top_of_non_crossing", "issue_ids": "[0, 4]", "osm_url": "https://www.openstreetmap.org/node/4362392709", "josm_url": "http://127.0.0.1:8111/load_object?new_layer=false&objects=n4362392709", "id_url": "https://www.openstreetmap.org/edit?editor=id&node=4362392709#map=20/-12.1788423/-77.0097735"}}, {"type": "Feature", "geometry": {"type": "Point", "coordinates": [-77.0100474, -12.179076]}, "properties": {"id": 4362392710, "feat_type": "node", "quality_categories": "improper_keys, kerb_on_top_of_non_crossing", "issue_ids": "[0, 4]", "osm_url": "https://www.openstreetmap.org/node/4362392710", "josm_url": "http://127.0.0.1:8111/load_object?new_layer=false&objects=n4362392710", "id_url": "https://www.openstreetmap.org/edit?editor=id&node=4362392710#map=20/-12.179076/-77.0100474"}}, {"type": "Feature", "geometry": {"type": "Point", "coordinates": [-77.0095912, -12.1790535]}, "properties": {"id": 4362392711, "feat_type": "node", "quality_categories": "improper_keys, kerb_on_top_of_non_crossing", "issue_ids": "[0, 4]", "osm_url": "https://www.openstreetmap.org/node/4362392711", "josm_url": "http://127.0.0.1:8111/load_object?new_layer=false&objects=n4362392711", "id_url": "https://www.openstreetmap.org/edit?editor=id&node=4362392711#map=20/-12.1790535/-77.0095912"}}, {"type": "Feature", "geometry": {"type": "Point", "coordinates": [-77.009853, -12.1792917]}, "properties": {"id": 4362392712, "feat_type": "node", "quality_categories": "improper_keys, kerb_on_top_of_non_crossing", "issue_ids": "[0, 4]", "osm_url": "https://www.openstreetmap.org/node/4362392712", "josm_url": "http://127.0.0.1:8111/load_object?new_layer=false&objects=n4362392712", "id_url": "https://www.openstreetmap.org/edit?editor=id&node=4362392712#map=20/-12.1792917/-77.009853"}}, {"type": "Feature", "geometry": {"type": "Point", "coordinates": [-76.9853017, -12.1433269]}, "properties": {"id": 4363889776, "feat_type": "node", "quality_categories": "improper_keys, uncanny_keys", "issue_ids": "[5, 6]", "osm_url": "https://www.openstreetmap.org/node/4363889776", "josm_url": "http://127.0.0.1:8111/load_object?new_layer=false&objects=n4363889776", "id_url": "https://www.openstreetmap.org/edit?editor=id&node=4363889776#map=20/-12.1433269/-76.9853017"}}, {"type": "Feature", "geometry": {"type": "Point", "coordinates": [-76.9917624, -12.1112837]}, "properties": {"id": 4365362204, "feat_type": "node", "quality_categories": "improper_keys, kerb_on_top_of_non_crossing, older_than_five_years", "issue_ids": "[0, 10, 4]", "osm_url": "https://www.openstreetmap.org/node/4365362204", "josm_url": "http://127.0.0.1:8111/load_object?new_layer=false&objects=n4365362204", "id_url": "https://www.openstreetmap.org/edit?editor=id&node=4365362204#map=20/-12.1112837/-76.9917624"}}, {"type": "Feature", "geometry": {"type": "Point", "coordinates": [-76.9902379, -12.12388]}, "properties": {"id": 4365805804, "feat_type": "node", "quality_categories": "improper_keys, kerb_on_top_of_non_crossing, older_than_five_years", "issue_ids": "[0, 12, 4]", "osm_url": "https://www.openstreetmap.org/node/4365805804", "josm_url": "http://127.0.0.1:8111/load_object?new_layer=false&objects=n4365805804", "id_url": "https://www.openstreetmap.org/edit?editor=id&node=4365805804#map=20/-12.12388/-76.9902379"}}, {"type": "Feature", "geometry": {"type": "Point", "coordinates": [-76.9903439, -12.1238327]}, "properties": {"id": 4365805805, "feat_type": "node", "quality_categories": "improper_keys, kerb_on_top_of_non_crossing, older_than_five_years", "issue_ids": "[0, 12, 4]", "osm_url": "https://www.openstreetmap.org/node/4365805805", "josm_url": "http://127.0.0.1:8111/load_object?new_layer=false&objects=n4365805805", "id_url": "https://www.openstreetmap.org/edit?editor=id&node=4365805805#map=20/-12.1238327/-76.9903439"}}, {"type": "Feature", "geometry": {"type": "Point", "coordinates": [-76.9904808, -12.1241574]}, "properties": {"id": 4365805806, "feat_type": "node", "quality_categories": "improper_keys, kerb_on_top_of_non_crossing, older_than_five_years", "issue_ids": "[0, 8, 4]", "osm_url": "https://www.openstreetmap.org/node/4365805806", "josm_url": "http://127.0.0.1:8111/load_object?new_layer=false&objects=n4365805806", "id_url": "https://www.openstreetmap.org/edit?editor=id&node=4365805806#map=20/-12.1241574/-76.9904808"}}, {"type": "Feature", "geometry": {"type": "Point", "coordinates": [-76.9903756, -12.1242011]}, "properties": {"id": 4365805807, "feat_type": "node", "quality_categories": "improper_keys, kerb_on_top_of_non_crossing, older_than_five_years", "issue_ids": "[0, 12, 4]", "osm_url": "https://www.openstreetmap.org/node/4365805807", "josm_url": "http://127.0.0.1:8111/load_object?new_layer=false&objects=n4365805807", "id_url": "https://www.openstreetmap.org/edit?editor=id&node=4365805807#map=20/-12.1242011/-76.9903756"}}, {"type": "Feature", "geometry": {"type": "Point", "coordinates": [-76.9902972, -12.124183]}, "properties": {"id": 4365805808, "feat_type": "node", "quality_categories": "improper_keys, kerb_on_top_of_non_crossing, older_than_five_years", "issue_ids": "[0, 8, 4]", "osm_url": "https://www.openstreetmap.org/node/4365805808", "josm_url": "http://127.0.0.1:8111/load_object?new_layer=false&objects=n4365805808", "id_url": "https://www.openstreetmap.org/edit?editor=id&node=4365805808#map=20/-12.124183/-76.9902972"}}, {"type": "Feature", "geometry": {"type": "Point", "coordinates": [-76.9905066, -12.1240726]}, "properties": {"id": 4365805809, "feat_type": "node", "quality_categories": "improper_keys", "issue_ids": "[0]", "osm_url": "https://www.openstreetmap.org/node/4365805809", "josm_url": "http://127.0.0.1:8111/load_object?new_layer=false&objects=n4365805809", "id_url": "https://www.openstreetmap.org/edit?editor=id&node=4365805809#map=20/-12.1240726/-76.9905066"}}, {"type": "Feature", "geometry": {"type": "Point", "coordinates": [-77.0259448, -12.1251734]}, "properties": {"id": 4372751392, "feat_type": "node", "quality_categories": "disjointed_geometries, improper_keys", "issue_ids": "[2, 1]", "osm_url": "https://www.openstreetmap.org/node/4372751392", "josm_url": "http://127.0.0.1:8111/load_object?new_layer=false&objects=n4372751392", "id_url": "https://www.openstreetmap.org/edit?editor=id&node=4372751392#map=20/-12.1251734/-77.0259448"}}, {"type": "Feature", "geometry": {"type": "Point", "coordinates": [-77.0218275, -12.143632]}, "properties": {"id": 4551606262, "feat_type": "node", "quality_categories": "disjointed_geometries, improper_keys", "issue_ids": "[0, 1]", "osm_url": "https://www.openstreetmap.org/node/4551606262", "josm_url": "http://127.0.0.1:8111/load_object?new_layer=false&objects=n4551606262", "id_url": "https://www.openstreetmap.org/edit?editor=id&node=4551606262#map=20/-12.143632/-77.0218275"}}, {"type": "Feature", "geometry": {"type": "Point", "coordinates": [-77.0412547, -12.1179207]}, "properties": {"id": 4559275892, "feat_type": "node", "quality_categories": "disjointed_geometries, improper_keys", "issue_ids": "[0, 1]", "osm_url": "https://www.openstreetmap.org/node/4559275892", "josm_url": "http://127.0.0.1:8111/load_object?new_layer=false&objects=n4559275892", "id_url": "https://www.openstreetmap.org/edit?editor=id&node=4559275892#map=20/-12.1179207/-77.0412547"}}, {"type": "Feature", "geometry": {"type": "Point", "coordinates": [-77.0355624, -12.084884]}, "properties": {"id": 4560606185, "feat_type": "node", "quality_categories": "disjointed_geometries, improper_keys", "issue_ids": "[5, 1]", "osm_url": "https://www.openstreetmap.org/node/4560606185", "josm_url": "http://127.0.0.1:8111/load_object?new_layer=false&objects=n4560606185", "id_url": "https://www.openstreetmap.org/edit?editor=id&node=4560606185#map=20/-12.084884/-77.0355624"}}, {"type": "Feature", "geometry": {"type": "Point", "coordinates": [-77.0496131, -12.0636143]}, "properties": {"id": 5090905985, "feat_type": "node", "quality_categories": "disjointed_geometries, improper_keys", "issue_ids": "[0, 1]", "osm_url": "https://www.openstreetmap.org/node/5090905985", "josm_url": "http://127.0.0.1:8111/load_object?new_layer=false&objects=n5090905985", "id_url": "https://www.openstreetmap.org/edit?editor=id&node=5090905985#map=20/-12.0636143/-77.0496131"}}, {"type": "Feature", "geometry": {"type": "Point", "coordinates": [-77.0194816, -12.1416103]}, "properties": {"id": 5476399704, "feat_type": "node", "quality_categories": "disjointed_geometries, improper_keys", "issue_ids": "[0, 1]", "osm_url": "https://www.openstreetmap.org/node/5476399704", "josm_url": "http://127.0.0.1:8111/load_object?new_layer=false&objects=n5476399704", "id_url": "https://www.openstreetmap.org/edit?editor=id&node=5476399704#map=20/-12.1416103/-77.0194816"}}, {"type": "Feature", "geometry": {"type": "Point", "coordinates": [-77.0210774, -12.1412231]}, "properties": {"id": 5476399705, "feat_type": "node", "quality_categories": "disjointed_geometries, improper_keys", "issue_ids": "[0, 1]", "osm_url": "https://www.openstreetmap.org/node/5476399705", "josm_url": "http://127.0.0.1:8111/load_object?new_layer=false&objects=n5476399705", "id_url": "https://www.openstreetmap.org/edit?editor=id&node=5476399705#map=20/-12.1412231/-77.0210774"}}, {"type": "Feature", "geometry": {"type": "Point", "coordinates": [-77.0405767, -12.1136107]}, "properties": {"id": 5481200875, "feat_type": "node", "quality_categories": "disjointed_geometries, improper_keys", "issue_ids": "[0, 1]", "osm_url": "https://www.openstreetmap.org/node/5481200875", "josm_url": "http://127.0.0.1:8111/load_object?new_layer=false&objects=n5481200875", "id_url": "https://www.openstreetmap.org/edit?editor=id&node=5481200875#map=20/-12.1136107/-77.0405767"}}, {"type": "Feature", "geometry": {"type": "Point", "coordinates": [-77.0363308, -12.1233129]}, "properties": {"id": 5481210428, "feat_type": "node", "quality_categories": "improper_keys", "issue_ids": "[0]", "osm_url": "https://www.openstreetmap.org/node/5481210428", "josm_url": "http://127.0.0.1:8111/load_object?new_layer=false&objects=n5481210428", "id_url": "https://www.openstreetmap.org/edit?editor=id&node=5481210428#map=20/-12.1233129/-77.0363308"}}, {"type": "Feature", "geometry": {"type": "Point", "coordinates": [-76.9854453, -12.1511044]}, "properties": {"id": 5481350627, "feat_type": "node", "quality_categories": "disjointed_geometries, improper_keys", "issue_ids": "[0, 1]", "osm_url": "https://www.openstreetmap.org/node/5481350627", "josm_url": "http://127.0.0.1:8111/load_object?new_layer=false&objects=n5481350627", "id_url": "https://www.openstreetmap.org/edit?editor=id&node=5481350627#map=20/-12.1511044/-76.9854453"}}, {"type": "Feature", "geometry": {"type": "Point", "coordinates": [-76.985526, -12.1512671]}, "properties": {"id": 5481350628, "feat_type": "node", "quality_categories": "disjointed_geometries, improper_keys", "issue_ids": "[0, 1]", "osm_url": "https://www.openstreetmap.org/node/5481350628", "josm_url": "http://127.0.0.1:8111/load_object?new_layer=false&objects=n5481350628", "id_url": "https://www.openstreetmap.org/edit?editor=id&node=5481350628#map=20/-12.1512671/-76.985526"}}, {"type": "Feature", "geometry": {"type": "Point", "coordinates": [-77.0289282, -12.1124457]}, "properties": {"id": 5838333251, "feat_type": "node", "quality_categories": "disjointed_geometries, improper_keys", "issue_ids": "[0, 1]", "osm_url": "https://www.openstreetmap.org/node/5838333251", "josm_url": "http://127.0.0.1:8111/load_object?new_layer=false&objects=n5838333251", "id_url": "https://www.openstreetmap.org/edit?editor=id&node=5838333251#map=20/-12.1124457/-77.0289282"}}, {"type": "Feature", "geometry": {"type": "Point", "coordinates": [-77.0348699, -12.0939422]}, "properties": {"id": 5967655039, "feat_type": "node", "quality_categories": "disjointed_geometries, improper_keys", "issue_ids": "[0, 1]", "osm_url": "https://www.openstreetmap.org/node/5967655039", "josm_url": "http://127.0.0.1:8111/load_object?new_layer=false&objects=n5967655039", "id_url": "https://www.openstreetmap.org/edit?editor=id&node=5967655039#map=20/-12.0939422/-77.0348699"}}, {"type": "Feature", "geometry": {"type": "Point", "coordinates": [-77.0372454, -12.1247698]}, "properties": {"id": 5967806791, "feat_type": "node", "quality_categories": "improper_keys, kerb_on_top_of_non_crossing, older_than_five_years", "issue_ids": "[0, 13, 4]", "osm_url": "https://www.openstreetmap.org/node/5967806791", "josm_url": "http://127.0.0.1:8111/load_object?new_layer=false&objects=n5967806791", "id_url": "https://www.openstreetmap.org/edit?editor=id&node=5967806791#map=20/-12.1247698/-77.0372454"}}, {"type": "Feature", "geometry": {"type": "Point", "coordinates": [-77.0507622, -12.1110586]}, "properties": {"id": 5970435748, "feat_type": "node", "quality_categories": "disjointed_geometries, improper_keys", "issue_ids": "[0, 1]", "osm_url": "https://www.openstreetmap.org/node/5970435748", "josm_url": "http://127.0.0.1:8111/load_object?new_layer=false&objects=n5970435748", "id_url": "https://www.openstreetmap.org/edit?editor=id&node=5970435748#map=20/-12.1110586/-77.0507622"}}, {"type": "Feature", "geometry": {"type": "Point", "coordinates": [-77.0402856, -12.1226086]}, "properties": {"id": 5970572344, "feat_type": "node", "quality_categories": "disjointed_geometries, improper_keys", "issue_ids": "[0, 1]", "osm_url": "https://www.openstreetmap.org/node/5970572344", "josm_url": "http://127.0.0.1:8111/load_object?new_layer=false&objects=n5970572344", "id_url": "https://www.openstreetmap.org/edit?editor=id&node=5970572344#map=20/-12.1226086/-77.0402856"}}, {"type": "Feature", "geometry": {"type": "Point", "coordinates": [-77.0368723, -12.1249545]}, "properties": {"id": 5970612566, "feat_type": "node", "quality_categories": "improper_keys", "issue_ids": "[0]", "osm_url": "https://www.openstreetmap.org/node/5970612566", "josm_url": "http://127.0.0.1:8111/load_object?new_layer=false&objects=n5970612566", "id_url": "https://www.openstreetmap.org/edit?editor=id&node=5970612566#map=20/-12.1249545/-77.0368723"}}, {"type": "Feature", "geometry": {"type": "Point", "coordinates": [-77.0388831, -12.1202473]}, "properties": {"id": 5970641654, "feat_type": "node", "quality_categories": "disjointed_geometries, improper_keys", "issue_ids": "[0, 1]", "osm_url": "https://www.openstreetmap.org/node/5970641654", "josm_url": "http://127.0.0.1:8111/load_object?new_layer=false&objects=n5970641654", "id_url": "https://www.openstreetmap.org/edit?editor=id&node=5970641654#map=20/-12.1202473/-77.0388831"}}, {"type": "Feature", "geometry": {"type": "Point", "coordinates": [-77.0350138, -12.0940056]}, "properties": {"id": 6049666722, "feat_type": "node", "quality_categories": "disjointed_geometries, improper_keys", "issue_ids": "[0, 1]", "osm_url": "https://www.openstreetmap.org/node/6049666722", "josm_url": "http://127.0.0.1:8111/load_object?new_layer=false&objects=n6049666722", "id_url": "https://www.openstreetmap.org/edit?editor=id&node=6049666722#map=20/-12.0940056/-77.0350138"}}, {"type": "Feature", "geometry": {"type": "Point", "coordinates": [-77.0222088, -12.1478934]}, "properties": {"id": 6053460505, "feat_type": "node", "quality_categories": "improper_keys, kerb_on_top_of_non_crossing", "issue_ids": "[0, 4]", "osm_url": "https://www.openstreetmap.org/node/6053460505", "josm_url": "http://127.0.0.1:8111/load_object?new_layer=false&objects=n6053460505", "id_url": "https://www.openstreetmap.org/edit?editor=id&node=6053460505#map=20/-12.1478934/-77.0222088"}}, {"type": "Feature", "geometry": {"type": "Point", "coordinates": [-77.048073, -12.0963071]}, "properties": {"id": 6083555089, "feat_type": "node", "quality_categories": "improper_keys, kerb_on_top_of_non_crossing", "issue_ids": "[0, 4]", "osm_url": "https://www.openstreetmap.org/node/6083555089", "josm_url": "http://127.0.0.1:8111/load_object?new_layer=false&objects=n6083555089", "id_url": "https://www.openstreetmap.org/edit?editor=id&node=6083555089#map=20/-12.0963071/-77.048073"}}, {"type": "Feature", "geometry": {"type": "Point", "coordinates": [-77.0391386, -12.1199862]}, "properties": {"id": 6133702986, "feat_type": "node", "quality_categories": "disjointed_geometries, improper_keys", "issue_ids": "[7, 1]", "osm_url": "https://www.openstreetmap.org/node/6133702986", "josm_url": "http://127.0.0.1:8111/load_object?new_layer=false&objects=n6133702986", "id_url": "https://www.openstreetmap.org/edit?editor=id&node=6133702986#map=20/-12.1199862/-77.0391386"}}, {"type": "Feature", "geometry": {"type": "Point", "coordinates": [-77.0292452, -12.1106093]}, "properties": {"id": 6135879244, "feat_type": "node", "quality_categories": "disjointed_geometries, improper_keys", "issue_ids": "[2, 1]", "osm_url": "https://www.openstreetmap.org/node/6135879244", "josm_url": "http://127.0.0.1:8111/load_object?new_layer=false&objects=n6135879244", "id_url": "https://www.openstreetmap.org/edit?editor=id&node=6135879244#map=20/-12.1106093/-77.0292452"}}, {"type": "Feature", "geometry": {"type": "Point", "coordinates": [-77.0370961, -12.1140293]}, "properties": {"id": 6291208617, "feat_type": "node", "quality_categories": "improper_keys, kerb_on_top_of_non_crossing", "issue_ids": "[2, 4]", "osm_url": "https://www.openstreetmap.org/node/6291208617", "josm_url": "http://127.0.0.1:8111/load_object?new_layer=false&objects=n6291208617", "id_url": "https://www.openstreetmap.org/edit?editor=id&node=6291208617#map=20/-12.1140293/-77.0370961"}}, {"type": "Feature", "geometry": {"type": "Point", "coordinates": [-77.0304526, -12.0467612]}, "properties": {"id": 6338630976, "feat_type": "node", "quality_categories": "improper_keys", "issue_ids": "[2]", "osm_url": "https://www.openstreetmap.org/node/6338630976", "josm_url": "http://127.0.0.1:8111/load_object?new_layer=false&objects=n6338630976", "id_url": "https://www.openstreetmap.org/edit?editor=id&node=6338630976#map=20/-12.0467612/-77.0304526"}}, {"type": "Feature", "geometry": {"type": "Point", "coordinates": [-77.0563378, -12.0944214]}, "properties": {"id": 7070228188, "feat_type": "node", "quality_categories": "disjointed_geometries, improper_keys", "issue_ids": "[0, 1]", "osm_url": "https://www.openstreetmap.org/node/7070228188", "josm_url": "http://127.0.0.1:8111/load_object?new_layer=false&objects=n7070228188", "id_url": "https://www.openstreetmap.org/edit?editor=id&node=7070228188#map=20/-12.0944214/-77.0563378"}}, {"type": "Feature", "geometry": {"type": "Point", "coordinates": [-77.0561954, -12.0941449]}, "properties": {"id": 7070228189, "feat_type": "node", "quality_categories": "disjointed_geometries, improper_keys", "issue_ids": "[0, 1]", "osm_url": "https://www.openstreetmap.org/node/7070228189", "josm_url": "http://127.0.0.1:8111/load_object?new_layer=false&objects=n7070228189", "id_url": "https://www.openstreetmap.org/edit?editor=id&node=7070228189#map=20/-12.0941449/-77.0561954"}}, {"type": "Feature", "geometry": {"type": "Point", "coordinates": [-77.0571913, -12.0940245]}, "properties": {"id": 7070242787, "feat_type": "node", "quality_categories": "disjointed_geometries, improper_keys", "issue_ids": "[0, 1]", "osm_url": "https://www.openstreetmap.org/node/7070242787", "josm_url": "http://127.0.0.1:8111/load_object?new_layer=false&objects=n7070242787", "id_url": "https://www.openstreetmap.org/edit?editor=id&node=7070242787#map=20/-12.0940245/-77.0571913"}}, {"type": "Feature", "geometry": {"type": "Point", "coordinates": [-77.0570581, -12.093747]}, "properties": {"id": 7070242788, "feat_type": "node", "quality_categories": "disjointed_geometries, improper_keys", "issue_ids": "[0, 1]", "osm_url": "https://www.openstreetmap.org/node/7070242788", "josm_url": "http://127.0.0.1:8111/load_object?new_layer=false&objects=n7070242788", "id_url": "https://www.openstreetmap.org/edit?editor=id&node=7070242788#map=20/-12.093747/-77.0570581"}}, {"type": "Feature", "geometry": {"type": "Point", "coordinates": [-77.0698023, -12.0927095]}, "properties": {"id": 9215391467, "feat_type": "node", "quality_categories": "disjointed_geometries, improper_keys", "issue_ids": "[14, 1]", "osm_url": "https://www.openstreetmap.org/node/9215391467", "josm_url": "http://127.0.0.1:8111/load_object?new_layer=false&objects=n9215391467", "id_url": "https://www.openstreetmap.org/edit?editor=id&node=9215391467#map=20/-12.0927095/-77.0698023"}}, {"type": "Feature", "geometry": {"type": "Point", "coordinates": [-77.0004847, -12.0452415]}, "properties": {"id": 9275780901, "feat_type": "node", "quality_categories": "improper_keys, kerb_on_top_of_non_crossing", "issue_ids": "[2, 4]", "osm_url": "https://www.openstreetmap.org/node/9275780901", "josm_url": "http://127.0.0.1:8111/load_object?new_layer=false&objects=n9275780901", "id_url": "https://www.openstreetmap.org/edit?editor=id&node=9275780901#map=20/-12.0452415/-77.0004847"}}, {"type": "Feature", "geometry": {"type": "Point", "coordinates": [-76.6982797, -11.9393548]}, "properties": {"id": 9836930870, "feat_type": "node", "quality_categories": "disjointed_geometries, improper_keys", "issue_ids": "[2, 1]", "osm_url": "https://www.openstreetmap.org/node/9836930870", "josm_url": "http://127.0.0.1:8111/load_object?new_layer=false&objects=n9836930870", "id_url": "https://www.openstreetmap.org/edit?editor=id&node=9836930870#map=20/-11.9393548/-76.6982797"}}, {"type": "Feature", "geometry": {"type": "Point", "coordinates": [-76.6982714, -11.9394745]}, "properties": {"id": 9836930871, "feat_type": "node", "quality_categories": "disjointed_geometries, improper_keys", "issue_ids": "[2, 1]", "osm_url": "https://www.openstreetmap.org/node/9836930871", "josm_url": "http://127.0.0.1:8111/load_object?new_layer=false&objects=n9836930871", "id_url": "https://www.openstreetmap.org/edit?editor=id&node=9836930871#map=20/-11.9394745/-76.6982714"}}, {"type": "Feature", "geometry": {"type": "Point", "coordinates": [-76.6984047, -11.9395085]}, "properties": {"id": 9836930872, "feat_type": "node", "quality_categories": "disjointed_geometries, improper_keys", "issue_ids": "[2, 1]", "osm_url": "https://www.openstreetmap.org/node/9836930872", "josm_url": "http://127.0.0.1:8111/load_object?new_layer=false&objects=n9836930872", "id_url": "https://www.openstreetmap.org/edit?editor=id&node=9836930872#map=20/-11.9395085/-76.6984047"}}, {"type": "Feature", "geometry": {"type": "Point", "coordinates": [-77.0268525, -12.0914378]}, "properties": {"id": 10083048867, "feat_type": "node", "quality_categories": "disjointed_geometries, improper_keys", "issue_ids": "[2, 1]", "osm_url": "https://www.openstreetmap.org/node/10083048867", "josm_url": "http://127.0.0.1:8111/load_object?new_layer=false&objects=n10083048867", "id_url": "https://www.openstreetmap.org/edit?editor=id&node=10083048867#map=20/-12.0914378/-77.0268525"}}, {"type": "Feature", "geometry": {"type": "Point", "coordinates": [-77.0271896, -12.091486]}, "properties": {"id": 10083048868, "feat_type": "node", "quality_categories": "disjointed_geometries, improper_keys", "issue_ids": "[2, 1]", "osm_url": "https://www.openstreetmap.org/node/10083048868", "josm_url": "http://127.0.0.1:8111/load_object?new_layer=false&objects=n10083048868", "id_url": "https://www.openstreetmap.org/edit?editor=id&node=10083048868#map=20/-12.091486/-77.0271896"}}, {"type": "Feature", "geometry": {"type": "Point", "coordinates": [-77.0270161, -12.0915771]}, "properties": {"id": 10083048869, "feat_type": "node", "quality_categories": "disjointed_geometries, improper_keys", "issue_ids": "[2, 1]", "osm_url": "https://www.openstreetmap.org/node/10083048869", "josm_url": "http://127.0.0.1:8111/load_object?new_layer=false&objects=n10083048869", "id_url": "https://www.openstreetmap.org/edit?editor=id&node=10083048869#map=20/-12.0915771/-77.0270161"}}, {"type": "Feature", "geometry": {"type": "Point", "coordinates": [-77.0005401, -12.0448815]}, "properties": {"id": 10538277655, "feat_type": "node", "quality_categories": "disjointed_geometries, improper_keys", "issue_ids": "[7, 1]", "osm_url": "https://www.openstreetmap.org/node/10538277655", "josm_url": "http://127.0.0.1:8111/load_object?new_layer=false&objects=n10538277655", "id_url": "https://www.openstreetmap.org/edit?editor=id&node=10538277655#map=20/-12.0448815/-77.0005401"}}, {"type": "Feature", "geometry": {"type": "Point", "coordinates": [-77.0084562, -11.9901725]}, "properties": {"id": 10703110706, "feat_type": "node", "quality_categories": "improper_keys, kerb_on_top_of_non_crossing", "issue_ids": "[7, 4]", "osm_url": "https://www.openstreetmap.org/node/10703110706", "josm_url": "http://127.0.0.1:8111/load_object?new_layer=false&objects=n10703110706", "id_url": "https://www.openstreetmap.org/edit?editor=id&node=10703110706#map=20/-11.9901725/-77.0084562"}}, {"type": "Feature", "geometry": {"type": "Point", "coordinates": [-77.0299037, -12.1297463]}, "properties": {"id": 10783381742, "feat_type": "node", "quality_categories": "improper_keys, kerb_on_top_of_non_crossing, uncanny_keys", "issue_ids": "[5, 6, 4]", "osm_url": "https://www.openstreetmap.org/node/10783381742", "josm_url": "http://127.0.0.1:8111/load_object?new_layer=false&objects=n10783381742", "id_url": "https://www.openstreetmap.org/edit?editor=id&node=10783381742#map=20/-12.1297463/-77.0299037"}}, {"type": "Feature", "geometry": {"type": "Point", "coordinates": [-76.7118096, -11.9436962]}, "properties": {"id": 11029611005, "feat_type": "node", "quality_categories": "disjointed_geometries, improper_keys", "issue_ids": "[15, 1]", "osm_url": "https://www.openstreetmap.org/node/11029611005", "josm_url": "http://127.0.0.1:8111/load_object?new_layer=false&objects=n11029611005", "id_url": "https://www.openstreetmap.org/edit?editor=id&node=11029611005#map=20/-11.9436962/-76.7118096"}}, {"type": "Feature", "geometry": {"type": "Point", "coordinates": [-76.7120314, -11.9438023]}, "properties": {"id": 11029611019, "feat_type": "node", "quality_categories": "disjointed_geometries, improper_keys", "issue_ids": "[15, 1]", "osm_url": "https://www.openstreetmap.org/node/11029611019", "josm_url": "http://127.0.0.1:8111/load_object?new_layer=false&objects=n11029611019", "id_url": "https://www.openstreetmap.org/edit?editor=id&node=11029611019#map=20/-11.9438023/-76.7120314"}}, {"type": "Feature", "geometry": {"type": "Point", "coordinates": [-77.0591274, -12.008677]}, "properties": {"id": 11054252705, "feat_type": "node", "quality_categories": "improper_keys, kerb_on_top_of_non_crossing", "issue_ids": "[2, 4]", "osm_url": "https://www.openstreetmap.org/node/11054252705", "josm_url": "http://127.0.0.1:8111/load_object?new_layer=false&objects=n11054252705", "id_url": "https://www.openstreetmap.org/edit?editor=id&node=11054252705#map=20/-12.008677/-77.0591274"}}, {"type": "Feature", "geometry": {"type": "Point", "coordinates": [-77.05937, -12.0090025]}, "properties": {"id": 11054252706, "feat_type": "node", "quality_categories": "improper_keys, kerb_on_top_of_non_crossing", "issue_ids": "[2, 4]", "osm_url": "https://www.openstreetmap.org/node/11054252706", "josm_url": "http://127.0.0.1:8111/load_object?new_layer=false&objects=n11054252706", "id_url": "https://www.openstreetmap.org/edit?editor=id&node=11054252706#map=20/-12.0090025/-77.05937"}}, {"type": "Feature", "geometry": {"type": "Point", "coordinates": [-77.0590534, -12.0920315]}, "properties": {"id": 11250618870, "feat_type": "node", "quality_categories": "improper_keys, kerb_on_top_of_non_crossing", "issue_ids": "[2, 4]", "osm_url": "https://www.openstreetmap.org/node/11250618870", "josm_url": "http://127.0.0.1:8111/load_object?new_layer=false&objects=n11250618870", "id_url": "https://www.openstreetmap.org/edit?editor=id&node=11250618870#map=20/-12.0920315/-77.0590534"}}, {"type": "Feature", "geometry": {"type": "Point", "coordinates": [-76.9852583, -12.1434549]}, "properties": {"id": 12408809403, "feat_type": "node", "quality_categories": "improper_keys, uncanny_keys", "issue_ids": "[5, 6]", "osm_url": "https://www.openstreetmap.org/node/12408809403", "josm_url": "http://127.0.0.1:8111/load_object?new_layer=false&objects=n12408809403", "id_url": "https://www.openstreetmap.org/edit?editor=id&node=12408809403#map=20/-12.1434549/-76.9852583"}}, {"type": "Feature", "geometry": {"type": "Point", "coordinates": [-76.9525769, -12.0929496]}, "properties": {"id": 12410925705, "feat_type": "node", "quality_categories": "improper_keys, kerb_on_top_of_non_crossing", "issue_ids": "[15, 4]", "osm_url": "https://www.openstreetmap.org/node/12410925705", "josm_url": "http://127.0.0.1:8111/load_object?new_layer=false&objects=n12410925705", "id_url": "https://www.openstreetmap.org/edit?editor=id&node=12410925705#map=20/-12.0929496/-76.9525769"}}, {"type": "Feature", "geometry": {"type": "Point", "coordinates": [-77.070636, -12.0958135]}, "properties": {"id": 12591591715, "feat_type": "node", "quality_categories": "improper_keys, kerb_on_top_of_non_crossing", "issue_ids": "[2, 4]", "osm_url": "https://www.openstreetmap.org/node/12591591715", "josm_url": "http://127.0.0.1:8111/load_object?new_layer=false&objects=n12591591715", "id_url": "https://www.openstreetmap.org/edit?editor=id&node=12591591715#map=20/-12.0958135/-77.070636"}}, {"type": "Feature", "geometry": {"type": "Point", "coordinates": [-77.0709869, -12.0956834]}, "properties": {"id": 12591591716, "feat_type": "node", "quality_categories": "improper_keys, kerb_on_top_of_non_crossing", "issue_ids": "[2, 4]", "osm_url": "https://www.openstreetmap.org/node/12591591716", "josm_url": "http://127.0.0.1:8111/load_object?new_layer=false&objects=n12591591716", "id_url": "https://www.openstreetmap.org/edit?editor=id&node=12591591716#map=20/-12.0956834/-77.0709869"}}, {"type": "Feature", "geometry": {"type": "Point", "coordinates": [-77.0684627, -12.093185]}, "properties": {"id": 12591591717, "feat_type": "node", "quality_categories": "improper_keys, kerb_on_top_of_non_crossing", "issue_ids": "[2, 4]", "osm_url": "https://www.openstreetmap.org/node/12591591717", "josm_url": "http://127.0.0.1:8111/load_object?new_layer=false&objects=n12591591717", "id_url": "https://www.openstreetmap.org/edit?editor=id&node=12591591717#map=20/-12.093185/-77.0684627"}}, {"type": "Feature", "geometry": {"type": "Point", "coordinates": [-77.0688199, -12.0930638]}, "properties": {"id": 12591591718, "feat_type": "node", "quality_categories": "improper_keys, kerb_on_top_of_non_crossing", "issue_ids": "[2, 4]", "osm_url": "https://www.openstreetmap.org/node/12591591718", "josm_url": "http://127.0.0.1:8111/load_object?new_layer=false&objects=n12591591718", "id_url": "https://www.openstreetmap.org/edit?editor=id&node=12591591718#map=20/-12.0930638/-77.0688199"}}, {"type": "Feature", "geometry": {"type": "Point", "coordinates": [-77.0016925, -11.9668603]}, "properties": {"id": 12643422840, "feat_type": "node", "quality_categories": "improper_keys, kerb_on_top_of_non_crossing, wrong_mispelled_or_unlisted_values", "issue_ids": "[5, 16, 4]", "osm_url": "https://www.openstreetmap.org/node/12643422840", "josm_url": "http://127.0.0.1:8111/load_object?new_layer=false&objects=n12643422840", "id_url": "https://www.openstreetmap.org/edit?editor=id&node=12643422840#map=20/-11.9668603/-77.0016925"}}, {"type": "Feature", "geometry": {"type": "Point", "coordinates": [-76.9430502, -12.1023958]}, "properties": {"id": 12779294750, "feat_type": "node", "quality_categories": "disjointed_geometries, improper_keys", "issue_ids": "[15, 1]", "osm_url": "https://www.openstreetmap.org/node/12779294750", "josm_url": "http://127.0.0.1:8111/load_object?new_layer=false&objects=n12779294750", "id_url": "https://www.openstreetmap.org/edit?editor=id&node=12779294750#map=20/-12.1023958/-76.9430502"}}, {"type": "Feature", "geometry": {"type": "Point", "coordinates": [-76.9436217, -12.1026627]}, "properties": {"id": 12779294751, "feat_type": "node", "quality_categories": "disjointed_geometries, improper_keys", "issue_ids": "[15, 1]", "osm_url": "https://www.openstreetmap.org/node/12779294751", "josm_url": "http://127.0.0.1:8111/load_object?new_layer=false&objects=n12779294751", "id_url": "https://www.openstreetmap.org/edit?editor=id&node=12779294751#map=20/-12.1026627/-76.9436217"}}, {"type": "Feature", "geometry": {"type": "Point", "coordinates": [-77.0358978, -12.0825565]}, "properties": {"id": 12798226212, "feat_type": "node", "quality_categories": "improper_keys, kerb_on_top_of_non_crossing", "issue_ids": "[5, 4]", "osm_url": "https://www.openstreetmap.org/node/12798226212", "josm_url": "http://127.0.0.1:8111/load_object?new_layer=false&objects=n12798226212", "id_url": "https://www.openstreetmap.org/edit?editor=id&node=12798226212#map=20/-12.0825565/-77.0358978"}}, {"type": "Feature", "geometry": {"type": "Point", "coordinates": [-77.035807, -12.0825997]}, "properties": {"id": 12798226213, "feat_type": "node", "quality_categories": "improper_keys, kerb_on_top_of_non_crossing", "issue_ids": "[5, 4]", "osm_url": "https://www.openstreetmap.org/node/12798226213", "josm_url": "http://127.0.0.1:8111/load_object?new_layer=false&objects=n12798226213", "id_url": "https://www.openstreetmap.org/edit?editor=id&node=12798226213#map=20/-12.0825997/-77.035807"}}, {"type": "Feature", "geometry": {"type": "Point", "coordinates": [-77.0358758, -12.0827107]}, "properties": {"id": 12798226214, "feat_type": "node", "quality_categories": "disjointed_geometries, improper_keys", "issue_ids": "[5, 1]", "osm_url": "https://www.openstreetmap.org/node/12798226214", "josm_url": "http://127.0.0.1:8111/load_object?new_layer=false&objects=n12798226214", "id_url": "https://www.openstreetmap.org/edit?editor=id&node=12798226214#map=20/-12.0827107/-77.0358758"}}, {"type": "Feature", "geometry": {"type": "Point", "coordinates": [-77.0359804, -12.0826256]}, "properties": {"id": 12798226215, "feat_type": "node", "quality_categories": "disjointed_geometries, improper_keys", "issue_ids": "[5, 1]", "osm_url": "https://www.openstreetmap.org/node/12798226215", "josm_url": "http://127.0.0.1:8111/load_object?new_layer=false&objects=n12798226215", "id_url": "https://www.openstreetmap.org/edit?editor=id&node=12798226215#map=20/-12.0826256/-77.0359804"}}, {"type": "Feature", "geometry": {"type": "Point", "coordinates": [-77.0356567, -12.0836433]}, "properties": {"id": 12798226216, "feat_type": "node", "quality_categories": "disjointed_geometries, improper_keys", "issue_ids": "[5, 1]", "osm_url": "https://www.openstreetmap.org/node/12798226216", "josm_url": "http://127.0.0.1:8111/load_object?new_layer=false&objects=n12798226216", "id_url": "https://www.openstreetmap.org/edit?editor=id&node=12798226216#map=20/-12.0836433/-77.0356567"}}, {"type": "Feature", "geometry": {"type": "Point", "coordinates": [-77.0356356, -12.0837319]}, "properties": {"id": 12798226217, "feat_type": "node", "quality_categories": "disjointed_geometries, improper_keys", "issue_ids": "[5, 1]", "osm_url": "https://www.openstreetmap.org/node/12798226217", "josm_url": "http://127.0.0.1:8111/load_object?new_layer=false&objects=n12798226217", "id_url": "https://www.openstreetmap.org/edit?editor=id&node=12798226217#map=20/-12.0837319/-77.0356356"}}, {"type": "Feature", "geometry": {"type": "Point", "coordinates": [-77.0357141, -12.0838403]}, "properties": {"id": 12798226218, "feat_type": "node", "quality_categories": "disjointed_geometries, improper_keys", "issue_ids": "[5, 1]", "osm_url": "https://www.openstreetmap.org/node/12798226218", "josm_url": "http://127.0.0.1:8111/load_object?new_layer=false&objects=n12798226218", "id_url": "https://www.openstreetmap.org/edit?editor=id&node=12798226218#map=20/-12.0838403/-77.0357141"}}, {"type": "Feature", "geometry": {"type": "Point", "coordinates": [-77.0358224, -12.0837577]}, "properties": {"id": 12798226219, "feat_type": "node", "quality_categories": "disjointed_geometries, improper_keys", "issue_ids": "[5, 1]", "osm_url": "https://www.openstreetmap.org/node/12798226219", "josm_url": "http://127.0.0.1:8111/load_object?new_layer=false&objects=n12798226219", "id_url": "https://www.openstreetmap.org/edit?editor=id&node=12798226219#map=20/-12.0837577/-77.0358224"}}, {"type": "Feature", "geometry": {"type": "Point", "coordinates": [-77.0358383, -12.0836687]}, "properties": {"id": 12798226220, "feat_type": "node", "quality_categories": "disjointed_geometries, improper_keys", "issue_ids": "[5, 1]", "osm_url": "https://www.openstreetmap.org/node/12798226220", "josm_url": "http://127.0.0.1:8111/load_object?new_layer=false&objects=n12798226220", "id_url": "https://www.openstreetmap.org/edit?editor=id&node=12798226220#map=20/-12.0836687/-77.0358383"}}, {"type": "Feature", "geometry": {"type": "Point", "coordinates": [-77.0357506, -12.0835911]}, "properties": {"id": 12798226221, "feat_type": "node", "quality_categories": "disjointed_geometries, improper_keys", "issue_ids": "[5, 1]", "osm_url": "https://www.openstreetmap.org/node/12798226221", "josm_url": "http://127.0.0.1:8111/load_object?new_layer=false&objects=n12798226221", "id_url": "https://www.openstreetmap.org/edit?editor=id&node=12798226221#map=20/-12.0835911/-77.0357506"}}, {"type": "Feature", "geometry": {"type": "Point", "coordinates": [-77.0356697, -12.0848086]}, "properties": {"id": 12798226222, "feat_type": "node", "quality_categories": "disjointed_geometries, improper_keys", "issue_ids": "[5, 1]", "osm_url": "https://www.openstreetmap.org/node/12798226222", "josm_url": "http://127.0.0.1:8111/load_object?new_layer=false&objects=n12798226222", "id_url": "https://www.openstreetmap.org/edit?editor=id&node=12798226222#map=20/-12.0848086/-77.0356697"}}, {"type": "Feature", "geometry": {"type": "Point", "coordinates": [-77.0354957, -12.0847841]}, "properties": {"id": 12798226223, "feat_type": "node", "quality_categories": "disjointed_geometries, improper_keys", "issue_ids": "[5, 1]", "osm_url": "https://www.openstreetmap.org/node/12798226223", "josm_url": "http://127.0.0.1:8111/load_object?new_layer=false&objects=n12798226223", "id_url": "https://www.openstreetmap.org/edit?editor=id&node=12798226223#map=20/-12.0847841/-77.0354957"}}, {"type": "Feature", "geometry": {"type": "Point", "coordinates": [-77.0333768, -12.1124156]}, "properties": {"id": 12820790235, "feat_type": "node", "quality_categories": "improper_keys, kerb_on_top_of_non_crossing", "issue_ids": "[2, 4]", "osm_url": "https://www.openstreetmap.org/node/12820790235", "josm_url": "http://127.0.0.1:8111/load_object?new_layer=false&objects=n12820790235", "id_url": "https://www.openstreetmap.org/edit?editor=id&node=12820790235#map=20/-12.1124156/-77.0333768"}}, {"type": "Feature", "geometry": {"type": "Point", "coordinates": [-76.9964025, -12.1650924]}, "properties": {"id": 13040290427, "feat_type": "node", "quality_categories": "improper_keys, kerb_on_top_of_non_crossing", "issue_ids": "[15, 4]", "osm_url": "https://www.openstreetmap.org/node/13040290427", "josm_url": "http://127.0.0.1:8111/load_object?new_layer=false&objects=n13040290427", "id_url": "https://www.openstreetmap.org/edit?editor=id&node=13040290427#map=20/-12.1650924/-76.9964025"}}, {"type": "Feature", "geometry": {"type": "Point", "coordinates": [-76.9945598, -12.1638988]}, "properties": {"id": 13040290453, "feat_type": "node", "quality_categories": "improper_keys, kerb_on_top_of_non_crossing", "issue_ids": "[15, 4]", "osm_url": "https://www.openstreetmap.org/node/13040290453", "josm_url": "http://127.0.0.1:8111/load_object?new_layer=false&objects=n13040290453", "id_url": "https://www.openstreetmap.org/edit?editor=id&node=13040290453#map=20/-12.1638988/-76.9945598"}}, {"type": "Feature", "geometry": {"type": "Point", "coordinates": [-76.9946189, -12.1640075]}, "properties": {"id": 13040290454, "feat_type": "node", "quality_categories": "improper_keys, kerb_on_top_of_non_crossing", "issue_ids": "[15, 4]", "osm_url": "https://www.openstreetmap.org/node/13040290454", "josm_url": "http://127.0.0.1:8111/load_object?new_layer=false&objects=n13040290454", "id_url": "https://www.openstreetmap.org/edit?editor=id&node=13040290454#map=20/-12.1640075/-76.9946189"}}, {"type": "Feature", "geometry": {"type": "Point", "coordinates": [-76.9941975, -12.1642502]}, "properties": {"id": 13040290836, "feat_type": "node", "quality_categories": "improper_keys, kerb_on_top_of_non_crossing", "issue_ids": "[15, 4]", "osm_url": "https://www.openstreetmap.org/node/13040290836", "josm_url": "http://127.0.0.1:8111/load_object?new_layer=false&objects=n13040290836", "id_url": "https://www.openstreetmap.org/edit?editor=id&node=13040290836#map=20/-12.1642502/-76.9941975"}}, {"type": "Feature", "geometry": {"type": "Point", "coordinates": [-77.0958662, -12.0829434]}, "properties": {"id": 13401777752, "feat_type": "node", "quality_categories": "disjointed_geometries, improper_keys", "issue_ids": "[2, 1]", "osm_url": "https://www.openstreetmap.org/node/13401777752", "josm_url": "http://127.0.0.1:8111/load_object?new_layer=false&objects=n13401777752", "id_url": "https://www.openstreetmap.org/edit?editor=id&node=13401777752#map=20/-12.0829434/-77.0958662"}}, {"type": "Feature", "geometry": {"type": "Point", "coordinates": [-77.0820738, -12.0909667]}, "properties": {"id": 13620436128, "feat_type": "node", "quality_categories": "disjointed_geometries, improper_keys", "issue_ids": "[15, 1]", "osm_url": "https://www.openstreetmap.org/node/13620436128", "josm_url": "http://127.0.0.1:8111/load_object?new_layer=false&objects=n13620436128", "id_url": "https://www.openstreetmap.org/edit?editor=id&node=13620436128#map=20/-12.0909667/-77.0820738"}}, {"type": "Feature", "geometry": {"type": "Point", "coordinates": [-76.9902379, -12.12388]}, "properties": {"id": 438939891, "feat_type": "way", "quality_categories": "improper_geometries, improper_keys", "issue_ids": "[0, 17]", "osm_url": "https://www.openstreetmap.org/way/438939891", "josm_url": "http://127.0.0.1:8111/load_object?new_layer=false&objects=w438939891", "id_url": "https://www.openstreetmap.org/edit?editor=id&way=438939891#map=20/-12.12388/-76.9902379"}}, {"type": "Feature", "geometry": {"type": "Point", "coordinates": [-76.9903756, -12.1242011]}, "properties": {"id": 438939892, "feat_type": "way", "quality_categories": "improper_geometries, improper_keys", "issue_ids": "[0, 17]", "osm_url": "https://www.openstreetmap.org/way/438939892", "josm_url": "http://127.0.0.1:8111/load_object?new_layer=false&objects=w438939892", "id_url": "https://www.openstreetmap.org/edit?editor=id&way=438939892#map=20/-12.1242011/-76.9903756"}}, {"type": "Feature", "geometry": {"type": "Point", "coordinates": [-77.0098529, -12.17891]}, "properties": {"id": 600800266, "feat_type": "way", "quality_categories": "improper_geometries, improper_keys", "issue_ids": "[0, 17]", "osm_url": "https://www.openstreetmap.org/way/600800266", "josm_url": "http://127.0.0.1:8111/load_object?new_layer=false&objects=w600800266", "id_url": "https://www.openstreetmap.org/edit?editor=id&way=600800266#map=20/-12.17891/-77.0098529"}}]}