{"type": "FeatureCollection", "features": [{"type": "Feature", "geometry": {"type": "Point", "coordinates": [-76.9902379, -12.12388]}, "properties": {"id": 438939891, "feat_type": "way", "quality_categories": "improper_geometries, improper_keys", "issue_ids": "[0, 1]", "osm_url": "https://www.openstreetmap.org/way/438939891", "josm_url": "http://127.0.0.1:8111/load_object?new_layer=false&objects=w438939891", "id_url": "https://www.openstreetmap.org/edit?editor=id&way=438939891#map=20/-12.12388/-76.9902379"}}, {"type": "Feature", "geometry": {"type": "Point", "coordinates": [-76.9903756, -12.1242011]}, "properties": {"id": 438939892, "feat_type": "way", "quality_categories": "improper_geometries, improper_keys", "issue_ids": "[0, 1]", "osm_url": "https://www.openstreetmap.org/way/438939892", "josm_url": "http://127.0.0.1:8111/load_object?new_layer=false&objects=w438939892", "id_url": "https://www.openstreetmap.org/edit?editor=id&way=438939892#map=20/-12.1242011/-76.9903756"}}, {"type": "Feature", "geometry": {"type": "Point", "coordinates": [-77.0098529, -12.17891]}, "properties": {"id": 600800266, "feat_type": "way", "quality_categories": "improper_geometries, improper_keys", "issue_ids": "[0, 1]", "osm_url": "https://www.openstreetmap.org/way/600800266", "josm_url": "http://127.0.0.1:8111/load_object?new_layer=false&objects=w600800266", "id_url": "https://www.openstreetmap.org/edit?editor=id&way=600800266#map=20/-12.17891/-77.0098529"}}, {"type": "Feature", "geometry": {"type": "Point", "coordinates": [-77.0317918, -12.0508302]}, "properties": {"id": 648288695, "feat_type": "way", "quality_categories": "improper_geometries", "issue_ids": "[1]", "osm_url": "https://www.openstreetmap.org/way/648288695", "josm_url": "http://127.0.0.1:8111/load_object?new_layer=false&objects=w648288695", "id_url": "https://www.openstreetmap.org/edit?editor=id&way=648288695#map=20/-12.0508302/-77.0317918"}}, {"type": "Feature", "geometry": {"type": "Point", "coordinates": [-77.0315914, -12.0499738]}, "properties": {"id": 648288696, "feat_type": "way", "quality_categories": "improper_geometries", "issue_ids": "[1]", "osm_url": "https://www.openstreetmap.org/way/648288696", "josm_url": "http://127.0.0.1:8111/load_object?new_layer=false&objects=w648288696", "id_url": "https://www.openstreetmap.org/edit?editor=id&way=648288696#map=20/-12.0499738/-77.0315914"}}, {"type": "Feature", "geometry": {"type": "Point", "coordinates": [-77.033728, -12.0486156]}, "properties": {"id": 648288697, "feat_type": "way", "quality_categories": "improper_geometries", "issue_ids": "[1]", "osm_url": "https://www.openstreetmap.org/way/648288697", "josm_url": "http://127.0.0.1:8111/load_object?new_layer=false&objects=w648288697", "id_url": "https://www.openstreetmap.org/edit?editor=id&way=648288697#map=20/-12.0486156/-77.033728"}}, {"type": "Feature", "geometry": {"type": "Point", "coordinates": [-77.032899, -12.0491437]}, "properties": {"id": 648288698, "feat_type": "way", "quality_categories": "improper_geometries", "issue_ids": "[1]", "osm_url": "https://www.openstreetmap.org/way/648288698", "josm_url": "http://127.0.0.1:8111/load_object?new_layer=false&objects=w648288698", "id_url": "https://www.openstreetmap.org/edit?editor=id&way=648288698#map=20/-12.0491437/-77.032899"}}, {"type": "Feature", "geometry": {"type": "Point", "coordinates": [-77.0350563, -12.0478103]}, "properties": {"id": 648288699, "feat_type": "way", "quality_categories": "improper_geometries", "issue_ids": "[1]", "osm_url": "https://www.openstreetmap.org/way/648288699", "josm_url": "http://127.0.0.1:8111/load_object?new_layer=false&objects=w648288699", "id_url": "https://www.openstreetmap.org/edit?editor=id&way=648288699#map=20/-12.0478103/-77.0350563"}}, {"type": "Feature", "geometry": {"type": "Point", "coordinates": [-77.023553, -12.1277165]}, "properties": {"id": 653654426, "feat_type": "way", "quality_categories": "improper_geometries", "issue_ids": "[1]", "osm_url": "https://www.openstreetmap.org/way/653654426", "josm_url": "http://127.0.0.1:8111/load_object?new_layer=false&objects=w653654426", "id_url": "https://www.openstreetmap.org/edit?editor=id&way=653654426#map=20/-12.1277165/-77.023553"}}, {"type": "Feature", "geometry": {"type": "Point", "coordinates": [-77.0226103, -12.1295048]}, "properties": {"id": 653654428, "feat_type": "way", "quality_categories": "improper_geometries", "issue_ids": "[1]", "osm_url": "https://www.openstreetmap.org/way/653654428", "josm_url": "http://127.0.0.1:8111/load_object?new_layer=false&objects=w653654428", "id_url": "https://www.openstreetmap.org/edit?editor=id&way=653654428#map=20/-12.1295048/-77.0226103"}}, {"type": "Feature", "geometry": {"type": "Point", "coordinates": [-77.0221927, -12.1318894]}, "properties": {"id": 653654429, "feat_type": "way", "quality_categories": "improper_geometries", "issue_ids": "[1]", "osm_url": "https://www.openstreetmap.org/way/653654429", "josm_url": "http://127.0.0.1:8111/load_object?new_layer=false&objects=w653654429", "id_url": "https://www.openstreetmap.org/edit?editor=id&way=653654429#map=20/-12.1318894/-77.0221927"}}, {"type": "Feature", "geometry": {"type": "Point", "coordinates": [-77.0202656, -12.1338852]}, "properties": {"id": 653654430, "feat_type": "way", "quality_categories": "improper_geometries", "issue_ids": "[1]", "osm_url": "https://www.openstreetmap.org/way/653654430", "josm_url": "http://127.0.0.1:8111/load_object?new_layer=false&objects=w653654430", "id_url": "https://www.openstreetmap.org/edit?editor=id&way=653654430#map=20/-12.1338852/-77.0202656"}}, {"type": "Feature", "geometry": {"type": "Point", "coordinates": [-77.022228, -12.1345771]}, "properties": {"id": 653823507, "feat_type": "way", "quality_categories": "improper_geometries", "issue_ids": "[1]", "osm_url": "https://www.openstreetmap.org/way/653823507", "josm_url": "http://127.0.0.1:8111/load_object?new_layer=false&objects=w653823507", "id_url": "https://www.openstreetmap.org/edit?editor=id&way=653823507#map=20/-12.1345771/-77.022228"}}, {"type": "Feature", "geometry": {"type": "Point", "coordinates": [-77.025579, -12.1194972]}, "properties": {"id": 653828571, "feat_type": "way", "quality_categories": "improper_geometries", "issue_ids": "[1]", "osm_url": "https://www.openstreetmap.org/way/653828571", "josm_url": "http://127.0.0.1:8111/load_object?new_layer=false&objects=w653828571", "id_url": "https://www.openstreetmap.org/edit?editor=id&way=653828571#map=20/-12.1194972/-77.025579"}}, {"type": "Feature", "geometry": {"type": "Point", "coordinates": [-77.0247592, -12.1235789]}, "properties": {"id": 653828573, "feat_type": "way", "quality_categories": "improper_geometries", "issue_ids": "[1]", "osm_url": "https://www.openstreetmap.org/way/653828573", "josm_url": "http://127.0.0.1:8111/load_object?new_layer=false&objects=w653828573", "id_url": "https://www.openstreetmap.org/edit?editor=id&way=653828573#map=20/-12.1235789/-77.0247592"}}, {"type": "Feature", "geometry": {"type": "Point", "coordinates": [-77.0244403, -12.1249923]}, "properties": {"id": 653828574, "feat_type": "way", "quality_categories": "improper_geometries", "issue_ids": "[1]", "osm_url": "https://www.openstreetmap.org/way/653828574", "josm_url": "http://127.0.0.1:8111/load_object?new_layer=false&objects=w653828574", "id_url": "https://www.openstreetmap.org/edit?editor=id&way=653828574#map=20/-12.1249923/-77.0244403"}}, {"type": "Feature", "geometry": {"type": "Point", "coordinates": [-77.0242915, -12.1255594]}, "properties": {"id": 653828575, "feat_type": "way", "quality_categories": "improper_geometries", "issue_ids": "[1]", "osm_url": "https://www.openstreetmap.org/way/653828575", "josm_url": "http://127.0.0.1:8111/load_object?new_layer=false&objects=w653828575", "id_url": "https://www.openstreetmap.org/edit?editor=id&way=653828575#map=20/-12.1255594/-77.0242915"}}, {"type": "Feature", "geometry": {"type": "Point", "coordinates": [-77.0194072, -12.1347998]}, "properties": {"id": 655114870, "feat_type": "way", "quality_categories": "improper_geometries", "issue_ids": "[1]", "osm_url": "https://www.openstreetmap.org/way/655114870", "josm_url": "http://127.0.0.1:8111/load_object?new_layer=false&objects=w655114870", "id_url": "https://www.openstreetmap.org/edit?editor=id&way=655114870#map=20/-12.1347998/-77.0194072"}}, {"type": "Feature", "geometry": {"type": "Point", "coordinates": [-77.0001661, -11.9401118]}, "properties": {"id": 1102928415, "feat_type": "way", "quality_categories": "improper_geometries", "issue_ids": "[1]", "osm_url": "https://www.openstreetmap.org/way/1102928415", "josm_url": "http://127.0.0.1:8111/load_object?new_layer=false&objects=w1102928415", "id_url": "https://www.openstreetmap.org/edit?editor=id&way=1102928415#map=20/-11.9401118/-77.0001661"}}, {"type": "Feature", "geometry": {"type": "Point", "coordinates": [-77.0003556, -11.9413778]}, "properties": {"id": 1102928416, "feat_type": "way", "quality_categories": "improper_geometries", "issue_ids": "[1]", "osm_url": "https://www.openstreetmap.org/way/1102928416", "josm_url": "http://127.0.0.1:8111/load_object?new_layer=false&objects=w1102928416", "id_url": "https://www.openstreetmap.org/edit?editor=id&way=1102928416#map=20/-11.9413778/-77.0003556"}}, {"type": "Feature", "geometry": {"type": "Point", "coordinates": [-77.0002757, -11.940112]}, "properties": {"id": 1102928419, "feat_type": "way", "quality_categories": "improper_geometries", "issue_ids": "[1]", "osm_url": "https://www.openstreetmap.org/way/1102928419", "josm_url": "http://127.0.0.1:8111/load_object?new_layer=false&objects=w1102928419", "id_url": "https://www.openstreetmap.org/edit?editor=id&way=1102928419#map=20/-11.940112/-77.0002757"}}, {"type": "Feature", "geometry": {"type": "Point", "coordinates": [-77.0002303, -11.9401641]}, "properties": {"id": 1102928421, "feat_type": "way", "quality_categories": "improper_geometries", "issue_ids": "[1]", "osm_url": "https://www.openstreetmap.org/way/1102928421", "josm_url": "http://127.0.0.1:8111/load_object?new_layer=false&objects=w1102928421", "id_url": "https://www.openstreetmap.org/edit?editor=id&way=1102928421#map=20/-11.9401641/-77.0002303"}}, {"type": "Feature", "geometry": {"type": "Point", "coordinates": [-77.0002201, -11.9400575]}, "properties": {"id": 1102928422, "feat_type": "way", "quality_categories": "improper_geometries", "issue_ids": "[1]", "osm_url": "https://www.openstreetmap.org/way/1102928422", "josm_url": "http://127.0.0.1:8111/load_object?new_layer=false&objects=w1102928422", "id_url": "https://www.openstreetmap.org/edit?editor=id&way=1102928422#map=20/-11.9400575/-77.0002201"}}, {"type": "Feature", "geometry": {"type": "Point", "coordinates": [-76.9898937, -12.1424857]}, "properties": {"id": 1456557895, "feat_type": "way", "quality_categories": "improper_geometries", "issue_ids": "[1]", "osm_url": "https://www.openstreetmap.org/way/1456557895", "josm_url": "http://127.0.0.1:8111/load_object?new_layer=false&objects=w1456557895", "id_url": "https://www.openstreetmap.org/edit?editor=id&way=1456557895#map=20/-12.1424857/-76.9898937"}}, {"type": "Feature", "geometry": {"type": "Point", "coordinates": [-77.0354484, -12.0432559]}, "properties": {"id": 1548005880, "feat_type": "way", "quality_categories": "improper_geometries", "issue_ids": "[1]", "osm_url": "https://www.openstreetmap.org/way/1548005880", "josm_url": "http://127.0.0.1:8111/load_object?new_layer=false&objects=w1548005880", "id_url": "https://www.openstreetmap.org/edit?editor=id&way=1548005880#map=20/-12.0432559/-77.0354484"}}, {"type": "Feature", "geometry": {"type": "Point", "coordinates": [-77.0357051, -12.0436197]}, "properties": {"id": 1548977365, "feat_type": "way", "quality_categories": "improper_geometries", "issue_ids": "[1]", "osm_url": "https://www.openstreetmap.org/way/1548977365", "josm_url": "http://127.0.0.1:8111/load_object?new_layer=false&objects=w1548977365", "id_url": "https://www.openstreetmap.org/edit?editor=id&way=1548977365#map=20/-12.0436197/-77.0357051"}}]}