{"type": "FeatureCollection", "features": [{"type": "Feature", "geometry": {"type": "Point", "coordinates": [-77.0351, -12.1011566]}, "properties": {"id": 1759772453, "feat_type": "node", "quality_categories": "improper_keys, kerb_on_top_of_non_crossing, uncanny_keys", "issue_ids": "[0, 1, 2]", "osm_url": "https://www.openstreetmap.org/node/1759772453", "josm_url": "http://127.0.0.1:8111/load_object?new_layer=false&objects=n1759772453", "id_url": "https://www.openstreetmap.org/edit?editor=id&node=1759772453#map=20/-12.1011566/-77.0351"}}, {"type": "Feature", "geometry": {"type": "Point", "coordinates": [-76.9881161, -12.150459]}, "properties": {"id": 3214772673, "feat_type": "node", "quality_categories": "kerb_on_top_of_non_crossing, uncanny_keys", "issue_ids": "[3, 2]", "osm_url": "https://www.openstreetmap.org/node/3214772673", "josm_url": "http://127.0.0.1:8111/load_object?new_layer=false&objects=n3214772673", "id_url": "https://www.openstreetmap.org/edit?editor=id&node=3214772673#map=20/-12.150459/-76.9881161"}}, {"type": "Feature", "geometry": {"type": "Point", "coordinates": [-76.9880964, -12.1427045]}, "properties": {"id": 3214905895, "feat_type": "node", "quality_categories": "kerb_on_top_of_non_crossing, uncanny_keys", "issue_ids": "[3, 2]", "osm_url": "https://www.openstreetmap.org/node/3214905895", "josm_url": "http://127.0.0.1:8111/load_object?new_layer=false&objects=n3214905895", "id_url": "https://www.openstreetmap.org/edit?editor=id&node=3214905895#map=20/-12.1427045/-76.9880964"}}, {"type": "Feature", "geometry": {"type": "Point", "coordinates": [-76.9881809, -12.1427342]}, "properties": {"id": 3214905897, "feat_type": "node", "quality_categories": "kerb_on_top_of_non_crossing, uncanny_keys", "issue_ids": "[3, 2]", "osm_url": "https://www.openstreetmap.org/node/3214905897", "josm_url": "http://127.0.0.1:8111/load_object?new_layer=false&objects=n3214905897", "id_url": "https://www.openstreetmap.org/edit?editor=id&node=3214905897#map=20/-12.1427342/-76.9881809"}}, {"type": "Feature", "geometry": {"type": "Point", "coordinates": [-76.9879252, -12.1428961]}, "properties": {"id": 3214905901, "feat_type": "node", "quality_categories": "kerb_on_top_of_non_crossing, uncanny_keys", "issue_ids": "[3, 2]", "osm_url": "https://www.openstreetmap.org/node/3214905901", "josm_url": "http://127.0.0.1:8111/load_object?new_layer=false&objects=n3214905901", "id_url": "https://www.openstreetmap.org/edit?editor=id&node=3214905901#map=20/-12.1428961/-76.9879252"}}, {"type": "Feature", "geometry": {"type": "Point", "coordinates": [-76.9880516, -12.1429989]}, "properties": {"id": 3214905903, "feat_type": "node", "quality_categories": "kerb_on_top_of_non_crossing, uncanny_keys", "issue_ids": "[3, 2]", "osm_url": "https://www.openstreetmap.org/node/3214905903", "josm_url": "http://127.0.0.1:8111/load_object?new_layer=false&objects=n3214905903", "id_url": "https://www.openstreetmap.org/edit?editor=id&node=3214905903#map=20/-12.1429989/-76.9880516"}}, {"type": "Feature", "geometry": {"type": "Point", "coordinates": [-77.0369889, -12.1138714]}, "properties": {"id": 3245705894, "feat_type": "node", "quality_categories": "improper_keys, kerb_on_top_of_non_crossing", "issue_ids": "[0, 2]", "osm_url": "https://www.openstreetmap.org/node/3245705894", "josm_url": "http://127.0.0.1:8111/load_object?new_layer=false&objects=n3245705894", "id_url": "https://www.openstreetmap.org/edit?editor=id&node=3245705894#map=20/-12.1138714/-77.0369889"}}, {"type": "Feature", "geometry": {"type": "Point", "coordinates": [-77.0368475, -12.1138794]}, "properties": {"id": 3245705895, "feat_type": "node", "quality_categories": "improper_keys, kerb_on_top_of_non_crossing", "issue_ids": "[0, 2]", "osm_url": "https://www.openstreetmap.org/node/3245705895", "josm_url": "http://127.0.0.1:8111/load_object?new_layer=false&objects=n3245705895", "id_url": "https://www.openstreetmap.org/edit?editor=id&node=3245705895#map=20/-12.1138794/-77.0368475"}}, {"type": "Feature", "geometry": {"type": "Point", "coordinates": [-77.0369914, -12.1141317]}, "properties": {"id": 3245705899, "feat_type": "node", "quality_categories": "improper_keys, kerb_on_top_of_non_crossing", "issue_ids": "[0, 2]", "osm_url": "https://www.openstreetmap.org/node/3245705899", "josm_url": "http://127.0.0.1:8111/load_object?new_layer=false&objects=n3245705899", "id_url": "https://www.openstreetmap.org/edit?editor=id&node=3245705899#map=20/-12.1141317/-77.0369914"}}, {"type": "Feature", "geometry": {"type": "Point", "coordinates": [-77.036845, -12.1141263]}, "properties": {"id": 3245705900, "feat_type": "node", "quality_categories": "improper_keys, kerb_on_top_of_non_crossing", "issue_ids": "[0, 2]", "osm_url": "https://www.openstreetmap.org/node/3245705900", "josm_url": "http://127.0.0.1:8111/load_object?new_layer=false&objects=n3245705900", "id_url": "https://www.openstreetmap.org/edit?editor=id&node=3245705900#map=20/-12.1141263/-77.036845"}}, {"type": "Feature", "geometry": {"type": "Point", "coordinates": [-77.0359805, -12.1212093]}, "properties": {"id": 3245705941, "feat_type": "node", "quality_categories": "improper_keys, kerb_on_top_of_non_crossing", "issue_ids": "[4, 2]", "osm_url": "https://www.openstreetmap.org/node/3245705941", "josm_url": "http://127.0.0.1:8111/load_object?new_layer=false&objects=n3245705941", "id_url": "https://www.openstreetmap.org/edit?editor=id&node=3245705941#map=20/-12.1212093/-77.0359805"}}, {"type": "Feature", "geometry": {"type": "Point", "coordinates": [-77.0318934, -12.1228461]}, "properties": {"id": 3245705948, "feat_type": "node", "quality_categories": "improper_keys, kerb_on_top_of_non_crossing", "issue_ids": "[0, 2]", "osm_url": "https://www.openstreetmap.org/node/3245705948", "josm_url": "http://127.0.0.1:8111/load_object?new_layer=false&objects=n3245705948", "id_url": "https://www.openstreetmap.org/edit?editor=id&node=3245705948#map=20/-12.1228461/-77.0318934"}}, {"type": "Feature", "geometry": {"type": "Point", "coordinates": [-77.031735, -12.1228597]}, "properties": {"id": 3245705950, "feat_type": "node", "quality_categories": "kerb_on_top_of_non_crossing, uncanny_keys", "issue_ids": "[3, 2]", "osm_url": "https://www.openstreetmap.org/node/3245705950", "josm_url": "http://127.0.0.1:8111/load_object?new_layer=false&objects=n3245705950", "id_url": "https://www.openstreetmap.org/edit?editor=id&node=3245705950#map=20/-12.1228597/-77.031735"}}, {"type": "Feature", "geometry": {"type": "Point", "coordinates": [-77.0279197, -12.1246358]}, "properties": {"id": 3245705963, "feat_type": "node", "quality_categories": "improper_keys, kerb_on_top_of_non_crossing", "issue_ids": "[0, 2]", "osm_url": "https://www.openstreetmap.org/node/3245705963", "josm_url": "http://127.0.0.1:8111/load_object?new_layer=false&objects=n3245705963", "id_url": "https://www.openstreetmap.org/edit?editor=id&node=3245705963#map=20/-12.1246358/-77.0279197"}}, {"type": "Feature", "geometry": {"type": "Point", "coordinates": [-77.0279322, -12.1248503]}, "properties": {"id": 3245705973, "feat_type": "node", "quality_categories": "improper_keys, kerb_on_top_of_non_crossing, uncanny_keys", "issue_ids": "[5, 3, 2]", "osm_url": "https://www.openstreetmap.org/node/3245705973", "josm_url": "http://127.0.0.1:8111/load_object?new_layer=false&objects=n3245705973", "id_url": "https://www.openstreetmap.org/edit?editor=id&node=3245705973#map=20/-12.1248503/-77.0279322"}}, {"type": "Feature", "geometry": {"type": "Point", "coordinates": [-77.0216993, -12.1491048]}, "properties": {"id": 3261249480, "feat_type": "node", "quality_categories": "kerb_on_top_of_non_crossing, uncanny_keys", "issue_ids": "[3, 2]", "osm_url": "https://www.openstreetmap.org/node/3261249480", "josm_url": "http://127.0.0.1:8111/load_object?new_layer=false&objects=n3261249480", "id_url": "https://www.openstreetmap.org/edit?editor=id&node=3261249480#map=20/-12.1491048/-77.0216993"}}, {"type": "Feature", "geometry": {"type": "Point", "coordinates": [-77.0225654, -12.1362986]}, "properties": {"id": 3952827981, "feat_type": "node", "quality_categories": "improper_keys, kerb_on_top_of_non_crossing", "issue_ids": "[6, 2]", "osm_url": "https://www.openstreetmap.org/node/3952827981", "josm_url": "http://127.0.0.1:8111/load_object?new_layer=false&objects=n3952827981", "id_url": "https://www.openstreetmap.org/edit?editor=id&node=3952827981#map=20/-12.1362986/-77.0225654"}}, {"type": "Feature", "geometry": {"type": "Point", "coordinates": [-77.0223675, -12.1378363]}, "properties": {"id": 3952827986, "feat_type": "node", "quality_categories": "improper_keys, kerb_on_top_of_non_crossing", "issue_ids": "[6, 2]", "osm_url": "https://www.openstreetmap.org/node/3952827986", "josm_url": "http://127.0.0.1:8111/load_object?new_layer=false&objects=n3952827986", "id_url": "https://www.openstreetmap.org/edit?editor=id&node=3952827986#map=20/-12.1378363/-77.0223675"}}, {"type": "Feature", "geometry": {"type": "Point", "coordinates": [-77.0222671, -12.1386317]}, "properties": {"id": 3952828763, "feat_type": "node", "quality_categories": "improper_keys, kerb_on_top_of_non_crossing", "issue_ids": "[6, 2]", "osm_url": "https://www.openstreetmap.org/node/3952828763", "josm_url": "http://127.0.0.1:8111/load_object?new_layer=false&objects=n3952828763", "id_url": "https://www.openstreetmap.org/edit?editor=id&node=3952828763#map=20/-12.1386317/-77.0222671"}}, {"type": "Feature", "geometry": {"type": "Point", "coordinates": [-77.0322553, -12.0919512]}, "properties": {"id": 4039124552, "feat_type": "node", "quality_categories": "improper_keys, kerb_on_top_of_non_crossing", "issue_ids": "[6, 2]", "osm_url": "https://www.openstreetmap.org/node/4039124552", "josm_url": "http://127.0.0.1:8111/load_object?new_layer=false&objects=n4039124552", "id_url": "https://www.openstreetmap.org/edit?editor=id&node=4039124552#map=20/-12.0919512/-77.0322553"}}, {"type": "Feature", "geometry": {"type": "Point", "coordinates": [-77.035327, -12.0923824]}, "properties": {"id": 4039124595, "feat_type": "node", "quality_categories": "improper_keys, kerb_on_top_of_non_crossing", "issue_ids": "[6, 2]", "osm_url": "https://www.openstreetmap.org/node/4039124595", "josm_url": "http://127.0.0.1:8111/load_object?new_layer=false&objects=n4039124595", "id_url": "https://www.openstreetmap.org/edit?editor=id&node=4039124595#map=20/-12.0923824/-77.035327"}}, {"type": "Feature", "geometry": {"type": "Point", "coordinates": [-77.0361426, -12.0924359]}, "properties": {"id": 4039124596, "feat_type": "node", "quality_categories": "improper_keys, kerb_on_top_of_non_crossing", "issue_ids": "[6, 2]", "osm_url": "https://www.openstreetmap.org/node/4039124596", "josm_url": "http://127.0.0.1:8111/load_object?new_layer=false&objects=n4039124596", "id_url": "https://www.openstreetmap.org/edit?editor=id&node=4039124596#map=20/-12.0924359/-77.0361426"}}, {"type": "Feature", "geometry": {"type": "Point", "coordinates": [-77.0322047, -12.0922923]}, "properties": {"id": 4039142376, "feat_type": "node", "quality_categories": "improper_keys, kerb_on_top_of_non_crossing", "issue_ids": "[6, 2]", "osm_url": "https://www.openstreetmap.org/node/4039142376", "josm_url": "http://127.0.0.1:8111/load_object?new_layer=false&objects=n4039142376", "id_url": "https://www.openstreetmap.org/edit?editor=id&node=4039142376#map=20/-12.0922923/-77.0322047"}}, {"type": "Feature", "geometry": {"type": "Point", "coordinates": [-77.0303241, -12.118933]}, "properties": {"id": 4081606553, "feat_type": "node", "quality_categories": "improper_keys, kerb_on_top_of_non_crossing", "issue_ids": "[6, 2]", "osm_url": "https://www.openstreetmap.org/node/4081606553", "josm_url": "http://127.0.0.1:8111/load_object?new_layer=false&objects=n4081606553", "id_url": "https://www.openstreetmap.org/edit?editor=id&node=4081606553#map=20/-12.118933/-77.0303241"}}, {"type": "Feature", "geometry": {"type": "Point", "coordinates": [-76.9694329, -12.1079312]}, "properties": {"id": 4117258321, "feat_type": "node", "quality_categories": "improper_keys, kerb_on_top_of_non_crossing, older_than_five_years", "issue_ids": "[6, 7, 2]", "osm_url": "https://www.openstreetmap.org/node/4117258321", "josm_url": "http://127.0.0.1:8111/load_object?new_layer=false&objects=n4117258321", "id_url": "https://www.openstreetmap.org/edit?editor=id&node=4117258321#map=20/-12.1079312/-76.9694329"}}, {"type": "Feature", "geometry": {"type": "Point", "coordinates": [-76.9693595, -12.1080348]}, "properties": {"id": 4117258322, "feat_type": "node", "quality_categories": "improper_keys, kerb_on_top_of_non_crossing, older_than_five_years", "issue_ids": "[6, 8, 2]", "osm_url": "https://www.openstreetmap.org/node/4117258322", "josm_url": "http://127.0.0.1:8111/load_object?new_layer=false&objects=n4117258322", "id_url": "https://www.openstreetmap.org/edit?editor=id&node=4117258322#map=20/-12.1080348/-76.9693595"}}, {"type": "Feature", "geometry": {"type": "Point", "coordinates": [-76.9695847, -12.1080413]}, "properties": {"id": 4117258323, "feat_type": "node", "quality_categories": "improper_keys, kerb_on_top_of_non_crossing, older_than_five_years", "issue_ids": "[6, 8, 2]", "osm_url": "https://www.openstreetmap.org/node/4117258323", "josm_url": "http://127.0.0.1:8111/load_object?new_layer=false&objects=n4117258323", "id_url": "https://www.openstreetmap.org/edit?editor=id&node=4117258323#map=20/-12.1080413/-76.9695847"}}, {"type": "Feature", "geometry": {"type": "Point", "coordinates": [-76.969508, -12.1081425]}, "properties": {"id": 4117258324, "feat_type": "node", "quality_categories": "improper_keys, kerb_on_top_of_non_crossing, older_than_five_years", "issue_ids": "[6, 8, 2]", "osm_url": "https://www.openstreetmap.org/node/4117258324", "josm_url": "http://127.0.0.1:8111/load_object?new_layer=false&objects=n4117258324", "id_url": "https://www.openstreetmap.org/edit?editor=id&node=4117258324#map=20/-12.1081425/-76.969508"}}, {"type": "Feature", "geometry": {"type": "Point", "coordinates": [-77.0607939, -12.1008665]}, "properties": {"id": 4143633194, "feat_type": "node", "quality_categories": "improper_keys, kerb_on_top_of_non_crossing", "issue_ids": "[6, 2]", "osm_url": "https://www.openstreetmap.org/node/4143633194", "josm_url": "http://127.0.0.1:8111/load_object?new_layer=false&objects=n4143633194", "id_url": "https://www.openstreetmap.org/edit?editor=id&node=4143633194#map=20/-12.1008665/-77.0607939"}}, {"type": "Feature", "geometry": {"type": "Point", "coordinates": [-77.0339533, -12.08692]}, "properties": {"id": 4186479548, "feat_type": "node", "quality_categories": "improper_keys, kerb_on_top_of_non_crossing", "issue_ids": "[6, 2]", "osm_url": "https://www.openstreetmap.org/node/4186479548", "josm_url": "http://127.0.0.1:8111/load_object?new_layer=false&objects=n4186479548", "id_url": "https://www.openstreetmap.org/edit?editor=id&node=4186479548#map=20/-12.08692/-77.0339533"}}, {"type": "Feature", "geometry": {"type": "Point", "coordinates": [-77.0513002, -12.1101752]}, "properties": {"id": 4318884459, "feat_type": "node", "quality_categories": "improper_keys, kerb_on_top_of_non_crossing", "issue_ids": "[6, 2]", "osm_url": "https://www.openstreetmap.org/node/4318884459", "josm_url": "http://127.0.0.1:8111/load_object?new_layer=false&objects=n4318884459", "id_url": "https://www.openstreetmap.org/edit?editor=id&node=4318884459#map=20/-12.1101752/-77.0513002"}}, {"type": "Feature", "geometry": {"type": "Point", "coordinates": [-77.0410169, -12.0721822]}, "properties": {"id": 4325704994, "feat_type": "node", "quality_categories": "improper_keys, kerb_on_top_of_non_crossing", "issue_ids": "[6, 2]", "osm_url": "https://www.openstreetmap.org/node/4325704994", "josm_url": "http://127.0.0.1:8111/load_object?new_layer=false&objects=n4325704994", "id_url": "https://www.openstreetmap.org/edit?editor=id&node=4325704994#map=20/-12.0721822/-77.0410169"}}, {"type": "Feature", "geometry": {"type": "Point", "coordinates": [-76.9919222, -12.1112945]}, "properties": {"id": 4348865445, "feat_type": "node", "quality_categories": "improper_keys, kerb_on_top_of_non_crossing, older_than_five_years", "issue_ids": "[6, 9, 2]", "osm_url": "https://www.openstreetmap.org/node/4348865445", "josm_url": "http://127.0.0.1:8111/load_object?new_layer=false&objects=n4348865445", "id_url": "https://www.openstreetmap.org/edit?editor=id&node=4348865445#map=20/-12.1112945/-76.9919222"}}, {"type": "Feature", "geometry": {"type": "Point", "coordinates": [-77.0082024, -12.1927921]}, "properties": {"id": 4355003652, "feat_type": "node", "quality_categories": "improper_keys, kerb_on_top_of_non_crossing, older_than_five_years", "issue_ids": "[6, 10, 2]", "osm_url": "https://www.openstreetmap.org/node/4355003652", "josm_url": "http://127.0.0.1:8111/load_object?new_layer=false&objects=n4355003652", "id_url": "https://www.openstreetmap.org/edit?editor=id&node=4355003652#map=20/-12.1927921/-77.0082024"}}, {"type": "Feature", "geometry": {"type": "Point", "coordinates": [-77.0081356, -12.1928361]}, "properties": {"id": 4355003653, "feat_type": "node", "quality_categories": "improper_keys, kerb_on_top_of_non_crossing, older_than_five_years", "issue_ids": "[6, 10, 2]", "osm_url": "https://www.openstreetmap.org/node/4355003653", "josm_url": "http://127.0.0.1:8111/load_object?new_layer=false&objects=n4355003653", "id_url": "https://www.openstreetmap.org/edit?editor=id&node=4355003653#map=20/-12.1928361/-77.0081356"}}, {"type": "Feature", "geometry": {"type": "Point", "coordinates": [-77.0081187, -12.1926755]}, "properties": {"id": 4355003654, "feat_type": "node", "quality_categories": "improper_keys, kerb_on_top_of_non_crossing, older_than_five_years", "issue_ids": "[6, 10, 2]", "osm_url": "https://www.openstreetmap.org/node/4355003654", "josm_url": "http://127.0.0.1:8111/load_object?new_layer=false&objects=n4355003654", "id_url": "https://www.openstreetmap.org/edit?editor=id&node=4355003654#map=20/-12.1926755/-77.0081187"}}, {"type": "Feature", "geometry": {"type": "Point", "coordinates": [-77.0080527, -12.1927207]}, "properties": {"id": 4355003655, "feat_type": "node", "quality_categories": "improper_keys, kerb_on_top_of_non_crossing", "issue_ids": "[6, 2]", "osm_url": "https://www.openstreetmap.org/node/4355003655", "josm_url": "http://127.0.0.1:8111/load_object?new_layer=false&objects=n4355003655", "id_url": "https://www.openstreetmap.org/edit?editor=id&node=4355003655#map=20/-12.1927207/-77.0080527"}}, {"type": "Feature", "geometry": {"type": "Point", "coordinates": [-77.0080482, -12.1928143]}, "properties": {"id": 4355003656, "feat_type": "node", "quality_categories": "improper_keys, kerb_on_top_of_non_crossing, older_than_five_years", "issue_ids": "[6, 10, 2]", "osm_url": "https://www.openstreetmap.org/node/4355003656", "josm_url": "http://127.0.0.1:8111/load_object?new_layer=false&objects=n4355003656", "id_url": "https://www.openstreetmap.org/edit?editor=id&node=4355003656#map=20/-12.1928143/-77.0080482"}}, {"type": "Feature", "geometry": {"type": "Point", "coordinates": [-77.0097735, -12.1788423]}, "properties": {"id": 4362392709, "feat_type": "node", "quality_categories": "improper_keys, kerb_on_top_of_non_crossing", "issue_ids": "[6, 2]", "osm_url": "https://www.openstreetmap.org/node/4362392709", "josm_url": "http://127.0.0.1:8111/load_object?new_layer=false&objects=n4362392709", "id_url": "https://www.openstreetmap.org/edit?editor=id&node=4362392709#map=20/-12.1788423/-77.0097735"}}, {"type": "Feature", "geometry": {"type": "Point", "coordinates": [-77.0100474, -12.179076]}, "properties": {"id": 4362392710, "feat_type": "node", "quality_categories": "improper_keys, kerb_on_top_of_non_crossing", "issue_ids": "[6, 2]", "osm_url": "https://www.openstreetmap.org/node/4362392710", "josm_url": "http://127.0.0.1:8111/load_object?new_layer=false&objects=n4362392710", "id_url": "https://www.openstreetmap.org/edit?editor=id&node=4362392710#map=20/-12.179076/-77.0100474"}}, {"type": "Feature", "geometry": {"type": "Point", "coordinates": [-77.0095912, -12.1790535]}, "properties": {"id": 4362392711, "feat_type": "node", "quality_categories": "improper_keys, kerb_on_top_of_non_crossing", "issue_ids": "[6, 2]", "osm_url": "https://www.openstreetmap.org/node/4362392711", "josm_url": "http://127.0.0.1:8111/load_object?new_layer=false&objects=n4362392711", "id_url": "https://www.openstreetmap.org/edit?editor=id&node=4362392711#map=20/-12.1790535/-77.0095912"}}, {"type": "Feature", "geometry": {"type": "Point", "coordinates": [-77.009853, -12.1792917]}, "properties": {"id": 4362392712, "feat_type": "node", "quality_categories": "improper_keys, kerb_on_top_of_non_crossing", "issue_ids": "[6, 2]", "osm_url": "https://www.openstreetmap.org/node/4362392712", "josm_url": "http://127.0.0.1:8111/load_object?new_layer=false&objects=n4362392712", "id_url": "https://www.openstreetmap.org/edit?editor=id&node=4362392712#map=20/-12.1792917/-77.009853"}}, {"type": "Feature", "geometry": {"type": "Point", "coordinates": [-76.9917624, -12.1112837]}, "properties": {"id": 4365362204, "feat_type": "node", "quality_categories": "improper_keys, kerb_on_top_of_non_crossing, older_than_five_years", "issue_ids": "[6, 9, 2]", "osm_url": "https://www.openstreetmap.org/node/4365362204", "josm_url": "http://127.0.0.1:8111/load_object?new_layer=false&objects=n4365362204", "id_url": "https://www.openstreetmap.org/edit?editor=id&node=4365362204#map=20/-12.1112837/-76.9917624"}}, {"type": "Feature", "geometry": {"type": "Point", "coordinates": [-76.9902379, -12.12388]}, "properties": {"id": 4365805804, "feat_type": "node", "quality_categories": "improper_keys, kerb_on_top_of_non_crossing, older_than_five_years", "issue_ids": "[6, 11, 2]", "osm_url": "https://www.openstreetmap.org/node/4365805804", "josm_url": "http://127.0.0.1:8111/load_object?new_layer=false&objects=n4365805804", "id_url": "https://www.openstreetmap.org/edit?editor=id&node=4365805804#map=20/-12.12388/-76.9902379"}}, {"type": "Feature", "geometry": {"type": "Point", "coordinates": [-76.9903439, -12.1238327]}, "properties": {"id": 4365805805, "feat_type": "node", "quality_categories": "improper_keys, kerb_on_top_of_non_crossing, older_than_five_years", "issue_ids": "[6, 11, 2]", "osm_url": "https://www.openstreetmap.org/node/4365805805", "josm_url": "http://127.0.0.1:8111/load_object?new_layer=false&objects=n4365805805", "id_url": "https://www.openstreetmap.org/edit?editor=id&node=4365805805#map=20/-12.1238327/-76.9903439"}}, {"type": "Feature", "geometry": {"type": "Point", "coordinates": [-76.9904808, -12.1241574]}, "properties": {"id": 4365805806, "feat_type": "node", "quality_categories": "improper_keys, kerb_on_top_of_non_crossing, older_than_five_years", "issue_ids": "[6, 7, 2]", "osm_url": "https://www.openstreetmap.org/node/4365805806", "josm_url": "http://127.0.0.1:8111/load_object?new_layer=false&objects=n4365805806", "id_url": "https://www.openstreetmap.org/edit?editor=id&node=4365805806#map=20/-12.1241574/-76.9904808"}}, {"type": "Feature", "geometry": {"type": "Point", "coordinates": [-76.9903756, -12.1242011]}, "properties": {"id": 4365805807, "feat_type": "node", "quality_categories": "improper_keys, kerb_on_top_of_non_crossing, older_than_five_years", "issue_ids": "[6, 11, 2]", "osm_url": "https://www.openstreetmap.org/node/4365805807", "josm_url": "http://127.0.0.1:8111/load_object?new_layer=false&objects=n4365805807", "id_url": "https://www.openstreetmap.org/edit?editor=id&node=4365805807#map=20/-12.1242011/-76.9903756"}}, {"type": "Feature", "geometry": {"type": "Point", "coordinates": [-76.9902972, -12.124183]}, "properties": {"id": 4365805808, "feat_type": "node", "quality_categories": "improper_keys, kerb_on_top_of_non_crossing, older_than_five_years", "issue_ids": "[6, 7, 2]", "osm_url": "https://www.openstreetmap.org/node/4365805808", "josm_url": "http://127.0.0.1:8111/load_object?new_layer=false&objects=n4365805808", "id_url": "https://www.openstreetmap.org/edit?editor=id&node=4365805808#map=20/-12.124183/-76.9902972"}}, {"type": "Feature", "geometry": {"type": "Point", "coordinates": [-77.0372454, -12.1247698]}, "properties": {"id": 5967806791, "feat_type": "node", "quality_categories": "improper_keys, kerb_on_top_of_non_crossing, older_than_five_years", "issue_ids": "[6, 12, 2]", "osm_url": "https://www.openstreetmap.org/node/5967806791", "josm_url": "http://127.0.0.1:8111/load_object?new_layer=false&objects=n5967806791", "id_url": "https://www.openstreetmap.org/edit?editor=id&node=5967806791#map=20/-12.1247698/-77.0372454"}}, {"type": "Feature", "geometry": {"type": "Point", "coordinates": [-77.0222088, -12.1478934]}, "properties": {"id": 6053460505, "feat_type": "node", "quality_categories": "improper_keys, kerb_on_top_of_non_crossing", "issue_ids": "[6, 2]", "osm_url": "https://www.openstreetmap.org/node/6053460505", "josm_url": "http://127.0.0.1:8111/load_object?new_layer=false&objects=n6053460505", "id_url": "https://www.openstreetmap.org/edit?editor=id&node=6053460505#map=20/-12.1478934/-77.0222088"}}, {"type": "Feature", "geometry": {"type": "Point", "coordinates": [-77.048073, -12.0963071]}, "properties": {"id": 6083555089, "feat_type": "node", "quality_categories": "improper_keys, kerb_on_top_of_non_crossing", "issue_ids": "[6, 2]", "osm_url": "https://www.openstreetmap.org/node/6083555089", "josm_url": "http://127.0.0.1:8111/load_object?new_layer=false&objects=n6083555089", "id_url": "https://www.openstreetmap.org/edit?editor=id&node=6083555089#map=20/-12.0963071/-77.048073"}}, {"type": "Feature", "geometry": {"type": "Point", "coordinates": [-77.0752215, -12.065988]}, "properties": {"id": 6129316404, "feat_type": "node", "quality_categories": "kerb_on_top_of_non_crossing, older_than_five_years", "issue_ids": "[13, 2]", "osm_url": "https://www.openstreetmap.org/node/6129316404", "josm_url": "http://127.0.0.1:8111/load_object?new_layer=false&objects=n6129316404", "id_url": "https://www.openstreetmap.org/edit?editor=id&node=6129316404#map=20/-12.065988/-77.0752215"}}, {"type": "Feature", "geometry": {"type": "Point", "coordinates": [-77.0751979, -12.0666195]}, "properties": {"id": 6129316912, "feat_type": "node", "quality_categories": "kerb_on_top_of_non_crossing, older_than_five_years", "issue_ids": "[14, 2]", "osm_url": "https://www.openstreetmap.org/node/6129316912", "josm_url": "http://127.0.0.1:8111/load_object?new_layer=false&objects=n6129316912", "id_url": "https://www.openstreetmap.org/edit?editor=id&node=6129316912#map=20/-12.0666195/-77.0751979"}}, {"type": "Feature", "geometry": {"type": "Point", "coordinates": [-77.0743575, -12.0659498]}, "properties": {"id": 6129318323, "feat_type": "node", "quality_categories": "kerb_on_top_of_non_crossing, older_than_five_years", "issue_ids": "[13, 2]", "osm_url": "https://www.openstreetmap.org/node/6129318323", "josm_url": "http://127.0.0.1:8111/load_object?new_layer=false&objects=n6129318323", "id_url": "https://www.openstreetmap.org/edit?editor=id&node=6129318323#map=20/-12.0659498/-77.0743575"}}, {"type": "Feature", "geometry": {"type": "Point", "coordinates": [-77.07431, -12.0663108]}, "properties": {"id": 6129318324, "feat_type": "node", "quality_categories": "kerb_on_top_of_non_crossing, older_than_five_years", "issue_ids": "[13, 2]", "osm_url": "https://www.openstreetmap.org/node/6129318324", "josm_url": "http://127.0.0.1:8111/load_object?new_layer=false&objects=n6129318324", "id_url": "https://www.openstreetmap.org/edit?editor=id&node=6129318324#map=20/-12.0663108/-77.07431"}}, {"type": "Feature", "geometry": {"type": "Point", "coordinates": [-77.0752057, -12.0664277]}, "properties": {"id": 6129318411, "feat_type": "node", "quality_categories": "kerb_on_top_of_non_crossing, older_than_five_years", "issue_ids": "[14, 2]", "osm_url": "https://www.openstreetmap.org/node/6129318411", "josm_url": "http://127.0.0.1:8111/load_object?new_layer=false&objects=n6129318411", "id_url": "https://www.openstreetmap.org/edit?editor=id&node=6129318411#map=20/-12.0664277/-77.0752057"}}, {"type": "Feature", "geometry": {"type": "Point", "coordinates": [-77.0743343, -12.066615]}, "properties": {"id": 6129320262, "feat_type": "node", "quality_categories": "kerb_on_top_of_non_crossing, older_than_five_years", "issue_ids": "[13, 2]", "osm_url": "https://www.openstreetmap.org/node/6129320262", "josm_url": "http://127.0.0.1:8111/load_object?new_layer=false&objects=n6129320262", "id_url": "https://www.openstreetmap.org/edit?editor=id&node=6129320262#map=20/-12.066615/-77.0743343"}}, {"type": "Feature", "geometry": {"type": "Point", "coordinates": [-77.0370961, -12.1140293]}, "properties": {"id": 6291208617, "feat_type": "node", "quality_categories": "improper_keys, kerb_on_top_of_non_crossing", "issue_ids": "[0, 2]", "osm_url": "https://www.openstreetmap.org/node/6291208617", "josm_url": "http://127.0.0.1:8111/load_object?new_layer=false&objects=n6291208617", "id_url": "https://www.openstreetmap.org/edit?editor=id&node=6291208617#map=20/-12.1140293/-77.0370961"}}, {"type": "Feature", "geometry": {"type": "Point", "coordinates": [-76.897972, -12.0822921]}, "properties": {"id": 7214092357, "feat_type": "node", "quality_categories": "kerb_on_top_of_non_crossing, older_than_five_years", "issue_ids": "[15, 2]", "osm_url": "https://www.openstreetmap.org/node/7214092357", "josm_url": "http://127.0.0.1:8111/load_object?new_layer=false&objects=n7214092357", "id_url": "https://www.openstreetmap.org/edit?editor=id&node=7214092357#map=20/-12.0822921/-76.897972"}}, {"type": "Feature", "geometry": {"type": "Point", "coordinates": [-76.8977421, -12.0822985]}, "properties": {"id": 7221379897, "feat_type": "node", "quality_categories": "kerb_on_top_of_non_crossing, older_than_five_years", "issue_ids": "[16, 2]", "osm_url": "https://www.openstreetmap.org/node/7221379897", "josm_url": "http://127.0.0.1:8111/load_object?new_layer=false&objects=n7221379897", "id_url": "https://www.openstreetmap.org/edit?editor=id&node=7221379897#map=20/-12.0822985/-76.8977421"}}, {"type": "Feature", "geometry": {"type": "Point", "coordinates": [-76.8978095, -12.0838436]}, "properties": {"id": 7221379903, "feat_type": "node", "quality_categories": "kerb_on_top_of_non_crossing, older_than_five_years", "issue_ids": "[16, 2]", "osm_url": "https://www.openstreetmap.org/node/7221379903", "josm_url": "http://127.0.0.1:8111/load_object?new_layer=false&objects=n7221379903", "id_url": "https://www.openstreetmap.org/edit?editor=id&node=7221379903#map=20/-12.0838436/-76.8978095"}}, {"type": "Feature", "geometry": {"type": "Point", "coordinates": [-76.8980331, -12.0838396]}, "properties": {"id": 7221379904, "feat_type": "node", "quality_categories": "kerb_on_top_of_non_crossing, older_than_five_years", "issue_ids": "[16, 2]", "osm_url": "https://www.openstreetmap.org/node/7221379904", "josm_url": "http://127.0.0.1:8111/load_object?new_layer=false&objects=n7221379904", "id_url": "https://www.openstreetmap.org/edit?editor=id&node=7221379904#map=20/-12.0838396/-76.8980331"}}, {"type": "Feature", "geometry": {"type": "Point", "coordinates": [-77.0004847, -12.0452415]}, "properties": {"id": 9275780901, "feat_type": "node", "quality_categories": "improper_keys, kerb_on_top_of_non_crossing", "issue_ids": "[0, 2]", "osm_url": "https://www.openstreetmap.org/node/9275780901", "josm_url": "http://127.0.0.1:8111/load_object?new_layer=false&objects=n9275780901", "id_url": "https://www.openstreetmap.org/edit?editor=id&node=9275780901#map=20/-12.0452415/-77.0004847"}}, {"type": "Feature", "geometry": {"type": "Point", "coordinates": [-77.0084562, -11.9901725]}, "properties": {"id": 10703110706, "feat_type": "node", "quality_categories": "improper_keys, kerb_on_top_of_non_crossing", "issue_ids": "[4, 2]", "osm_url": "https://www.openstreetmap.org/node/10703110706", "josm_url": "http://127.0.0.1:8111/load_object?new_layer=false&objects=n10703110706", "id_url": "https://www.openstreetmap.org/edit?editor=id&node=10703110706#map=20/-11.9901725/-77.0084562"}}, {"type": "Feature", "geometry": {"type": "Point", "coordinates": [-77.0299037, -12.1297463]}, "properties": {"id": 10783381742, "feat_type": "node", "quality_categories": "improper_keys, kerb_on_top_of_non_crossing, uncanny_keys", "issue_ids": "[5, 3, 2]", "osm_url": "https://www.openstreetmap.org/node/10783381742", "josm_url": "http://127.0.0.1:8111/load_object?new_layer=false&objects=n10783381742", "id_url": "https://www.openstreetmap.org/edit?editor=id&node=10783381742#map=20/-12.1297463/-77.0299037"}}, {"type": "Feature", "geometry": {"type": "Point", "coordinates": [-77.0357761, -12.121212]}, "properties": {"id": 10800975114, "feat_type": "node", "quality_categories": "kerb_on_top_of_non_crossing, uncanny_keys", "issue_ids": "[3, 2]", "osm_url": "https://www.openstreetmap.org/node/10800975114", "josm_url": "http://127.0.0.1:8111/load_object?new_layer=false&objects=n10800975114", "id_url": "https://www.openstreetmap.org/edit?editor=id&node=10800975114#map=20/-12.121212/-77.0357761"}}, {"type": "Feature", "geometry": {"type": "Point", "coordinates": [-77.0591274, -12.008677]}, "properties": {"id": 11054252705, "feat_type": "node", "quality_categories": "improper_keys, kerb_on_top_of_non_crossing", "issue_ids": "[0, 2]", "osm_url": "https://www.openstreetmap.org/node/11054252705", "josm_url": "http://127.0.0.1:8111/load_object?new_layer=false&objects=n11054252705", "id_url": "https://www.openstreetmap.org/edit?editor=id&node=11054252705#map=20/-12.008677/-77.0591274"}}, {"type": "Feature", "geometry": {"type": "Point", "coordinates": [-77.05937, -12.0090025]}, "properties": {"id": 11054252706, "feat_type": "node", "quality_categories": "improper_keys, kerb_on_top_of_non_crossing", "issue_ids": "[0, 2]", "osm_url": "https://www.openstreetmap.org/node/11054252706", "josm_url": "http://127.0.0.1:8111/load_object?new_layer=false&objects=n11054252706", "id_url": "https://www.openstreetmap.org/edit?editor=id&node=11054252706#map=20/-12.0090025/-77.05937"}}, {"type": "Feature", "geometry": {"type": "Point", "coordinates": [-77.0590534, -12.0920315]}, "properties": {"id": 11250618870, "feat_type": "node", "quality_categories": "improper_keys, kerb_on_top_of_non_crossing", "issue_ids": "[0, 2]", "osm_url": "https://www.openstreetmap.org/node/11250618870", "josm_url": "http://127.0.0.1:8111/load_object?new_layer=false&objects=n11250618870", "id_url": "https://www.openstreetmap.org/edit?editor=id&node=11250618870#map=20/-12.0920315/-77.0590534"}}, {"type": "Feature", "geometry": {"type": "Point", "coordinates": [-76.9525769, -12.0929496]}, "properties": {"id": 12410925705, "feat_type": "node", "quality_categories": "improper_keys, kerb_on_top_of_non_crossing", "issue_ids": "[17, 2]", "osm_url": "https://www.openstreetmap.org/node/12410925705", "josm_url": "http://127.0.0.1:8111/load_object?new_layer=false&objects=n12410925705", "id_url": "https://www.openstreetmap.org/edit?editor=id&node=12410925705#map=20/-12.0929496/-76.9525769"}}, {"type": "Feature", "geometry": {"type": "Point", "coordinates": [-76.9607641, -12.0632006]}, "properties": {"id": 12429057801, "feat_type": "node", "quality_categories": "kerb_on_top_of_non_crossing, uncanny_keys", "issue_ids": "[3, 2]", "osm_url": "https://www.openstreetmap.org/node/12429057801", "josm_url": "http://127.0.0.1:8111/load_object?new_layer=false&objects=n12429057801", "id_url": "https://www.openstreetmap.org/edit?editor=id&node=12429057801#map=20/-12.0632006/-76.9607641"}}, {"type": "Feature", "geometry": {"type": "Point", "coordinates": [-77.070636, -12.0958135]}, "properties": {"id": 12591591715, "feat_type": "node", "quality_categories": "improper_keys, kerb_on_top_of_non_crossing", "issue_ids": "[0, 2]", "osm_url": "https://www.openstreetmap.org/node/12591591715", "josm_url": "http://127.0.0.1:8111/load_object?new_layer=false&objects=n12591591715", "id_url": "https://www.openstreetmap.org/edit?editor=id&node=12591591715#map=20/-12.0958135/-77.070636"}}, {"type": "Feature", "geometry": {"type": "Point", "coordinates": [-77.0709869, -12.0956834]}, "properties": {"id": 12591591716, "feat_type": "node", "quality_categories": "improper_keys, kerb_on_top_of_non_crossing", "issue_ids": "[0, 2]", "osm_url": "https://www.openstreetmap.org/node/12591591716", "josm_url": "http://127.0.0.1:8111/load_object?new_layer=false&objects=n12591591716", "id_url": "https://www.openstreetmap.org/edit?editor=id&node=12591591716#map=20/-12.0956834/-77.0709869"}}, {"type": "Feature", "geometry": {"type": "Point", "coordinates": [-77.0684627, -12.093185]}, "properties": {"id": 12591591717, "feat_type": "node", "quality_categories": "improper_keys, kerb_on_top_of_non_crossing", "issue_ids": "[0, 2]", "osm_url": "https://www.openstreetmap.org/node/12591591717", "josm_url": "http://127.0.0.1:8111/load_object?new_layer=false&objects=n12591591717", "id_url": "https://www.openstreetmap.org/edit?editor=id&node=12591591717#map=20/-12.093185/-77.0684627"}}, {"type": "Feature", "geometry": {"type": "Point", "coordinates": [-77.0688199, -12.0930638]}, "properties": {"id": 12591591718, "feat_type": "node", "quality_categories": "improper_keys, kerb_on_top_of_non_crossing", "issue_ids": "[0, 2]", "osm_url": "https://www.openstreetmap.org/node/12591591718", "josm_url": "http://127.0.0.1:8111/load_object?new_layer=false&objects=n12591591718", "id_url": "https://www.openstreetmap.org/edit?editor=id&node=12591591718#map=20/-12.0930638/-77.0688199"}}, {"type": "Feature", "geometry": {"type": "Point", "coordinates": [-77.0016925, -11.9668603]}, "properties": {"id": 12643422840, "feat_type": "node", "quality_categories": "improper_keys, kerb_on_top_of_non_crossing, wrong_mispelled_or_unlisted_values", "issue_ids": "[5, 18, 2]", "osm_url": "https://www.openstreetmap.org/node/12643422840", "josm_url": "http://127.0.0.1:8111/load_object?new_layer=false&objects=n12643422840", "id_url": "https://www.openstreetmap.org/edit?editor=id&node=12643422840#map=20/-11.9668603/-77.0016925"}}, {"type": "Feature", "geometry": {"type": "Point", "coordinates": [-77.0358978, -12.0825565]}, "properties": {"id": 12798226212, "feat_type": "node", "quality_categories": "improper_keys, kerb_on_top_of_non_crossing", "issue_ids": "[5, 2]", "osm_url": "https://www.openstreetmap.org/node/12798226212", "josm_url": "http://127.0.0.1:8111/load_object?new_layer=false&objects=n12798226212", "id_url": "https://www.openstreetmap.org/edit?editor=id&node=12798226212#map=20/-12.0825565/-77.0358978"}}, {"type": "Feature", "geometry": {"type": "Point", "coordinates": [-77.035807, -12.0825997]}, "properties": {"id": 12798226213, "feat_type": "node", "quality_categories": "improper_keys, kerb_on_top_of_non_crossing", "issue_ids": "[5, 2]", "osm_url": "https://www.openstreetmap.org/node/12798226213", "josm_url": "http://127.0.0.1:8111/load_object?new_layer=false&objects=n12798226213", "id_url": "https://www.openstreetmap.org/edit?editor=id&node=12798226213#map=20/-12.0825997/-77.035807"}}, {"type": "Feature", "geometry": {"type": "Point", "coordinates": [-77.0333768, -12.1124156]}, "properties": {"id": 12820790235, "feat_type": "node", "quality_categories": "improper_keys, kerb_on_top_of_non_crossing", "issue_ids": "[0, 2]", "osm_url": "https://www.openstreetmap.org/node/12820790235", "josm_url": "http://127.0.0.1:8111/load_object?new_layer=false&objects=n12820790235", "id_url": "https://www.openstreetmap.org/edit?editor=id&node=12820790235#map=20/-12.1124156/-77.0333768"}}, {"type": "Feature", "geometry": {"type": "Point", "coordinates": [-76.9964025, -12.1650924]}, "properties": {"id": 13040290427, "feat_type": "node", "quality_categories": "improper_keys, kerb_on_top_of_non_crossing", "issue_ids": "[17, 2]", "osm_url": "https://www.openstreetmap.org/node/13040290427", "josm_url": "http://127.0.0.1:8111/load_object?new_layer=false&objects=n13040290427", "id_url": "https://www.openstreetmap.org/edit?editor=id&node=13040290427#map=20/-12.1650924/-76.9964025"}}, {"type": "Feature", "geometry": {"type": "Point", "coordinates": [-76.9945598, -12.1638988]}, "properties": {"id": 13040290453, "feat_type": "node", "quality_categories": "improper_keys, kerb_on_top_of_non_crossing", "issue_ids": "[17, 2]", "osm_url": "https://www.openstreetmap.org/node/13040290453", "josm_url": "http://127.0.0.1:8111/load_object?new_layer=false&objects=n13040290453", "id_url": "https://www.openstreetmap.org/edit?editor=id&node=13040290453#map=20/-12.1638988/-76.9945598"}}, {"type": "Feature", "geometry": {"type": "Point", "coordinates": [-76.9946189, -12.1640075]}, "properties": {"id": 13040290454, "feat_type": "node", "quality_categories": "improper_keys, kerb_on_top_of_non_crossing", "issue_ids": "[17, 2]", "osm_url": "https://www.openstreetmap.org/node/13040290454", "josm_url": "http://127.0.0.1:8111/load_object?new_layer=false&objects=n13040290454", "id_url": "https://www.openstreetmap.org/edit?editor=id&node=13040290454#map=20/-12.1640075/-76.9946189"}}, {"type": "Feature", "geometry": {"type": "Point", "coordinates": [-76.9941975, -12.1642502]}, "properties": {"id": 13040290836, "feat_type": "node", "quality_categories": "improper_keys, kerb_on_top_of_non_crossing", "issue_ids": "[17, 2]", "osm_url": "https://www.openstreetmap.org/node/13040290836", "josm_url": "http://127.0.0.1:8111/load_object?new_layer=false&objects=n13040290836", "id_url": "https://www.openstreetmap.org/edit?editor=id&node=13040290836#map=20/-12.1642502/-76.9941975"}}, {"type": "Feature", "geometry": {"type": "Point", "coordinates": [-76.9865303, -12.1484393]}, "properties": {"id": 442761245, "feat_type": "node", "quality_categories": "kerb_on_top_of_non_crossing", "issue_ids": "[2]", "osm_url": "https://www.openstreetmap.org/node/442761245", "josm_url": "http://127.0.0.1:8111/load_object?new_layer=false&objects=n442761245", "id_url": "https://www.openstreetmap.org/edit?editor=id&node=442761245#map=20/-12.1484393/-76.9865303"}}, {"type": "Feature", "geometry": {"type": "Point", "coordinates": [-76.9863797, -12.1484979]}, "properties": {"id": 3211859080, "feat_type": "node", "quality_categories": "kerb_on_top_of_non_crossing", "issue_ids": "[2]", "osm_url": "https://www.openstreetmap.org/node/3211859080", "josm_url": "http://127.0.0.1:8111/load_object?new_layer=false&objects=n3211859080", "id_url": "https://www.openstreetmap.org/edit?editor=id&node=3211859080#map=20/-12.1484979/-76.9863797"}}, {"type": "Feature", "geometry": {"type": "Point", "coordinates": [-76.9832963, -12.1356861]}, "properties": {"id": 3232462062, "feat_type": "node", "quality_categories": "kerb_on_top_of_non_crossing", "issue_ids": "[2]", "osm_url": "https://www.openstreetmap.org/node/3232462062", "josm_url": "http://127.0.0.1:8111/load_object?new_layer=false&objects=n3232462062", "id_url": "https://www.openstreetmap.org/edit?editor=id&node=3232462062#map=20/-12.1356861/-76.9832963"}}, {"type": "Feature", "geometry": {"type": "Point", "coordinates": [-77.0511807, -12.0988818]}, "properties": {"id": 3246794196, "feat_type": "node", "quality_categories": "kerb_on_top_of_non_crossing", "issue_ids": "[2]", "osm_url": "https://www.openstreetmap.org/node/3246794196", "josm_url": "http://127.0.0.1:8111/load_object?new_layer=false&objects=n3246794196", "id_url": "https://www.openstreetmap.org/edit?editor=id&node=3246794196#map=20/-12.0988818/-77.0511807"}}, {"type": "Feature", "geometry": {"type": "Point", "coordinates": [-77.0512782, -12.0989833]}, "properties": {"id": 3246794199, "feat_type": "node", "quality_categories": "kerb_on_top_of_non_crossing", "issue_ids": "[2]", "osm_url": "https://www.openstreetmap.org/node/3246794199", "josm_url": "http://127.0.0.1:8111/load_object?new_layer=false&objects=n3246794199", "id_url": "https://www.openstreetmap.org/edit?editor=id&node=3246794199#map=20/-12.0989833/-77.0512782"}}, {"type": "Feature", "geometry": {"type": "Point", "coordinates": [-77.0238189, -12.1306844]}, "properties": {"id": 3974039014, "feat_type": "node", "quality_categories": "kerb_on_top_of_non_crossing", "issue_ids": "[2]", "osm_url": "https://www.openstreetmap.org/node/3974039014", "josm_url": "http://127.0.0.1:8111/load_object?new_layer=false&objects=n3974039014", "id_url": "https://www.openstreetmap.org/edit?editor=id&node=3974039014#map=20/-12.1306844/-77.0238189"}}, {"type": "Feature", "geometry": {"type": "Point", "coordinates": [-77.0696611, -12.0905479]}, "properties": {"id": 5047042835, "feat_type": "node", "quality_categories": "kerb_on_top_of_non_crossing", "issue_ids": "[2]", "osm_url": "https://www.openstreetmap.org/node/5047042835", "josm_url": "http://127.0.0.1:8111/load_object?new_layer=false&objects=n5047042835", "id_url": "https://www.openstreetmap.org/edit?editor=id&node=5047042835#map=20/-12.0905479/-77.0696611"}}, {"type": "Feature", "geometry": {"type": "Point", "coordinates": [-77.0747, -12.0659652]}, "properties": {"id": 6129318302, "feat_type": "node", "quality_categories": "kerb_on_top_of_non_crossing", "issue_ids": "[2]", "osm_url": "https://www.openstreetmap.org/node/6129318302", "josm_url": "http://127.0.0.1:8111/load_object?new_layer=false&objects=n6129318302", "id_url": "https://www.openstreetmap.org/edit?editor=id&node=6129318302#map=20/-12.0659652/-77.0747"}}, {"type": "Feature", "geometry": {"type": "Point", "coordinates": [-77.0517659, -12.0950302]}, "properties": {"id": 7070185614, "feat_type": "node", "quality_categories": "kerb_on_top_of_non_crossing", "issue_ids": "[2]", "osm_url": "https://www.openstreetmap.org/node/7070185614", "josm_url": "http://127.0.0.1:8111/load_object?new_layer=false&objects=n7070185614", "id_url": "https://www.openstreetmap.org/edit?editor=id&node=7070185614#map=20/-12.0950302/-77.0517659"}}, {"type": "Feature", "geometry": {"type": "Point", "coordinates": [-77.0531519, -12.0740096]}, "properties": {"id": 7070308564, "feat_type": "node", "quality_categories": "kerb_on_top_of_non_crossing", "issue_ids": "[2]", "osm_url": "https://www.openstreetmap.org/node/7070308564", "josm_url": "http://127.0.0.1:8111/load_object?new_layer=false&objects=n7070308564", "id_url": "https://www.openstreetmap.org/edit?editor=id&node=7070308564#map=20/-12.0740096/-77.0531519"}}, {"type": "Feature", "geometry": {"type": "Point", "coordinates": [-77.0474646, -12.0671064]}, "properties": {"id": 7070315662, "feat_type": "node", "quality_categories": "kerb_on_top_of_non_crossing", "issue_ids": "[2]", "osm_url": "https://www.openstreetmap.org/node/7070315662", "josm_url": "http://127.0.0.1:8111/load_object?new_layer=false&objects=n7070315662", "id_url": "https://www.openstreetmap.org/edit?editor=id&node=7070315662#map=20/-12.0671064/-77.0474646"}}, {"type": "Feature", "geometry": {"type": "Point", "coordinates": [-77.0246807, -12.1686901]}, "properties": {"id": 7089664430, "feat_type": "node", "quality_categories": "kerb_on_top_of_non_crossing", "issue_ids": "[2]", "osm_url": "https://www.openstreetmap.org/node/7089664430", "josm_url": "http://127.0.0.1:8111/load_object?new_layer=false&objects=n7089664430", "id_url": "https://www.openstreetmap.org/edit?editor=id&node=7089664430#map=20/-12.1686901/-77.0246807"}}, {"type": "Feature", "geometry": {"type": "Point", "coordinates": [-77.0236647, -12.169741]}, "properties": {"id": 7089676024, "feat_type": "node", "quality_categories": "kerb_on_top_of_non_crossing", "issue_ids": "[2]", "osm_url": "https://www.openstreetmap.org/node/7089676024", "josm_url": "http://127.0.0.1:8111/load_object?new_layer=false&objects=n7089676024", "id_url": "https://www.openstreetmap.org/edit?editor=id&node=7089676024#map=20/-12.169741/-77.0236647"}}, {"type": "Feature", "geometry": {"type": "Point", "coordinates": [-77.0940338, -12.0790097]}, "properties": {"id": 8939912178, "feat_type": "node", "quality_categories": "kerb_on_top_of_non_crossing", "issue_ids": "[2]", "osm_url": "https://www.openstreetmap.org/node/8939912178", "josm_url": "http://127.0.0.1:8111/load_object?new_layer=false&objects=n8939912178", "id_url": "https://www.openstreetmap.org/edit?editor=id&node=8939912178#map=20/-12.0790097/-77.0940338"}}, {"type": "Feature", "geometry": {"type": "Point", "coordinates": [-77.0054285, -12.118219]}, "properties": {"id": 9125047935, "feat_type": "node", "quality_categories": "kerb_on_top_of_non_crossing", "issue_ids": "[2]", "osm_url": "https://www.openstreetmap.org/node/9125047935", "josm_url": "http://127.0.0.1:8111/load_object?new_layer=false&objects=n9125047935", "id_url": "https://www.openstreetmap.org/edit?editor=id&node=9125047935#map=20/-12.118219/-77.0054285"}}, {"type": "Feature", "geometry": {"type": "Point", "coordinates": [-76.9853401, -12.1405608]}, "properties": {"id": 9164073350, "feat_type": "node", "quality_categories": "kerb_on_top_of_non_crossing", "issue_ids": "[2]", "osm_url": "https://www.openstreetmap.org/node/9164073350", "josm_url": "http://127.0.0.1:8111/load_object?new_layer=false&objects=n9164073350", "id_url": "https://www.openstreetmap.org/edit?editor=id&node=9164073350#map=20/-12.1405608/-76.9853401"}}, {"type": "Feature", "geometry": {"type": "Point", "coordinates": [-76.9490413, -12.1028164]}, "properties": {"id": 9284555523, "feat_type": "node", "quality_categories": "kerb_on_top_of_non_crossing", "issue_ids": "[2]", "osm_url": "https://www.openstreetmap.org/node/9284555523", "josm_url": "http://127.0.0.1:8111/load_object?new_layer=false&objects=n9284555523", "id_url": "https://www.openstreetmap.org/edit?editor=id&node=9284555523#map=20/-12.1028164/-76.9490413"}}, {"type": "Feature", "geometry": {"type": "Point", "coordinates": [-77.0564242, -12.1016761]}, "properties": {"id": 10569202618, "feat_type": "node", "quality_categories": "kerb_on_top_of_non_crossing", "issue_ids": "[2]", "osm_url": "https://www.openstreetmap.org/node/10569202618", "josm_url": "http://127.0.0.1:8111/load_object?new_layer=false&objects=n10569202618", "id_url": "https://www.openstreetmap.org/edit?editor=id&node=10569202618#map=20/-12.1016761/-77.0564242"}}, {"type": "Feature", "geometry": {"type": "Point", "coordinates": [-77.0565053, -12.1018363]}, "properties": {"id": 10569202619, "feat_type": "node", "quality_categories": "kerb_on_top_of_non_crossing", "issue_ids": "[2]", "osm_url": "https://www.openstreetmap.org/node/10569202619", "josm_url": "http://127.0.0.1:8111/load_object?new_layer=false&objects=n10569202619", "id_url": "https://www.openstreetmap.org/edit?editor=id&node=10569202619#map=20/-12.1018363/-77.0565053"}}, {"type": "Feature", "geometry": {"type": "Point", "coordinates": [-77.0553768, -12.1021636]}, "properties": {"id": 10569202621, "feat_type": "node", "quality_categories": "kerb_on_top_of_non_crossing", "issue_ids": "[2]", "osm_url": "https://www.openstreetmap.org/node/10569202621", "josm_url": "http://127.0.0.1:8111/load_object?new_layer=false&objects=n10569202621", "id_url": "https://www.openstreetmap.org/edit?editor=id&node=10569202621#map=20/-12.1021636/-77.0553768"}}, {"type": "Feature", "geometry": {"type": "Point", "coordinates": [-77.0554149, -12.102353]}, "properties": {"id": 10569202622, "feat_type": "node", "quality_categories": "kerb_on_top_of_non_crossing", "issue_ids": "[2]", "osm_url": "https://www.openstreetmap.org/node/10569202622", "josm_url": "http://127.0.0.1:8111/load_object?new_layer=false&objects=n10569202622", "id_url": "https://www.openstreetmap.org/edit?editor=id&node=10569202622#map=20/-12.102353/-77.0554149"}}, {"type": "Feature", "geometry": {"type": "Point", "coordinates": [-77.129308, -11.8138077]}, "properties": {"id": 10737669548, "feat_type": "node", "quality_categories": "kerb_on_top_of_non_crossing", "issue_ids": "[2]", "osm_url": "https://www.openstreetmap.org/node/10737669548", "josm_url": "http://127.0.0.1:8111/load_object?new_layer=false&objects=n10737669548", "id_url": "https://www.openstreetmap.org/edit?editor=id&node=10737669548#map=20/-11.8138077/-77.129308"}}, {"type": "Feature", "geometry": {"type": "Point", "coordinates": [-77.074695, -11.9833618]}, "properties": {"id": 10741801464, "feat_type": "node", "quality_categories": "kerb_on_top_of_non_crossing", "issue_ids": "[2]", "osm_url": "https://www.openstreetmap.org/node/10741801464", "josm_url": "http://127.0.0.1:8111/load_object?new_layer=false&objects=n10741801464", "id_url": "https://www.openstreetmap.org/edit?editor=id&node=10741801464#map=20/-11.9833618/-77.074695"}}, {"type": "Feature", "geometry": {"type": "Point", "coordinates": [-77.0470578, -12.111757]}, "properties": {"id": 10800975161, "feat_type": "node", "quality_categories": "kerb_on_top_of_non_crossing", "issue_ids": "[2]", "osm_url": "https://www.openstreetmap.org/node/10800975161", "josm_url": "http://127.0.0.1:8111/load_object?new_layer=false&objects=n10800975161", "id_url": "https://www.openstreetmap.org/edit?editor=id&node=10800975161#map=20/-12.111757/-77.0470578"}}, {"type": "Feature", "geometry": {"type": "Point", "coordinates": [-77.0584778, -12.0909735]}, "properties": {"id": 11357443749, "feat_type": "node", "quality_categories": "kerb_on_top_of_non_crossing", "issue_ids": "[2]", "osm_url": "https://www.openstreetmap.org/node/11357443749", "josm_url": "http://127.0.0.1:8111/load_object?new_layer=false&objects=n11357443749", "id_url": "https://www.openstreetmap.org/edit?editor=id&node=11357443749#map=20/-12.0909735/-77.0584778"}}, {"type": "Feature", "geometry": {"type": "Point", "coordinates": [-76.9731244, -12.0994981]}, "properties": {"id": 11397179111, "feat_type": "node", "quality_categories": "kerb_on_top_of_non_crossing", "issue_ids": "[2]", "osm_url": "https://www.openstreetmap.org/node/11397179111", "josm_url": "http://127.0.0.1:8111/load_object?new_layer=false&objects=n11397179111", "id_url": "https://www.openstreetmap.org/edit?editor=id&node=11397179111#map=20/-12.0994981/-76.9731244"}}, {"type": "Feature", "geometry": {"type": "Point", "coordinates": [-76.9726705, -12.099544]}, "properties": {"id": 11397179112, "feat_type": "node", "quality_categories": "kerb_on_top_of_non_crossing", "issue_ids": "[2]", "osm_url": "https://www.openstreetmap.org/node/11397179112", "josm_url": "http://127.0.0.1:8111/load_object?new_layer=false&objects=n11397179112", "id_url": "https://www.openstreetmap.org/edit?editor=id&node=11397179112#map=20/-12.099544/-76.9726705"}}, {"type": "Feature", "geometry": {"type": "Point", "coordinates": [-76.9836433, -12.143472]}, "properties": {"id": 12408794899, "feat_type": "node", "quality_categories": "kerb_on_top_of_non_crossing", "issue_ids": "[2]", "osm_url": "https://www.openstreetmap.org/node/12408794899", "josm_url": "http://127.0.0.1:8111/load_object?new_layer=false&objects=n12408794899", "id_url": "https://www.openstreetmap.org/edit?editor=id&node=12408794899#map=20/-12.143472/-76.9836433"}}, {"type": "Feature", "geometry": {"type": "Point", "coordinates": [-76.9841261, -12.1433868]}, "properties": {"id": 12408794900, "feat_type": "node", "quality_categories": "kerb_on_top_of_non_crossing", "issue_ids": "[2]", "osm_url": "https://www.openstreetmap.org/node/12408794900", "josm_url": "http://127.0.0.1:8111/load_object?new_layer=false&objects=n12408794900", "id_url": "https://www.openstreetmap.org/edit?editor=id&node=12408794900#map=20/-12.1433868/-76.9841261"}}, {"type": "Feature", "geometry": {"type": "Point", "coordinates": [-76.9509029, -12.0913528]}, "properties": {"id": 12410879716, "feat_type": "node", "quality_categories": "kerb_on_top_of_non_crossing", "issue_ids": "[2]", "osm_url": "https://www.openstreetmap.org/node/12410879716", "josm_url": "http://127.0.0.1:8111/load_object?new_layer=false&objects=n12410879716", "id_url": "https://www.openstreetmap.org/edit?editor=id&node=12410879716#map=20/-12.0913528/-76.9509029"}}, {"type": "Feature", "geometry": {"type": "Point", "coordinates": [-77.0589792, -12.1024027]}, "properties": {"id": 12428184973, "feat_type": "node", "quality_categories": "kerb_on_top_of_non_crossing", "issue_ids": "[2]", "osm_url": "https://www.openstreetmap.org/node/12428184973", "josm_url": "http://127.0.0.1:8111/load_object?new_layer=false&objects=n12428184973", "id_url": "https://www.openstreetmap.org/edit?editor=id&node=12428184973#map=20/-12.1024027/-77.0589792"}}, {"type": "Feature", "geometry": {"type": "Point", "coordinates": [-77.0596551, -12.101751]}, "properties": {"id": 12428184977, "feat_type": "node", "quality_categories": "kerb_on_top_of_non_crossing", "issue_ids": "[2]", "osm_url": "https://www.openstreetmap.org/node/12428184977", "josm_url": "http://127.0.0.1:8111/load_object?new_layer=false&objects=n12428184977", "id_url": "https://www.openstreetmap.org/edit?editor=id&node=12428184977#map=20/-12.101751/-77.0596551"}}, {"type": "Feature", "geometry": {"type": "Point", "coordinates": [-77.0478675, -12.1139747]}, "properties": {"id": 12430876746, "feat_type": "node", "quality_categories": "kerb_on_top_of_non_crossing", "issue_ids": "[2]", "osm_url": "https://www.openstreetmap.org/node/12430876746", "josm_url": "http://127.0.0.1:8111/load_object?new_layer=false&objects=n12430876746", "id_url": "https://www.openstreetmap.org/edit?editor=id&node=12430876746#map=20/-12.1139747/-77.0478675"}}, {"type": "Feature", "geometry": {"type": "Point", "coordinates": [-77.0477267, -12.1138449]}, "properties": {"id": 12430876747, "feat_type": "node", "quality_categories": "kerb_on_top_of_non_crossing", "issue_ids": "[2]", "osm_url": "https://www.openstreetmap.org/node/12430876747", "josm_url": "http://127.0.0.1:8111/load_object?new_layer=false&objects=n12430876747", "id_url": "https://www.openstreetmap.org/edit?editor=id&node=12430876747#map=20/-12.1138449/-77.0477267"}}, {"type": "Feature", "geometry": {"type": "Point", "coordinates": [-77.0334686, -12.1137781]}, "properties": {"id": 12820790221, "feat_type": "node", "quality_categories": "kerb_on_top_of_non_crossing", "issue_ids": "[2]", "osm_url": "https://www.openstreetmap.org/node/12820790221", "josm_url": "http://127.0.0.1:8111/load_object?new_layer=false&objects=n12820790221", "id_url": "https://www.openstreetmap.org/edit?editor=id&node=12820790221#map=20/-12.1137781/-77.0334686"}}, {"type": "Feature", "geometry": {"type": "Point", "coordinates": [-77.0494883, -12.0947153]}, "properties": {"id": 12884045263, "feat_type": "node", "quality_categories": "kerb_on_top_of_non_crossing", "issue_ids": "[2]", "osm_url": "https://www.openstreetmap.org/node/12884045263", "josm_url": "http://127.0.0.1:8111/load_object?new_layer=false&objects=n12884045263", "id_url": "https://www.openstreetmap.org/edit?editor=id&node=12884045263#map=20/-12.0947153/-77.0494883"}}, {"type": "Feature", "geometry": {"type": "Point", "coordinates": [-76.973138, -12.0994009]}, "properties": {"id": 12885521682, "feat_type": "node", "quality_categories": "kerb_on_top_of_non_crossing", "issue_ids": "[2]", "osm_url": "https://www.openstreetmap.org/node/12885521682", "josm_url": "http://127.0.0.1:8111/load_object?new_layer=false&objects=n12885521682", "id_url": "https://www.openstreetmap.org/edit?editor=id&node=12885521682#map=20/-12.0994009/-76.973138"}}, {"type": "Feature", "geometry": {"type": "Point", "coordinates": [-76.9730607, -12.0999281]}, "properties": {"id": 12885525603, "feat_type": "node", "quality_categories": "kerb_on_top_of_non_crossing", "issue_ids": "[2]", "osm_url": "https://www.openstreetmap.org/node/12885525603", "josm_url": "http://127.0.0.1:8111/load_object?new_layer=false&objects=n12885525603", "id_url": "https://www.openstreetmap.org/edit?editor=id&node=12885525603#map=20/-12.0999281/-76.9730607"}}, {"type": "Feature", "geometry": {"type": "Point", "coordinates": [-77.0528463, -12.0741965]}, "properties": {"id": 13084418116, "feat_type": "node", "quality_categories": "kerb_on_top_of_non_crossing", "issue_ids": "[2]", "osm_url": "https://www.openstreetmap.org/node/13084418116", "josm_url": "http://127.0.0.1:8111/load_object?new_layer=false&objects=n13084418116", "id_url": "https://www.openstreetmap.org/edit?editor=id&node=13084418116#map=20/-12.0741965/-77.0528463"}}, {"type": "Feature", "geometry": {"type": "Point", "coordinates": [-76.9204906, -12.0841922]}, "properties": {"id": 13452773185, "feat_type": "node", "quality_categories": "kerb_on_top_of_non_crossing", "issue_ids": "[2]", "osm_url": "https://www.openstreetmap.org/node/13452773185", "josm_url": "http://127.0.0.1:8111/load_object?new_layer=false&objects=n13452773185", "id_url": "https://www.openstreetmap.org/edit?editor=id&node=13452773185#map=20/-12.0841922/-76.9204906"}}, {"type": "Feature", "geometry": {"type": "Point", "coordinates": [-76.920497, -12.0842349]}, "properties": {"id": 13452773186, "feat_type": "node", "quality_categories": "kerb_on_top_of_non_crossing", "issue_ids": "[2]", "osm_url": "https://www.openstreetmap.org/node/13452773186", "josm_url": "http://127.0.0.1:8111/load_object?new_layer=false&objects=n13452773186", "id_url": "https://www.openstreetmap.org/edit?editor=id&node=13452773186#map=20/-12.0842349/-76.920497"}}, {"type": "Feature", "geometry": {"type": "Point", "coordinates": [-76.9204823, -12.0841362]}, "properties": {"id": 13452773187, "feat_type": "node", "quality_categories": "kerb_on_top_of_non_crossing", "issue_ids": "[2]", "osm_url": "https://www.openstreetmap.org/node/13452773187", "josm_url": "http://127.0.0.1:8111/load_object?new_layer=false&objects=n13452773187", "id_url": "https://www.openstreetmap.org/edit?editor=id&node=13452773187#map=20/-12.0841362/-76.9204823"}}, {"type": "Feature", "geometry": {"type": "Point", "coordinates": [-76.920507, -12.0843022]}, "properties": {"id": 13452773188, "feat_type": "node", "quality_categories": "kerb_on_top_of_non_crossing", "issue_ids": "[2]", "osm_url": "https://www.openstreetmap.org/node/13452773188", "josm_url": "http://127.0.0.1:8111/load_object?new_layer=false&objects=n13452773188", "id_url": "https://www.openstreetmap.org/edit?editor=id&node=13452773188#map=20/-12.0843022/-76.920507"}}, {"type": "Feature", "geometry": {"type": "Point", "coordinates": [-76.9731919, -12.0989721]}, "properties": {"id": 13542133569, "feat_type": "node", "quality_categories": "kerb_on_top_of_non_crossing", "issue_ids": "[2]", "osm_url": "https://www.openstreetmap.org/node/13542133569", "josm_url": "http://127.0.0.1:8111/load_object?new_layer=false&objects=n13542133569", "id_url": "https://www.openstreetmap.org/edit?editor=id&node=13542133569#map=20/-12.0989721/-76.9731919"}}, {"type": "Feature", "geometry": {"type": "Point", "coordinates": [-76.9727826, -12.0998342]}, "properties": {"id": 13542253151, "feat_type": "node", "quality_categories": "kerb_on_top_of_non_crossing", "issue_ids": "[2]", "osm_url": "https://www.openstreetmap.org/node/13542253151", "josm_url": "http://127.0.0.1:8111/load_object?new_layer=false&objects=n13542253151", "id_url": "https://www.openstreetmap.org/edit?editor=id&node=13542253151#map=20/-12.0998342/-76.9727826"}}, {"type": "Feature", "geometry": {"type": "Point", "coordinates": [-76.9728928, -12.1001114]}, "properties": {"id": 13542253309, "feat_type": "node", "quality_categories": "kerb_on_top_of_non_crossing", "issue_ids": "[2]", "osm_url": "https://www.openstreetmap.org/node/13542253309", "josm_url": "http://127.0.0.1:8111/load_object?new_layer=false&objects=n13542253309", "id_url": "https://www.openstreetmap.org/edit?editor=id&node=13542253309#map=20/-12.1001114/-76.9728928"}}, {"type": "Feature", "geometry": {"type": "Point", "coordinates": [-76.9730431, -12.1000599]}, "properties": {"id": 13542253311, "feat_type": "node", "quality_categories": "kerb_on_top_of_non_crossing", "issue_ids": "[2]", "osm_url": "https://www.openstreetmap.org/node/13542253311", "josm_url": "http://127.0.0.1:8111/load_object?new_layer=false&objects=n13542253311", "id_url": "https://www.openstreetmap.org/edit?editor=id&node=13542253311#map=20/-12.1000599/-76.9730431"}}, {"type": "Feature", "geometry": {"type": "Point", "coordinates": [-76.9456016, -12.0986823]}, "properties": {"id": 13691725286, "feat_type": "node", "quality_categories": "kerb_on_top_of_non_crossing", "issue_ids": "[2]", "osm_url": "https://www.openstreetmap.org/node/13691725286", "josm_url": "http://127.0.0.1:8111/load_object?new_layer=false&objects=n13691725286", "id_url": "https://www.openstreetmap.org/edit?editor=id&node=13691725286#map=20/-12.0986823/-76.9456016"}}, {"type": "Feature", "geometry": {"type": "Point", "coordinates": [-76.9462508, -12.0989702]}, "properties": {"id": 13691725287, "feat_type": "node", "quality_categories": "kerb_on_top_of_non_crossing", "issue_ids": "[2]", "osm_url": "https://www.openstreetmap.org/node/13691725287", "josm_url": "http://127.0.0.1:8111/load_object?new_layer=false&objects=n13691725287", "id_url": "https://www.openstreetmap.org/edit?editor=id&node=13691725287#map=20/-12.0989702/-76.9462508"}}, {"type": "Feature", "geometry": {"type": "Point", "coordinates": [-76.9203213, -12.0841632]}, "properties": {"id": 13909492162, "feat_type": "node", "quality_categories": "kerb_on_top_of_non_crossing", "issue_ids": "[2]", "osm_url": "https://www.openstreetmap.org/node/13909492162", "josm_url": "http://127.0.0.1:8111/load_object?new_layer=false&objects=n13909492162", "id_url": "https://www.openstreetmap.org/edit?editor=id&node=13909492162#map=20/-12.0841632/-76.9203213"}}, {"type": "Feature", "geometry": {"type": "Point", "coordinates": [-76.9209022, -12.0840658]}, "properties": {"id": 13909492163, "feat_type": "node", "quality_categories": "kerb_on_top_of_non_crossing", "issue_ids": "[2]", "osm_url": "https://www.openstreetmap.org/node/13909492163", "josm_url": "http://127.0.0.1:8111/load_object?new_layer=false&objects=n13909492163", "id_url": "https://www.openstreetmap.org/edit?editor=id&node=13909492163#map=20/-12.0840658/-76.9209022"}}]}