{"type": "FeatureCollection", "features": [{"type": "Feature", "geometry": {"type": "Point", "coordinates": [-77.0312046, -12.0288617]}, "properties": {"id": 3951809615, "feat_type": "node", "quality_categories": "older_than_five_years", "issue_ids": "[0]", "osm_url": "https://www.openstreetmap.org/node/3951809615", "josm_url": "http://127.0.0.1:8111/load_object?new_layer=false&objects=n3951809615", "id_url": "https://www.openstreetmap.org/edit?editor=id&node=3951809615#map=20/-12.0288617/-77.0312046"}}, {"type": "Feature", "geometry": {"type": "Point", "coordinates": [-76.9694329, -12.1079312]}, "properties": {"id": 4117258321, "feat_type": "node", "quality_categories": "improper_keys, kerb_on_top_of_non_crossing, older_than_five_years", "issue_ids": "[1, 2, 3]", "osm_url": "https://www.openstreetmap.org/node/4117258321", "josm_url": "http://127.0.0.1:8111/load_object?new_layer=false&objects=n4117258321", "id_url": "https://www.openstreetmap.org/edit?editor=id&node=4117258321#map=20/-12.1079312/-76.9694329"}}, {"type": "Feature", "geometry": {"type": "Point", "coordinates": [-76.9693595, -12.1080348]}, "properties": {"id": 4117258322, "feat_type": "node", "quality_categories": "improper_keys, kerb_on_top_of_non_crossing, older_than_five_years", "issue_ids": "[1, 4, 3]", "osm_url": "https://www.openstreetmap.org/node/4117258322", "josm_url": "http://127.0.0.1:8111/load_object?new_layer=false&objects=n4117258322", "id_url": "https://www.openstreetmap.org/edit?editor=id&node=4117258322#map=20/-12.1080348/-76.9693595"}}, {"type": "Feature", "geometry": {"type": "Point", "coordinates": [-76.9695847, -12.1080413]}, "properties": {"id": 4117258323, "feat_type": "node", "quality_categories": "improper_keys, kerb_on_top_of_non_crossing, older_than_five_years", "issue_ids": "[1, 4, 3]", "osm_url": "https://www.openstreetmap.org/node/4117258323", "josm_url": "http://127.0.0.1:8111/load_object?new_layer=false&objects=n4117258323", "id_url": "https://www.openstreetmap.org/edit?editor=id&node=4117258323#map=20/-12.1080413/-76.9695847"}}, {"type": "Feature", "geometry": {"type": "Point", "coordinates": [-76.969508, -12.1081425]}, "properties": {"id": 4117258324, "feat_type": "node", "quality_categories": "improper_keys, kerb_on_top_of_non_crossing, older_than_five_years", "issue_ids": "[1, 4, 3]", "osm_url": "https://www.openstreetmap.org/node/4117258324", "josm_url": "http://127.0.0.1:8111/load_object?new_layer=false&objects=n4117258324", "id_url": "https://www.openstreetmap.org/edit?editor=id&node=4117258324#map=20/-12.1081425/-76.969508"}}, {"type": "Feature", "geometry": {"type": "Point", "coordinates": [-76.9919222, -12.1112945]}, "properties": {"id": 4348865445, "feat_type": "node", "quality_categories": "improper_keys, kerb_on_top_of_non_crossing, older_than_five_years", "issue_ids": "[1, 5, 3]", "osm_url": "https://www.openstreetmap.org/node/4348865445", "josm_url": "http://127.0.0.1:8111/load_object?new_layer=false&objects=n4348865445", "id_url": "https://www.openstreetmap.org/edit?editor=id&node=4348865445#map=20/-12.1112945/-76.9919222"}}, {"type": "Feature", "geometry": {"type": "Point", "coordinates": [-77.0082024, -12.1927921]}, "properties": {"id": 4355003652, "feat_type": "node", "quality_categories": "improper_keys, kerb_on_top_of_non_crossing, older_than_five_years", "issue_ids": "[1, 6, 3]", "osm_url": "https://www.openstreetmap.org/node/4355003652", "josm_url": "http://127.0.0.1:8111/load_object?new_layer=false&objects=n4355003652", "id_url": "https://www.openstreetmap.org/edit?editor=id&node=4355003652#map=20/-12.1927921/-77.0082024"}}, {"type": "Feature", "geometry": {"type": "Point", "coordinates": [-77.0081356, -12.1928361]}, "properties": {"id": 4355003653, "feat_type": "node", "quality_categories": "improper_keys, kerb_on_top_of_non_crossing, older_than_five_years", "issue_ids": "[1, 6, 3]", "osm_url": "https://www.openstreetmap.org/node/4355003653", "josm_url": "http://127.0.0.1:8111/load_object?new_layer=false&objects=n4355003653", "id_url": "https://www.openstreetmap.org/edit?editor=id&node=4355003653#map=20/-12.1928361/-77.0081356"}}, {"type": "Feature", "geometry": {"type": "Point", "coordinates": [-77.0081187, -12.1926755]}, "properties": {"id": 4355003654, "feat_type": "node", "quality_categories": "improper_keys, kerb_on_top_of_non_crossing, older_than_five_years", "issue_ids": "[1, 6, 3]", "osm_url": "https://www.openstreetmap.org/node/4355003654", "josm_url": "http://127.0.0.1:8111/load_object?new_layer=false&objects=n4355003654", "id_url": "https://www.openstreetmap.org/edit?editor=id&node=4355003654#map=20/-12.1926755/-77.0081187"}}, {"type": "Feature", "geometry": {"type": "Point", "coordinates": [-77.0080482, -12.1928143]}, "properties": {"id": 4355003656, "feat_type": "node", "quality_categories": "improper_keys, kerb_on_top_of_non_crossing, older_than_five_years", "issue_ids": "[1, 6, 3]", "osm_url": "https://www.openstreetmap.org/node/4355003656", "josm_url": "http://127.0.0.1:8111/load_object?new_layer=false&objects=n4355003656", "id_url": "https://www.openstreetmap.org/edit?editor=id&node=4355003656#map=20/-12.1928143/-77.0080482"}}, {"type": "Feature", "geometry": {"type": "Point", "coordinates": [-76.9917624, -12.1112837]}, "properties": {"id": 4365362204, "feat_type": "node", "quality_categories": "improper_keys, kerb_on_top_of_non_crossing, older_than_five_years", "issue_ids": "[1, 5, 3]", "osm_url": "https://www.openstreetmap.org/node/4365362204", "josm_url": "http://127.0.0.1:8111/load_object?new_layer=false&objects=n4365362204", "id_url": "https://www.openstreetmap.org/edit?editor=id&node=4365362204#map=20/-12.1112837/-76.9917624"}}, {"type": "Feature", "geometry": {"type": "Point", "coordinates": [-76.9902379, -12.12388]}, "properties": {"id": 4365805804, "feat_type": "node", "quality_categories": "improper_keys, kerb_on_top_of_non_crossing, older_than_five_years", "issue_ids": "[1, 7, 3]", "osm_url": "https://www.openstreetmap.org/node/4365805804", "josm_url": "http://127.0.0.1:8111/load_object?new_layer=false&objects=n4365805804", "id_url": "https://www.openstreetmap.org/edit?editor=id&node=4365805804#map=20/-12.12388/-76.9902379"}}, {"type": "Feature", "geometry": {"type": "Point", "coordinates": [-76.9903439, -12.1238327]}, "properties": {"id": 4365805805, "feat_type": "node", "quality_categories": "improper_keys, kerb_on_top_of_non_crossing, older_than_five_years", "issue_ids": "[1, 7, 3]", "osm_url": "https://www.openstreetmap.org/node/4365805805", "josm_url": "http://127.0.0.1:8111/load_object?new_layer=false&objects=n4365805805", "id_url": "https://www.openstreetmap.org/edit?editor=id&node=4365805805#map=20/-12.1238327/-76.9903439"}}, {"type": "Feature", "geometry": {"type": "Point", "coordinates": [-76.9904808, -12.1241574]}, "properties": {"id": 4365805806, "feat_type": "node", "quality_categories": "improper_keys, kerb_on_top_of_non_crossing, older_than_five_years", "issue_ids": "[1, 2, 3]", "osm_url": "https://www.openstreetmap.org/node/4365805806", "josm_url": "http://127.0.0.1:8111/load_object?new_layer=false&objects=n4365805806", "id_url": "https://www.openstreetmap.org/edit?editor=id&node=4365805806#map=20/-12.1241574/-76.9904808"}}, {"type": "Feature", "geometry": {"type": "Point", "coordinates": [-76.9903756, -12.1242011]}, "properties": {"id": 4365805807, "feat_type": "node", "quality_categories": "improper_keys, kerb_on_top_of_non_crossing, older_than_five_years", "issue_ids": "[1, 7, 3]", "osm_url": "https://www.openstreetmap.org/node/4365805807", "josm_url": "http://127.0.0.1:8111/load_object?new_layer=false&objects=n4365805807", "id_url": "https://www.openstreetmap.org/edit?editor=id&node=4365805807#map=20/-12.1242011/-76.9903756"}}, {"type": "Feature", "geometry": {"type": "Point", "coordinates": [-76.9902972, -12.124183]}, "properties": {"id": 4365805808, "feat_type": "node", "quality_categories": "improper_keys, kerb_on_top_of_non_crossing, older_than_five_years", "issue_ids": "[1, 2, 3]", "osm_url": "https://www.openstreetmap.org/node/4365805808", "josm_url": "http://127.0.0.1:8111/load_object?new_layer=false&objects=n4365805808", "id_url": "https://www.openstreetmap.org/edit?editor=id&node=4365805808#map=20/-12.124183/-76.9902972"}}, {"type": "Feature", "geometry": {"type": "Point", "coordinates": [-76.9492265, -12.1051714]}, "properties": {"id": 4688963906, "feat_type": "node", "quality_categories": "older_than_five_years", "issue_ids": "[8]", "osm_url": "https://www.openstreetmap.org/node/4688963906", "josm_url": "http://127.0.0.1:8111/load_object?new_layer=false&objects=n4688963906", "id_url": "https://www.openstreetmap.org/edit?editor=id&node=4688963906#map=20/-12.1051714/-76.9492265"}}, {"type": "Feature", "geometry": {"type": "Point", "coordinates": [-77.0372454, -12.1247698]}, "properties": {"id": 5967806791, "feat_type": "node", "quality_categories": "improper_keys, kerb_on_top_of_non_crossing, older_than_five_years", "issue_ids": "[1, 9, 3]", "osm_url": "https://www.openstreetmap.org/node/5967806791", "josm_url": "http://127.0.0.1:8111/load_object?new_layer=false&objects=n5967806791", "id_url": "https://www.openstreetmap.org/edit?editor=id&node=5967806791#map=20/-12.1247698/-77.0372454"}}, {"type": "Feature", "geometry": {"type": "Point", "coordinates": [-77.0752215, -12.065988]}, "properties": {"id": 6129316404, "feat_type": "node", "quality_categories": "kerb_on_top_of_non_crossing, older_than_five_years", "issue_ids": "[10, 3]", "osm_url": "https://www.openstreetmap.org/node/6129316404", "josm_url": "http://127.0.0.1:8111/load_object?new_layer=false&objects=n6129316404", "id_url": "https://www.openstreetmap.org/edit?editor=id&node=6129316404#map=20/-12.065988/-77.0752215"}}, {"type": "Feature", "geometry": {"type": "Point", "coordinates": [-77.0751979, -12.0666195]}, "properties": {"id": 6129316912, "feat_type": "node", "quality_categories": "kerb_on_top_of_non_crossing, older_than_five_years", "issue_ids": "[11, 3]", "osm_url": "https://www.openstreetmap.org/node/6129316912", "josm_url": "http://127.0.0.1:8111/load_object?new_layer=false&objects=n6129316912", "id_url": "https://www.openstreetmap.org/edit?editor=id&node=6129316912#map=20/-12.0666195/-77.0751979"}}, {"type": "Feature", "geometry": {"type": "Point", "coordinates": [-77.0743575, -12.0659498]}, "properties": {"id": 6129318323, "feat_type": "node", "quality_categories": "kerb_on_top_of_non_crossing, older_than_five_years", "issue_ids": "[10, 3]", "osm_url": "https://www.openstreetmap.org/node/6129318323", "josm_url": "http://127.0.0.1:8111/load_object?new_layer=false&objects=n6129318323", "id_url": "https://www.openstreetmap.org/edit?editor=id&node=6129318323#map=20/-12.0659498/-77.0743575"}}, {"type": "Feature", "geometry": {"type": "Point", "coordinates": [-77.07431, -12.0663108]}, "properties": {"id": 6129318324, "feat_type": "node", "quality_categories": "kerb_on_top_of_non_crossing, older_than_five_years", "issue_ids": "[10, 3]", "osm_url": "https://www.openstreetmap.org/node/6129318324", "josm_url": "http://127.0.0.1:8111/load_object?new_layer=false&objects=n6129318324", "id_url": "https://www.openstreetmap.org/edit?editor=id&node=6129318324#map=20/-12.0663108/-77.07431"}}, {"type": "Feature", "geometry": {"type": "Point", "coordinates": [-77.0752057, -12.0664277]}, "properties": {"id": 6129318411, "feat_type": "node", "quality_categories": "kerb_on_top_of_non_crossing, older_than_five_years", "issue_ids": "[11, 3]", "osm_url": "https://www.openstreetmap.org/node/6129318411", "josm_url": "http://127.0.0.1:8111/load_object?new_layer=false&objects=n6129318411", "id_url": "https://www.openstreetmap.org/edit?editor=id&node=6129318411#map=20/-12.0664277/-77.0752057"}}, {"type": "Feature", "geometry": {"type": "Point", "coordinates": [-77.0743343, -12.066615]}, "properties": {"id": 6129320262, "feat_type": "node", "quality_categories": "kerb_on_top_of_non_crossing, older_than_five_years", "issue_ids": "[10, 3]", "osm_url": "https://www.openstreetmap.org/node/6129320262", "josm_url": "http://127.0.0.1:8111/load_object?new_layer=false&objects=n6129320262", "id_url": "https://www.openstreetmap.org/edit?editor=id&node=6129320262#map=20/-12.066615/-77.0743343"}}, {"type": "Feature", "geometry": {"type": "Point", "coordinates": [-76.9000707, -12.0870501]}, "properties": {"id": 7214092346, "feat_type": "node", "quality_categories": "older_than_five_years", "issue_ids": "[12]", "osm_url": "https://www.openstreetmap.org/node/7214092346", "josm_url": "http://127.0.0.1:8111/load_object?new_layer=false&objects=n7214092346", "id_url": "https://www.openstreetmap.org/edit?editor=id&node=7214092346#map=20/-12.0870501/-76.9000707"}}, {"type": "Feature", "geometry": {"type": "Point", "coordinates": [-76.897972, -12.0822921]}, "properties": {"id": 7214092357, "feat_type": "node", "quality_categories": "kerb_on_top_of_non_crossing, older_than_five_years", "issue_ids": "[12, 3]", "osm_url": "https://www.openstreetmap.org/node/7214092357", "josm_url": "http://127.0.0.1:8111/load_object?new_layer=false&objects=n7214092357", "id_url": "https://www.openstreetmap.org/edit?editor=id&node=7214092357#map=20/-12.0822921/-76.897972"}}, {"type": "Feature", "geometry": {"type": "Point", "coordinates": [-76.900073, -12.0869885]}, "properties": {"id": 7214092361, "feat_type": "node", "quality_categories": "older_than_five_years", "issue_ids": "[12]", "osm_url": "https://www.openstreetmap.org/node/7214092361", "josm_url": "http://127.0.0.1:8111/load_object?new_layer=false&objects=n7214092361", "id_url": "https://www.openstreetmap.org/edit?editor=id&node=7214092361#map=20/-12.0869885/-76.900073"}}, {"type": "Feature", "geometry": {"type": "Point", "coordinates": [-76.8977421, -12.0822985]}, "properties": {"id": 7221379897, "feat_type": "node", "quality_categories": "kerb_on_top_of_non_crossing, older_than_five_years", "issue_ids": "[13, 3]", "osm_url": "https://www.openstreetmap.org/node/7221379897", "josm_url": "http://127.0.0.1:8111/load_object?new_layer=false&objects=n7221379897", "id_url": "https://www.openstreetmap.org/edit?editor=id&node=7221379897#map=20/-12.0822985/-76.8977421"}}, {"type": "Feature", "geometry": {"type": "Point", "coordinates": [-76.8978095, -12.0838436]}, "properties": {"id": 7221379903, "feat_type": "node", "quality_categories": "kerb_on_top_of_non_crossing, older_than_five_years", "issue_ids": "[13, 3]", "osm_url": "https://www.openstreetmap.org/node/7221379903", "josm_url": "http://127.0.0.1:8111/load_object?new_layer=false&objects=n7221379903", "id_url": "https://www.openstreetmap.org/edit?editor=id&node=7221379903#map=20/-12.0838436/-76.8978095"}}, {"type": "Feature", "geometry": {"type": "Point", "coordinates": [-76.8980331, -12.0838396]}, "properties": {"id": 7221379904, "feat_type": "node", "quality_categories": "kerb_on_top_of_non_crossing, older_than_five_years", "issue_ids": "[13, 3]", "osm_url": "https://www.openstreetmap.org/node/7221379904", "josm_url": "http://127.0.0.1:8111/load_object?new_layer=false&objects=n7221379904", "id_url": "https://www.openstreetmap.org/edit?editor=id&node=7221379904#map=20/-12.0838396/-76.8980331"}}, {"type": "Feature", "geometry": {"type": "Point", "coordinates": [-76.9994489, -12.0466995]}, "properties": {"id": 8899948251, "feat_type": "node", "quality_categories": "older_than_five_years", "issue_ids": "[14]", "osm_url": "https://www.openstreetmap.org/node/8899948251", "josm_url": "http://127.0.0.1:8111/load_object?new_layer=false&objects=n8899948251", "id_url": "https://www.openstreetmap.org/edit?editor=id&node=8899948251#map=20/-12.0466995/-76.9994489"}}, {"type": "Feature", "geometry": {"type": "Point", "coordinates": [-76.9975155, -12.0398382]}, "properties": {"id": 8968822988, "feat_type": "node", "quality_categories": "older_than_five_years", "issue_ids": "[15]", "osm_url": "https://www.openstreetmap.org/node/8968822988", "josm_url": "http://127.0.0.1:8111/load_object?new_layer=false&objects=n8968822988", "id_url": "https://www.openstreetmap.org/edit?editor=id&node=8968822988#map=20/-12.0398382/-76.9975155"}}, {"type": "Feature", "geometry": {"type": "Point", "coordinates": [-76.9974754, -12.0398423]}, "properties": {"id": 8968822989, "feat_type": "node", "quality_categories": "older_than_five_years", "issue_ids": "[15]", "osm_url": "https://www.openstreetmap.org/node/8968822989", "josm_url": "http://127.0.0.1:8111/load_object?new_layer=false&objects=n8968822989", "id_url": "https://www.openstreetmap.org/edit?editor=id&node=8968822989#map=20/-12.0398423/-76.9974754"}}, {"type": "Feature", "geometry": {"type": "Point", "coordinates": [-77.0359091, -12.0301591]}, "properties": {"id": 9012873915, "feat_type": "node", "quality_categories": "older_than_five_years", "issue_ids": "[16]", "osm_url": "https://www.openstreetmap.org/node/9012873915", "josm_url": "http://127.0.0.1:8111/load_object?new_layer=false&objects=n9012873915", "id_url": "https://www.openstreetmap.org/edit?editor=id&node=9012873915#map=20/-12.0301591/-77.0359091"}}, {"type": "Feature", "geometry": {"type": "Point", "coordinates": [-77.0359228, -12.0301477]}, "properties": {"id": 9012873916, "feat_type": "node", "quality_categories": "older_than_five_years", "issue_ids": "[16]", "osm_url": "https://www.openstreetmap.org/node/9012873916", "josm_url": "http://127.0.0.1:8111/load_object?new_layer=false&objects=n9012873916", "id_url": "https://www.openstreetmap.org/edit?editor=id&node=9012873916#map=20/-12.0301477/-77.0359228"}}, {"type": "Feature", "geometry": {"type": "Point", "coordinates": [-77.0359471, -12.0299955]}, "properties": {"id": 9012900917, "feat_type": "node", "quality_categories": "older_than_five_years", "issue_ids": "[16]", "osm_url": "https://www.openstreetmap.org/node/9012900917", "josm_url": "http://127.0.0.1:8111/load_object?new_layer=false&objects=n9012900917", "id_url": "https://www.openstreetmap.org/edit?editor=id&node=9012900917#map=20/-12.0299955/-77.0359471"}}, {"type": "Feature", "geometry": {"type": "Point", "coordinates": [-77.0359202, -12.0299629]}, "properties": {"id": 9012900918, "feat_type": "node", "quality_categories": "older_than_five_years", "issue_ids": "[16]", "osm_url": "https://www.openstreetmap.org/node/9012900918", "josm_url": "http://127.0.0.1:8111/load_object?new_layer=false&objects=n9012900918", "id_url": "https://www.openstreetmap.org/edit?editor=id&node=9012900918#map=20/-12.0299629/-77.0359202"}}, {"type": "Feature", "geometry": {"type": "Point", "coordinates": [-77.0357406, -12.0299796]}, "properties": {"id": 9012900919, "feat_type": "node", "quality_categories": "older_than_five_years", "issue_ids": "[16]", "osm_url": "https://www.openstreetmap.org/node/9012900919", "josm_url": "http://127.0.0.1:8111/load_object?new_layer=false&objects=n9012900919", "id_url": "https://www.openstreetmap.org/edit?editor=id&node=9012900919#map=20/-12.0299796/-77.0357406"}}, {"type": "Feature", "geometry": {"type": "Point", "coordinates": [-77.0357495, -12.0299726]}, "properties": {"id": 9012900920, "feat_type": "node", "quality_categories": "older_than_five_years", "issue_ids": "[16]", "osm_url": "https://www.openstreetmap.org/node/9012900920", "josm_url": "http://127.0.0.1:8111/load_object?new_layer=false&objects=n9012900920", "id_url": "https://www.openstreetmap.org/edit?editor=id&node=9012900920#map=20/-12.0299726/-77.0357495"}}, {"type": "Feature", "geometry": {"type": "Point", "coordinates": [-77.0335338, -12.0270576]}, "properties": {"id": 9061215990, "feat_type": "node", "quality_categories": "older_than_five_years", "issue_ids": "[16]", "osm_url": "https://www.openstreetmap.org/node/9061215990", "josm_url": "http://127.0.0.1:8111/load_object?new_layer=false&objects=n9061215990", "id_url": "https://www.openstreetmap.org/edit?editor=id&node=9061215990#map=20/-12.0270576/-77.0335338"}}, {"type": "Feature", "geometry": {"type": "Point", "coordinates": [-77.033602, -12.0271398]}, "properties": {"id": 9061215991, "feat_type": "node", "quality_categories": "older_than_five_years", "issue_ids": "[16]", "osm_url": "https://www.openstreetmap.org/node/9061215991", "josm_url": "http://127.0.0.1:8111/load_object?new_layer=false&objects=n9061215991", "id_url": "https://www.openstreetmap.org/edit?editor=id&node=9061215991#map=20/-12.0271398/-77.033602"}}, {"type": "Feature", "geometry": {"type": "Point", "coordinates": [-77.0335639, -12.0270955]}, "properties": {"id": 9061215992, "feat_type": "node", "quality_categories": "older_than_five_years", "issue_ids": "[16]", "osm_url": "https://www.openstreetmap.org/node/9061215992", "josm_url": "http://127.0.0.1:8111/load_object?new_layer=false&objects=n9061215992", "id_url": "https://www.openstreetmap.org/edit?editor=id&node=9061215992#map=20/-12.0270955/-77.0335639"}}, {"type": "Feature", "geometry": {"type": "Point", "coordinates": [-77.0335411, -12.0269945]}, "properties": {"id": 9061215996, "feat_type": "node", "quality_categories": "older_than_five_years", "issue_ids": "[16]", "osm_url": "https://www.openstreetmap.org/node/9061215996", "josm_url": "http://127.0.0.1:8111/load_object?new_layer=false&objects=n9061215996", "id_url": "https://www.openstreetmap.org/edit?editor=id&node=9061215996#map=20/-12.0269945/-77.0335411"}}, {"type": "Feature", "geometry": {"type": "Point", "coordinates": [-77.0335914, -12.0269459]}, "properties": {"id": 9061215997, "feat_type": "node", "quality_categories": "older_than_five_years", "issue_ids": "[16]", "osm_url": "https://www.openstreetmap.org/node/9061215997", "josm_url": "http://127.0.0.1:8111/load_object?new_layer=false&objects=n9061215997", "id_url": "https://www.openstreetmap.org/edit?editor=id&node=9061215997#map=20/-12.0269459/-77.0335914"}}, {"type": "Feature", "geometry": {"type": "Point", "coordinates": [-77.033686, -12.0268666]}, "properties": {"id": 9061215998, "feat_type": "node", "quality_categories": "older_than_five_years", "issue_ids": "[16]", "osm_url": "https://www.openstreetmap.org/node/9061215998", "josm_url": "http://127.0.0.1:8111/load_object?new_layer=false&objects=n9061215998", "id_url": "https://www.openstreetmap.org/edit?editor=id&node=9061215998#map=20/-12.0268666/-77.033686"}}, {"type": "Feature", "geometry": {"type": "Point", "coordinates": [-77.0337778, -12.0267872]}, "properties": {"id": 9061216000, "feat_type": "node", "quality_categories": "older_than_five_years", "issue_ids": "[16]", "osm_url": "https://www.openstreetmap.org/node/9061216000", "josm_url": "http://127.0.0.1:8111/load_object?new_layer=false&objects=n9061216000", "id_url": "https://www.openstreetmap.org/edit?editor=id&node=9061216000#map=20/-12.0267872/-77.0337778"}}, {"type": "Feature", "geometry": {"type": "Point", "coordinates": [-77.0338684, -12.0268351]}, "properties": {"id": 9061216004, "feat_type": "node", "quality_categories": "older_than_five_years", "issue_ids": "[16]", "osm_url": "https://www.openstreetmap.org/node/9061216004", "josm_url": "http://127.0.0.1:8111/load_object?new_layer=false&objects=n9061216004", "id_url": "https://www.openstreetmap.org/edit?editor=id&node=9061216004#map=20/-12.0268351/-77.0338684"}}, {"type": "Feature", "geometry": {"type": "Point", "coordinates": [-77.0334324, -12.0271315]}, "properties": {"id": 9061217432, "feat_type": "node", "quality_categories": "older_than_five_years", "issue_ids": "[16]", "osm_url": "https://www.openstreetmap.org/node/9061217432", "josm_url": "http://127.0.0.1:8111/load_object?new_layer=false&objects=n9061217432", "id_url": "https://www.openstreetmap.org/edit?editor=id&node=9061217432#map=20/-12.0271315/-77.0334324"}}, {"type": "Feature", "geometry": {"type": "Point", "coordinates": [-77.033466, -12.0271058]}, "properties": {"id": 9061217433, "feat_type": "node", "quality_categories": "older_than_five_years", "issue_ids": "[16]", "osm_url": "https://www.openstreetmap.org/node/9061217433", "josm_url": "http://127.0.0.1:8111/load_object?new_layer=false&objects=n9061217433", "id_url": "https://www.openstreetmap.org/edit?editor=id&node=9061217433#map=20/-12.0271058/-77.033466"}}, {"type": "Feature", "geometry": {"type": "Point", "coordinates": [-77.0339361, -12.026923]}, "properties": {"id": 9061217448, "feat_type": "node", "quality_categories": "older_than_five_years", "issue_ids": "[16]", "osm_url": "https://www.openstreetmap.org/node/9061217448", "josm_url": "http://127.0.0.1:8111/load_object?new_layer=false&objects=n9061217448", "id_url": "https://www.openstreetmap.org/edit?editor=id&node=9061217448#map=20/-12.026923/-77.0339361"}}, {"type": "Feature", "geometry": {"type": "Point", "coordinates": [-77.0336343, -12.0271774]}, "properties": {"id": 9061217449, "feat_type": "node", "quality_categories": "older_than_five_years", "issue_ids": "[16]", "osm_url": "https://www.openstreetmap.org/node/9061217449", "josm_url": "http://127.0.0.1:8111/load_object?new_layer=false&objects=n9061217449", "id_url": "https://www.openstreetmap.org/edit?editor=id&node=9061217449#map=20/-12.0271774/-77.0336343"}}, {"type": "Feature", "geometry": {"type": "Point", "coordinates": [-77.034259, -12.0261892]}, "properties": {"id": 9096693028, "feat_type": "node", "quality_categories": "older_than_five_years", "issue_ids": "[17]", "osm_url": "https://www.openstreetmap.org/node/9096693028", "josm_url": "http://127.0.0.1:8111/load_object?new_layer=false&objects=n9096693028", "id_url": "https://www.openstreetmap.org/edit?editor=id&node=9096693028#map=20/-12.0261892/-77.034259"}}, {"type": "Feature", "geometry": {"type": "Point", "coordinates": [-77.034237, -12.026166]}, "properties": {"id": 9096693029, "feat_type": "node", "quality_categories": "older_than_five_years", "issue_ids": "[17]", "osm_url": "https://www.openstreetmap.org/node/9096693029", "josm_url": "http://127.0.0.1:8111/load_object?new_layer=false&objects=n9096693029", "id_url": "https://www.openstreetmap.org/edit?editor=id&node=9096693029#map=20/-12.026166/-77.034237"}}, {"type": "Feature", "geometry": {"type": "Point", "coordinates": [-77.031231, -12.0289025]}, "properties": {"id": 9096708835, "feat_type": "node", "quality_categories": "older_than_five_years", "issue_ids": "[0]", "osm_url": "https://www.openstreetmap.org/node/9096708835", "josm_url": "http://127.0.0.1:8111/load_object?new_layer=false&objects=n9096708835", "id_url": "https://www.openstreetmap.org/edit?editor=id&node=9096708835#map=20/-12.0289025/-77.031231"}}, {"type": "Feature", "geometry": {"type": "Point", "coordinates": [-76.9500986, -12.1017569]}, "properties": {"id": 9101653176, "feat_type": "node", "quality_categories": "older_than_five_years", "issue_ids": "[0]", "osm_url": "https://www.openstreetmap.org/node/9101653176", "josm_url": "http://127.0.0.1:8111/load_object?new_layer=false&objects=n9101653176", "id_url": "https://www.openstreetmap.org/edit?editor=id&node=9101653176#map=20/-12.1017569/-76.9500986"}}, {"type": "Feature", "geometry": {"type": "Point", "coordinates": [-76.9500647, -12.1018328]}, "properties": {"id": 9101653177, "feat_type": "node", "quality_categories": "older_than_five_years", "issue_ids": "[0]", "osm_url": "https://www.openstreetmap.org/node/9101653177", "josm_url": "http://127.0.0.1:8111/load_object?new_layer=false&objects=n9101653177", "id_url": "https://www.openstreetmap.org/edit?editor=id&node=9101653177#map=20/-12.1018328/-76.9500647"}}, {"type": "Feature", "geometry": {"type": "Point", "coordinates": [-76.9499328, -12.1016822]}, "properties": {"id": 9101653184, "feat_type": "node", "quality_categories": "older_than_five_years", "issue_ids": "[0]", "osm_url": "https://www.openstreetmap.org/node/9101653184", "josm_url": "http://127.0.0.1:8111/load_object?new_layer=false&objects=n9101653184", "id_url": "https://www.openstreetmap.org/edit?editor=id&node=9101653184#map=20/-12.1016822/-76.9499328"}}, {"type": "Feature", "geometry": {"type": "Point", "coordinates": [-76.9498965, -12.1017587]}, "properties": {"id": 9101653185, "feat_type": "node", "quality_categories": "older_than_five_years", "issue_ids": "[0]", "osm_url": "https://www.openstreetmap.org/node/9101653185", "josm_url": "http://127.0.0.1:8111/load_object?new_layer=false&objects=n9101653185", "id_url": "https://www.openstreetmap.org/edit?editor=id&node=9101653185#map=20/-12.1017587/-76.9498965"}}, {"type": "Feature", "geometry": {"type": "Point", "coordinates": [-76.9508044, -12.1020202]}, "properties": {"id": 9101653188, "feat_type": "node", "quality_categories": "older_than_five_years", "issue_ids": "[0]", "osm_url": "https://www.openstreetmap.org/node/9101653188", "josm_url": "http://127.0.0.1:8111/load_object?new_layer=false&objects=n9101653188", "id_url": "https://www.openstreetmap.org/edit?editor=id&node=9101653188#map=20/-12.1020202/-76.9508044"}}, {"type": "Feature", "geometry": {"type": "Point", "coordinates": [-76.9507762, -12.1021103]}, "properties": {"id": 9101653189, "feat_type": "node", "quality_categories": "older_than_five_years", "issue_ids": "[0]", "osm_url": "https://www.openstreetmap.org/node/9101653189", "josm_url": "http://127.0.0.1:8111/load_object?new_layer=false&objects=n9101653189", "id_url": "https://www.openstreetmap.org/edit?editor=id&node=9101653189#map=20/-12.1021103/-76.9507762"}}, {"type": "Feature", "geometry": {"type": "Point", "coordinates": [-76.950009, -12.1016547]}, "properties": {"id": 9101653201, "feat_type": "node", "quality_categories": "older_than_five_years", "issue_ids": "[0]", "osm_url": "https://www.openstreetmap.org/node/9101653201", "josm_url": "http://127.0.0.1:8111/load_object?new_layer=false&objects=n9101653201", "id_url": "https://www.openstreetmap.org/edit?editor=id&node=9101653201#map=20/-12.1016547/-76.950009"}}, {"type": "Feature", "geometry": {"type": "Point", "coordinates": [-76.9500777, -12.1016865]}, "properties": {"id": 9101653202, "feat_type": "node", "quality_categories": "older_than_five_years", "issue_ids": "[0]", "osm_url": "https://www.openstreetmap.org/node/9101653202", "josm_url": "http://127.0.0.1:8111/load_object?new_layer=false&objects=n9101653202", "id_url": "https://www.openstreetmap.org/edit?editor=id&node=9101653202#map=20/-12.1016865/-76.9500777"}}, {"type": "Feature", "geometry": {"type": "Point", "coordinates": [-76.9495161, -12.1016536]}, "properties": {"id": 9108403244, "feat_type": "node", "quality_categories": "older_than_five_years", "issue_ids": "[18]", "osm_url": "https://www.openstreetmap.org/node/9108403244", "josm_url": "http://127.0.0.1:8111/load_object?new_layer=false&objects=n9108403244", "id_url": "https://www.openstreetmap.org/edit?editor=id&node=9108403244#map=20/-12.1016536/-76.9495161"}}, {"type": "Feature", "geometry": {"type": "Point", "coordinates": [-76.9493452, -12.1015703]}, "properties": {"id": 9108403245, "feat_type": "node", "quality_categories": "older_than_five_years", "issue_ids": "[18]", "osm_url": "https://www.openstreetmap.org/node/9108403245", "josm_url": "http://127.0.0.1:8111/load_object?new_layer=false&objects=n9108403245", "id_url": "https://www.openstreetmap.org/edit?editor=id&node=9108403245#map=20/-12.1015703/-76.9493452"}}, {"type": "Feature", "geometry": {"type": "Point", "coordinates": [-76.9495907, -12.1014925]}, "properties": {"id": 9108403281, "feat_type": "node", "quality_categories": "older_than_five_years", "issue_ids": "[19]", "osm_url": "https://www.openstreetmap.org/node/9108403281", "josm_url": "http://127.0.0.1:8111/load_object?new_layer=false&objects=n9108403281", "id_url": "https://www.openstreetmap.org/edit?editor=id&node=9108403281#map=20/-12.1014925/-76.9495907"}}, {"type": "Feature", "geometry": {"type": "Point", "coordinates": [-76.949413, -12.1014206]}, "properties": {"id": 9108403282, "feat_type": "node", "quality_categories": "older_than_five_years", "issue_ids": "[19]", "osm_url": "https://www.openstreetmap.org/node/9108403282", "josm_url": "http://127.0.0.1:8111/load_object?new_layer=false&objects=n9108403282", "id_url": "https://www.openstreetmap.org/edit?editor=id&node=9108403282#map=20/-12.1014206/-76.949413"}}, {"type": "Feature", "geometry": {"type": "Point", "coordinates": [-77.0400691, -12.0268742]}, "properties": {"id": 9109421863, "feat_type": "node", "quality_categories": "older_than_five_years", "issue_ids": "[17]", "osm_url": "https://www.openstreetmap.org/node/9109421863", "josm_url": "http://127.0.0.1:8111/load_object?new_layer=false&objects=n9109421863", "id_url": "https://www.openstreetmap.org/edit?editor=id&node=9109421863#map=20/-12.0268742/-77.0400691"}}, {"type": "Feature", "geometry": {"type": "Point", "coordinates": [-77.0401159, -12.0268348]}, "properties": {"id": 9109421864, "feat_type": "node", "quality_categories": "older_than_five_years", "issue_ids": "[17]", "osm_url": "https://www.openstreetmap.org/node/9109421864", "josm_url": "http://127.0.0.1:8111/load_object?new_layer=false&objects=n9109421864", "id_url": "https://www.openstreetmap.org/edit?editor=id&node=9109421864#map=20/-12.0268348/-77.0401159"}}, {"type": "Feature", "geometry": {"type": "Point", "coordinates": [-77.039887, -12.0267425]}, "properties": {"id": 9109421867, "feat_type": "node", "quality_categories": "older_than_five_years", "issue_ids": "[17]", "osm_url": "https://www.openstreetmap.org/node/9109421867", "josm_url": "http://127.0.0.1:8111/load_object?new_layer=false&objects=n9109421867", "id_url": "https://www.openstreetmap.org/edit?editor=id&node=9109421867#map=20/-12.0267425/-77.039887"}}, {"type": "Feature", "geometry": {"type": "Point", "coordinates": [-77.0399674, -12.026679]}, "properties": {"id": 9109421868, "feat_type": "node", "quality_categories": "older_than_five_years", "issue_ids": "[17]", "osm_url": "https://www.openstreetmap.org/node/9109421868", "josm_url": "http://127.0.0.1:8111/load_object?new_layer=false&objects=n9109421868", "id_url": "https://www.openstreetmap.org/edit?editor=id&node=9109421868#map=20/-12.026679/-77.0399674"}}, {"type": "Feature", "geometry": {"type": "Point", "coordinates": [-77.0399243, -12.026713]}, "properties": {"id": 9109421869, "feat_type": "node", "quality_categories": "older_than_five_years", "issue_ids": "[17]", "osm_url": "https://www.openstreetmap.org/node/9109421869", "josm_url": "http://127.0.0.1:8111/load_object?new_layer=false&objects=n9109421869", "id_url": "https://www.openstreetmap.org/edit?editor=id&node=9109421869#map=20/-12.026713/-77.0399243"}}, {"type": "Feature", "geometry": {"type": "Point", "coordinates": [-77.0398764, -12.0267802]}, "properties": {"id": 9109421872, "feat_type": "node", "quality_categories": "older_than_five_years", "issue_ids": "[17]", "osm_url": "https://www.openstreetmap.org/node/9109421872", "josm_url": "http://127.0.0.1:8111/load_object?new_layer=false&objects=n9109421872", "id_url": "https://www.openstreetmap.org/edit?editor=id&node=9109421872#map=20/-12.0267802/-77.0398764"}}, {"type": "Feature", "geometry": {"type": "Point", "coordinates": [-77.0399162, -12.0268225]}, "properties": {"id": 9109421873, "feat_type": "node", "quality_categories": "older_than_five_years", "issue_ids": "[17]", "osm_url": "https://www.openstreetmap.org/node/9109421873", "josm_url": "http://127.0.0.1:8111/load_object?new_layer=false&objects=n9109421873", "id_url": "https://www.openstreetmap.org/edit?editor=id&node=9109421873#map=20/-12.0268225/-77.0399162"}}, {"type": "Feature", "geometry": {"type": "Point", "coordinates": [-77.0399519, -12.0268598]}, "properties": {"id": 9109421874, "feat_type": "node", "quality_categories": "older_than_five_years", "issue_ids": "[17]", "osm_url": "https://www.openstreetmap.org/node/9109421874", "josm_url": "http://127.0.0.1:8111/load_object?new_layer=false&objects=n9109421874", "id_url": "https://www.openstreetmap.org/edit?editor=id&node=9109421874#map=20/-12.0268598/-77.0399519"}}, {"type": "Feature", "geometry": {"type": "Point", "coordinates": [-77.0401529, -12.0268023]}, "properties": {"id": 9109422714, "feat_type": "node", "quality_categories": "older_than_five_years", "issue_ids": "[17]", "osm_url": "https://www.openstreetmap.org/node/9109422714", "josm_url": "http://127.0.0.1:8111/load_object?new_layer=false&objects=n9109422714", "id_url": "https://www.openstreetmap.org/edit?editor=id&node=9109422714#map=20/-12.0268023/-77.0401529"}}, {"type": "Feature", "geometry": {"type": "Point", "coordinates": [-77.0400054, -12.0266513]}, "properties": {"id": 9109422716, "feat_type": "node", "quality_categories": "older_than_five_years", "issue_ids": "[17]", "osm_url": "https://www.openstreetmap.org/node/9109422716", "josm_url": "http://127.0.0.1:8111/load_object?new_layer=false&objects=n9109422716", "id_url": "https://www.openstreetmap.org/edit?editor=id&node=9109422716#map=20/-12.0266513/-77.0400054"}}, {"type": "Feature", "geometry": {"type": "Point", "coordinates": [-77.0372379, -12.0237146]}, "properties": {"id": 9109457229, "feat_type": "node", "quality_categories": "older_than_five_years", "issue_ids": "[17]", "osm_url": "https://www.openstreetmap.org/node/9109457229", "josm_url": "http://127.0.0.1:8111/load_object?new_layer=false&objects=n9109457229", "id_url": "https://www.openstreetmap.org/edit?editor=id&node=9109457229#map=20/-12.0237146/-77.0372379"}}, {"type": "Feature", "geometry": {"type": "Point", "coordinates": [-77.0371188, -12.0238277]}, "properties": {"id": 9109457230, "feat_type": "node", "quality_categories": "older_than_five_years", "issue_ids": "[17]", "osm_url": "https://www.openstreetmap.org/node/9109457230", "josm_url": "http://127.0.0.1:8111/load_object?new_layer=false&objects=n9109457230", "id_url": "https://www.openstreetmap.org/edit?editor=id&node=9109457230#map=20/-12.0238277/-77.0371188"}}, {"type": "Feature", "geometry": {"type": "Point", "coordinates": [-77.0371699, -12.02378]}, "properties": {"id": 9109457231, "feat_type": "node", "quality_categories": "older_than_five_years", "issue_ids": "[17]", "osm_url": "https://www.openstreetmap.org/node/9109457231", "josm_url": "http://127.0.0.1:8111/load_object?new_layer=false&objects=n9109457231", "id_url": "https://www.openstreetmap.org/edit?editor=id&node=9109457231#map=20/-12.02378/-77.0371699"}}, {"type": "Feature", "geometry": {"type": "Point", "coordinates": [-77.0371881, -12.0237611]}, "properties": {"id": 9109457232, "feat_type": "node", "quality_categories": "older_than_five_years", "issue_ids": "[17]", "osm_url": "https://www.openstreetmap.org/node/9109457232", "josm_url": "http://127.0.0.1:8111/load_object?new_layer=false&objects=n9109457232", "id_url": "https://www.openstreetmap.org/edit?editor=id&node=9109457232#map=20/-12.0237611/-77.0371881"}}, {"type": "Feature", "geometry": {"type": "Point", "coordinates": [-77.039982, -12.0268932]}, "properties": {"id": 9109460939, "feat_type": "node", "quality_categories": "older_than_five_years", "issue_ids": "[17]", "osm_url": "https://www.openstreetmap.org/node/9109460939", "josm_url": "http://127.0.0.1:8111/load_object?new_layer=false&objects=n9109460939", "id_url": "https://www.openstreetmap.org/edit?editor=id&node=9109460939#map=20/-12.0268932/-77.039982"}}, {"type": "Feature", "geometry": {"type": "Point", "coordinates": [-77.0400215, -12.0269107]}, "properties": {"id": 9109460940, "feat_type": "node", "quality_categories": "older_than_five_years", "issue_ids": "[17]", "osm_url": "https://www.openstreetmap.org/node/9109460940", "josm_url": "http://127.0.0.1:8111/load_object?new_layer=false&objects=n9109460940", "id_url": "https://www.openstreetmap.org/edit?editor=id&node=9109460940#map=20/-12.0269107/-77.0400215"}}, {"type": "Feature", "geometry": {"type": "Point", "coordinates": [-76.9493527, -12.1014426]}, "properties": {"id": 9111680430, "feat_type": "node", "quality_categories": "older_than_five_years", "issue_ids": "[19]", "osm_url": "https://www.openstreetmap.org/node/9111680430", "josm_url": "http://127.0.0.1:8111/load_object?new_layer=false&objects=n9111680430", "id_url": "https://www.openstreetmap.org/edit?editor=id&node=9111680430#map=20/-12.1014426/-76.9493527"}}, {"type": "Feature", "geometry": {"type": "Point", "coordinates": [-76.9493267, -12.1014954]}, "properties": {"id": 9111680431, "feat_type": "node", "quality_categories": "older_than_five_years", "issue_ids": "[19]", "osm_url": "https://www.openstreetmap.org/node/9111680431", "josm_url": "http://127.0.0.1:8111/load_object?new_layer=false&objects=n9111680431", "id_url": "https://www.openstreetmap.org/edit?editor=id&node=9111680431#map=20/-12.1014954/-76.9493267"}}, {"type": "Feature", "geometry": {"type": "Point", "coordinates": [-76.9491818, -12.1051815]}, "properties": {"id": 9118109236, "feat_type": "node", "quality_categories": "older_than_five_years", "issue_ids": "[8]", "osm_url": "https://www.openstreetmap.org/node/9118109236", "josm_url": "http://127.0.0.1:8111/load_object?new_layer=false&objects=n9118109236", "id_url": "https://www.openstreetmap.org/edit?editor=id&node=9118109236#map=20/-12.1051815/-76.9491818"}}]}