{"type": "FeatureCollection", "features": [{"type": "Feature", "geometry": {"type": "Point", "coordinates": [-77.0290299, -12.1216629]}, "properties": {"id": 114613846, "feat_type": "node", "quality_categories": "disjointed_geometries, uncanny_keys", "issue_ids": "[0, 1]", "osm_url": "https://www.openstreetmap.org/node/114613846", "josm_url": "http://127.0.0.1:8111/load_object?new_layer=false&objects=n114613846", "id_url": "https://www.openstreetmap.org/edit?editor=id&node=114613846#map=20/-12.1216629/-77.0290299"}}, {"type": "Feature", "geometry": {"type": "Point", "coordinates": [-77.0348528, -12.0992234]}, "properties": {"id": 1273690370, "feat_type": "node", "quality_categories": "disjointed_geometries, improper_keys, uncanny_keys", "issue_ids": "[2, 3, 1]", "osm_url": "https://www.openstreetmap.org/node/1273690370", "josm_url": "http://127.0.0.1:8111/load_object?new_layer=false&objects=n1273690370", "id_url": "https://www.openstreetmap.org/edit?editor=id&node=1273690370#map=20/-12.0992234/-77.0348528"}}, {"type": "Feature", "geometry": {"type": "Point", "coordinates": [-77.0351, -12.1011566]}, "properties": {"id": 1759772453, "feat_type": "node", "quality_categories": "improper_keys, kerb_on_top_of_non_crossing, uncanny_keys", "issue_ids": "[2, 3, 4]", "osm_url": "https://www.openstreetmap.org/node/1759772453", "josm_url": "http://127.0.0.1:8111/load_object?new_layer=false&objects=n1759772453", "id_url": "https://www.openstreetmap.org/edit?editor=id&node=1759772453#map=20/-12.1011566/-77.0351"}}, {"type": "Feature", "geometry": {"type": "Point", "coordinates": [-76.9881161, -12.150459]}, "properties": {"id": 3214772673, "feat_type": "node", "quality_categories": "kerb_on_top_of_non_crossing, uncanny_keys", "issue_ids": "[0, 4]", "osm_url": "https://www.openstreetmap.org/node/3214772673", "josm_url": "http://127.0.0.1:8111/load_object?new_layer=false&objects=n3214772673", "id_url": "https://www.openstreetmap.org/edit?editor=id&node=3214772673#map=20/-12.150459/-76.9881161"}}, {"type": "Feature", "geometry": {"type": "Point", "coordinates": [-76.9880964, -12.1427045]}, "properties": {"id": 3214905895, "feat_type": "node", "quality_categories": "kerb_on_top_of_non_crossing, uncanny_keys", "issue_ids": "[0, 4]", "osm_url": "https://www.openstreetmap.org/node/3214905895", "josm_url": "http://127.0.0.1:8111/load_object?new_layer=false&objects=n3214905895", "id_url": "https://www.openstreetmap.org/edit?editor=id&node=3214905895#map=20/-12.1427045/-76.9880964"}}, {"type": "Feature", "geometry": {"type": "Point", "coordinates": [-76.9881809, -12.1427342]}, "properties": {"id": 3214905897, "feat_type": "node", "quality_categories": "kerb_on_top_of_non_crossing, uncanny_keys", "issue_ids": "[0, 4]", "osm_url": "https://www.openstreetmap.org/node/3214905897", "josm_url": "http://127.0.0.1:8111/load_object?new_layer=false&objects=n3214905897", "id_url": "https://www.openstreetmap.org/edit?editor=id&node=3214905897#map=20/-12.1427342/-76.9881809"}}, {"type": "Feature", "geometry": {"type": "Point", "coordinates": [-76.9879252, -12.1428961]}, "properties": {"id": 3214905901, "feat_type": "node", "quality_categories": "kerb_on_top_of_non_crossing, uncanny_keys", "issue_ids": "[0, 4]", "osm_url": "https://www.openstreetmap.org/node/3214905901", "josm_url": "http://127.0.0.1:8111/load_object?new_layer=false&objects=n3214905901", "id_url": "https://www.openstreetmap.org/edit?editor=id&node=3214905901#map=20/-12.1428961/-76.9879252"}}, {"type": "Feature", "geometry": {"type": "Point", "coordinates": [-76.9880516, -12.1429989]}, "properties": {"id": 3214905903, "feat_type": "node", "quality_categories": "kerb_on_top_of_non_crossing, uncanny_keys", "issue_ids": "[0, 4]", "osm_url": "https://www.openstreetmap.org/node/3214905903", "josm_url": "http://127.0.0.1:8111/load_object?new_layer=false&objects=n3214905903", "id_url": "https://www.openstreetmap.org/edit?editor=id&node=3214905903#map=20/-12.1429989/-76.9880516"}}, {"type": "Feature", "geometry": {"type": "Point", "coordinates": [-76.9852124, -12.1431721]}, "properties": {"id": 3227674468, "feat_type": "node", "quality_categories": "improper_keys, uncanny_keys", "issue_ids": "[5, 0]", "osm_url": "https://www.openstreetmap.org/node/3227674468", "josm_url": "http://127.0.0.1:8111/load_object?new_layer=false&objects=n3227674468", "id_url": "https://www.openstreetmap.org/edit?editor=id&node=3227674468#map=20/-12.1431721/-76.9852124"}}, {"type": "Feature", "geometry": {"type": "Point", "coordinates": [-76.9850848, -12.1431902]}, "properties": {"id": 3227674469, "feat_type": "node", "quality_categories": "improper_keys, uncanny_keys", "issue_ids": "[5, 0]", "osm_url": "https://www.openstreetmap.org/node/3227674469", "josm_url": "http://127.0.0.1:8111/load_object?new_layer=false&objects=n3227674469", "id_url": "https://www.openstreetmap.org/edit?editor=id&node=3227674469#map=20/-12.1431902/-76.9850848"}}, {"type": "Feature", "geometry": {"type": "Point", "coordinates": [-76.9852921, -12.1432273]}, "properties": {"id": 3227674470, "feat_type": "node", "quality_categories": "improper_keys, uncanny_keys", "issue_ids": "[5, 0]", "osm_url": "https://www.openstreetmap.org/node/3227674470", "josm_url": "http://127.0.0.1:8111/load_object?new_layer=false&objects=n3227674470", "id_url": "https://www.openstreetmap.org/edit?editor=id&node=3227674470#map=20/-12.1432273/-76.9852921"}}, {"type": "Feature", "geometry": {"type": "Point", "coordinates": [-76.9850242, -12.1432692]}, "properties": {"id": 3227674471, "feat_type": "node", "quality_categories": "improper_keys, uncanny_keys", "issue_ids": "[5, 0]", "osm_url": "https://www.openstreetmap.org/node/3227674471", "josm_url": "http://127.0.0.1:8111/load_object?new_layer=false&objects=n3227674471", "id_url": "https://www.openstreetmap.org/edit?editor=id&node=3227674471#map=20/-12.1432692/-76.9850242"}}, {"type": "Feature", "geometry": {"type": "Point", "coordinates": [-76.985049, -12.1433714]}, "properties": {"id": 3227674473, "feat_type": "node", "quality_categories": "improper_keys, uncanny_keys", "issue_ids": "[5, 0]", "osm_url": "https://www.openstreetmap.org/node/3227674473", "josm_url": "http://127.0.0.1:8111/load_object?new_layer=false&objects=n3227674473", "id_url": "https://www.openstreetmap.org/edit?editor=id&node=3227674473#map=20/-12.1433714/-76.985049"}}, {"type": "Feature", "geometry": {"type": "Point", "coordinates": [-76.9851311, -12.143475]}, "properties": {"id": 3227674474, "feat_type": "node", "quality_categories": "improper_keys, uncanny_keys", "issue_ids": "[5, 0]", "osm_url": "https://www.openstreetmap.org/node/3227674474", "josm_url": "http://127.0.0.1:8111/load_object?new_layer=false&objects=n3227674474", "id_url": "https://www.openstreetmap.org/edit?editor=id&node=3227674474#map=20/-12.143475/-76.9851311"}}, {"type": "Feature", "geometry": {"type": "Point", "coordinates": [-77.031735, -12.1228597]}, "properties": {"id": 3245705950, "feat_type": "node", "quality_categories": "kerb_on_top_of_non_crossing, uncanny_keys", "issue_ids": "[0, 4]", "osm_url": "https://www.openstreetmap.org/node/3245705950", "josm_url": "http://127.0.0.1:8111/load_object?new_layer=false&objects=n3245705950", "id_url": "https://www.openstreetmap.org/edit?editor=id&node=3245705950#map=20/-12.1228597/-77.031735"}}, {"type": "Feature", "geometry": {"type": "Point", "coordinates": [-77.0279322, -12.1248503]}, "properties": {"id": 3245705973, "feat_type": "node", "quality_categories": "improper_keys, kerb_on_top_of_non_crossing, uncanny_keys", "issue_ids": "[5, 0, 4]", "osm_url": "https://www.openstreetmap.org/node/3245705973", "josm_url": "http://127.0.0.1:8111/load_object?new_layer=false&objects=n3245705973", "id_url": "https://www.openstreetmap.org/edit?editor=id&node=3245705973#map=20/-12.1248503/-77.0279322"}}, {"type": "Feature", "geometry": {"type": "Point", "coordinates": [-77.0216993, -12.1491048]}, "properties": {"id": 3261249480, "feat_type": "node", "quality_categories": "kerb_on_top_of_non_crossing, uncanny_keys", "issue_ids": "[0, 4]", "osm_url": "https://www.openstreetmap.org/node/3261249480", "josm_url": "http://127.0.0.1:8111/load_object?new_layer=false&objects=n3261249480", "id_url": "https://www.openstreetmap.org/edit?editor=id&node=3261249480#map=20/-12.1491048/-77.0216993"}}, {"type": "Feature", "geometry": {"type": "Point", "coordinates": [-76.9853017, -12.1433269]}, "properties": {"id": 4363889776, "feat_type": "node", "quality_categories": "improper_keys, uncanny_keys", "issue_ids": "[5, 0]", "osm_url": "https://www.openstreetmap.org/node/4363889776", "josm_url": "http://127.0.0.1:8111/load_object?new_layer=false&objects=n4363889776", "id_url": "https://www.openstreetmap.org/edit?editor=id&node=4363889776#map=20/-12.1433269/-76.9853017"}}, {"type": "Feature", "geometry": {"type": "Point", "coordinates": [-77.0299037, -12.1297463]}, "properties": {"id": 10783381742, "feat_type": "node", "quality_categories": "improper_keys, kerb_on_top_of_non_crossing, uncanny_keys", "issue_ids": "[5, 0, 4]", "osm_url": "https://www.openstreetmap.org/node/10783381742", "josm_url": "http://127.0.0.1:8111/load_object?new_layer=false&objects=n10783381742", "id_url": "https://www.openstreetmap.org/edit?editor=id&node=10783381742#map=20/-12.1297463/-77.0299037"}}, {"type": "Feature", "geometry": {"type": "Point", "coordinates": [-77.0357761, -12.121212]}, "properties": {"id": 10800975114, "feat_type": "node", "quality_categories": "kerb_on_top_of_non_crossing, uncanny_keys", "issue_ids": "[0, 4]", "osm_url": "https://www.openstreetmap.org/node/10800975114", "josm_url": "http://127.0.0.1:8111/load_object?new_layer=false&objects=n10800975114", "id_url": "https://www.openstreetmap.org/edit?editor=id&node=10800975114#map=20/-12.121212/-77.0357761"}}, {"type": "Feature", "geometry": {"type": "Point", "coordinates": [-76.9852583, -12.1434549]}, "properties": {"id": 12408809403, "feat_type": "node", "quality_categories": "improper_keys, uncanny_keys", "issue_ids": "[5, 0]", "osm_url": "https://www.openstreetmap.org/node/12408809403", "josm_url": "http://127.0.0.1:8111/load_object?new_layer=false&objects=n12408809403", "id_url": "https://www.openstreetmap.org/edit?editor=id&node=12408809403#map=20/-12.1434549/-76.9852583"}}, {"type": "Feature", "geometry": {"type": "Point", "coordinates": [-76.9607641, -12.0632006]}, "properties": {"id": 12429057801, "feat_type": "node", "quality_categories": "kerb_on_top_of_non_crossing, uncanny_keys", "issue_ids": "[0, 4]", "osm_url": "https://www.openstreetmap.org/node/12429057801", "josm_url": "http://127.0.0.1:8111/load_object?new_layer=false&objects=n12429057801", "id_url": "https://www.openstreetmap.org/edit?editor=id&node=12429057801#map=20/-12.0632006/-76.9607641"}}]}