{"type": "FeatureCollection", "features": [{"type": "Feature", "geometry": {"type": "Point", "coordinates": [-77.0016925, -11.9668603]}, "properties": {"id": 12643422840, "feat_type": "node", "quality_categories": "improper_keys, kerb_on_top_of_non_crossing, wrong_mispelled_or_unlisted_values", "issue_ids": "[0, 1, 2]", "osm_url": "https://www.openstreetmap.org/node/12643422840", "josm_url": "http://127.0.0.1:8111/load_object?new_layer=false&objects=n12643422840", "id_url": "https://www.openstreetmap.org/edit?editor=id&node=12643422840#map=20/-11.9668603/-77.0016925"}}]}